{"type":"FeatureCollection", "features": [
{"type":"Feature","geometry":{"type":"Polygon","coordinates":[[[-58.15134,6.81716],[-58.15413,6.81792],[-58.15517,6.81422],[-58.15612,6.81086],[-58.15324,6.81006],[-58.15134,6.81716]]]},"properties":{"name":"Albertown","RDC":"4","Pop_2012":2357,"Shape_Le_1":2300.87038414,"District_I":"112","Shape_Leng":2300.87024647,"Shape_Area":269447.730153}},
{"type":"Feature","geometry":{"type":"Polygon","coordinates":[[[-58.15324,6.81006],[-58.14909,6.80899],[-58.14774,6.80861],[-58.14694,6.81176],[-58.1464,6.81388],[-58.14586,6.81566],[-58.15134,6.81716],[-58.15324,6.81006]]]},"properties":{"name":"Queenstown","RDC":"4","Pop_2012":1493,"Shape_Le_1":2910.8661069,"District_I":"111","Shape_Leng":2908.38522341,"Shape_Area":515766.563181}},
{"type":"Feature","geometry":{"type":"Polygon","coordinates":[[[-58.15655,6.82497],[-58.16134,6.82622],[-58.16217,6.82599],[-58.16381,6.82656],[-58.16463,6.82708],[-58.16482,6.82739],[-58.1653,6.82695],[-58.1655,6.82617],[-58.16552,6.82545],[-58.16581,6.82537],[-58.16637,6.82293],[-58.1662,6.82253],[-58.16612,6.82129],[-58.16553,6.82104],[-58.15834,6.81907],[-58.15753,6.82169],[-58.15655,6.82497]]]},"properties":{"name":"Kingston","RDC":"4","Pop_2012":319,"Shape_Le_1":3401.53228898,"District_I":"109","Shape_Leng":3400.26233227,"Shape_Area":657747.416879}},
{"type":"Feature","geometry":{"type":"Polygon","coordinates":[[[-58.13824,6.80607],[-58.14643,6.80828],[-58.14774,6.80861],[-58.14813,6.80766],[-58.14885,6.80698],[-58.15011,6.80642],[-58.15077,6.80574],[-58.14929,6.80535],[-58.13295,6.80125],[-58.13202,6.80442],[-58.13494,6.80519],[-58.13824,6.80607]]]},"properties":{"name":"Botanical Gardens","RDC":"4","Pop_2012":255,"Shape_Le_1":4718.8950249,"District_I":"100","Shape_Leng":4719.40831278,"Shape_Area":730791.56158}},
{"type":"Feature","geometry":{"type":"Polygon","coordinates":[[[-58.14453,6.79164],[-58.14763,6.79251],[-58.14981,6.79307],[-58.15304,6.79384],[-58.1532,6.79322],[-58.15389,6.79033],[-58.15045,6.78941],[-58.1455,6.78805],[-58.14453,6.79164]]]},"properties":{"name":"East Ruimveldt","RDC":"4","Pop_2012":3428,"Shape_Le_1":2763.7152113,"District_I":"142","Shape_Leng":2768.75773129,"Shape_Area":402809.467916}},
{"type":"Feature","geometry":{"type":"Polygon","coordinates":[[[-58.1193,6.78487],[-58.12007,6.78512],[-58.12452,6.78625],[-58.12733,6.78704],[-58.1283,6.78307],[-58.12396,6.78189],[-58.12036,6.78094],[-58.1193,6.78487]]]},"properties":{"name":"North Ruimveldt","RDC":"4","Pop_2012":2426,"Shape_Le_1":2756.2191532,"District_I":"137","Shape_Leng":2756.24343181,"Shape_Area":422796.367421}},
{"type":"Feature","geometry":{"type":"Polygon","coordinates":[[[-58.12733,6.78704],[-58.1313,6.78824],[-58.13221,6.78848],[-58.13327,6.78436],[-58.1283,6.78307],[-58.12733,6.78704]]]},"properties":{"name":"Festival City (North Ruimveldt)","RDC":"4","Pop_2012":2799,"Shape_Le_1":2072.64993921,"District_I":"138","Shape_Leng":2072.61998551,"Shape_Area":266497.461897}},
{"type":"Feature","geometry":{"type":"Polygon","coordinates":[[[-58.15111,6.80414],[-58.15163,6.80424],[-58.15722,6.80577],[-58.15792,6.80234],[-58.15131,6.80064],[-58.15095,6.80226],[-58.15093,6.80352],[-58.15111,6.80414]]]},"properties":{"name":"Wortmanville","RDC":"4","Pop_2012":2845,"Shape_Le_1":2258.10301467,"District_I":"119","Shape_Leng":2258.18631158,"Shape_Area":289437.4113}},
{"type":"Feature","geometry":{"type":"Polygon","coordinates":[[[-58.17361,6.78412],[-58.17392,6.78426],[-58.17411,6.78338],[-58.17471,6.7814],[-58.17438,6.78123],[-58.17475,6.78038],[-58.16912,6.77892],[-58.16915,6.77925],[-58.16812,6.78243],[-58.17269,6.78358],[-58.17361,6.78412]]]},"properties":{"name":"McDoom","RDC":"4","Pop_2012":843,"Shape_Le_1":2222.24838329,"District_I":"151","Shape_Leng":2222.33331967,"Shape_Area":270550.409057}},
{"type":"Feature","geometry":{"type":"Polygon","coordinates":[[[-58.14774,6.80861],[-58.14643,6.80828],[-58.13824,6.80607],[-58.13831,6.80669],[-58.13764,6.80926],[-58.14111,6.8102],[-58.14694,6.81176],[-58.14774,6.80861]]]},"properties":{"name":"Bel Air Park","RDC":"4","Pop_2012":619,"Shape_Le_1":2897.41166307,"District_I":"105","Shape_Leng":2900.64751823,"Shape_Area":390354.353877}},
{"type":"Feature","geometry":{"type":"Polygon","coordinates":[[[-58.1193,6.78487],[-58.11961,6.7852],[-58.11906,6.78729],[-58.11868,6.78861],[-58.12115,6.78923],[-58.12592,6.79044],[-58.12667,6.78751],[-58.12733,6.78704],[-58.12452,6.78625],[-58.12007,6.78512],[-58.1193,6.78487]]]},"properties":{"name":"Lahama Springs","RDC":"4","Pop_2012":697,"Shape_Le_1":2668.59830501,"District_I":"136","Shape_Leng":2668.59996966,"Shape_Area":345909.929968}},
{"type":"Feature","geometry":{"type":"Polygon","coordinates":[[[-58.16381,6.79843],[-58.17035,6.80014],[-58.1706,6.79901],[-58.17041,6.79896],[-58.17053,6.79827],[-58.16977,6.79818],[-58.1685,6.7978],[-58.16421,6.79673],[-58.16381,6.79843]]]},"properties":{"name":"La Penitence (Castello Housing Scheme)","RDC":"4","Pop_2012":1100,"Shape_Le_1":2012.45866252,"District_I":"124","Shape_Leng":2012.37870765,"Shape_Area":147436.067958}},
{"type":"Feature","geometry":{"type":"Polygon","coordinates":[[[-58.15304,6.79384],[-58.15482,6.79427],[-58.16014,6.7957],[-58.16421,6.79673],[-58.1642,6.7962],[-58.1642,6.79608],[-58.1532,6.79322],[-58.15304,6.79384]]]},"properties":{"name":"Laing Avenue","RDC":"4","Pop_2012":1267,"Shape_Le_1":2697.16671803,"District_I":"144","Shape_Leng":2694.93237938,"Shape_Area":90763.7107718}},
{"type":"Feature","geometry":{"type":"Polygon","coordinates":[[[-58.17053,6.79827],[-58.17037,6.7978],[-58.17081,6.79677],[-58.17107,6.79579],[-58.17119,6.7943],[-58.17143,6.79337],[-58.172,6.7919],[-58.17186,6.79139],[-58.17213,6.79108],[-58.16964,6.79055],[-58.16926,6.79337],[-58.1691,6.79411],[-58.16856,6.79735],[-58.1685,6.7978],[-58.16977,6.79818],[-58.17053,6.79827]]]},"properties":{"name":"River View Ruimveldt","RDC":"4","Pop_2012":630,"Shape_Le_1":2501.94998527,"District_I":"146","Shape_Leng":2501.22604425,"Shape_Area":202474.051693}},
{"type":"Feature","geometry":{"type":"Polygon","coordinates":[[[-58.15722,6.80577],[-58.16165,6.80692],[-58.16236,6.80348],[-58.16074,6.80306],[-58.15792,6.80234],[-58.15722,6.80577]]]},"properties":{"name":"Newburg","RDC":"4","Pop_2012":760,"Shape_Le_1":1805.62142787,"District_I":"120","Shape_Leng":1806.63361883,"Shape_Area":200599.719597}},
{"type":"Feature","geometry":{"type":"Polygon","coordinates":[[[-58.1532,6.79322],[-58.1642,6.79608],[-58.16433,6.79519],[-58.16494,6.79302],[-58.16416,6.79294],[-58.16261,6.79257],[-58.15688,6.7911],[-58.15389,6.79033],[-58.1532,6.79322]]]},"properties":{"name":"West Ruimveldt","RDC":"4","Pop_2012":4206,"Shape_Le_1":3222.72806003,"District_I":"143","Shape_Leng":3221.17293533,"Shape_Area":422540.687015}},
{"type":"Feature","geometry":{"type":"Polygon","coordinates":[[[-58.14694,6.81176],[-58.14111,6.8102],[-58.14009,6.81399],[-58.14009,6.81402],[-58.14586,6.81566],[-58.1464,6.81388],[-58.14694,6.81176]]]},"properties":{"name":"Newtown","RDC":"4","Pop_2012":2725,"Shape_Le_1":2236.64957124,"District_I":"106","Shape_Leng":2236.79901669,"Shape_Area":301764.148368}},
{"type":"Feature","geometry":{"type":"Polygon","coordinates":[[[-58.13451,6.82073],[-58.1343,6.82128],[-58.133,6.82576],[-58.13671,6.82547],[-58.13703,6.82473],[-58.13754,6.82287],[-58.13797,6.82163],[-58.13451,6.82073]]]},"properties":{"name":"Subryanville","RDC":"4","Pop_2012":42,"Shape_Le_1":1856.80236122,"District_I":"104","Shape_Leng":1857.2002476,"Shape_Area":204637.446617}},
{"type":"Feature","geometry":{"type":"Polygon","coordinates":[[[-58.17475,6.78038],[-58.17525,6.77905],[-58.17505,6.77874],[-58.17553,6.77714],[-58.17413,6.77679],[-58.17276,6.77657],[-58.16453,6.77458],[-58.16359,6.7775],[-58.16912,6.77892],[-58.17475,6.78038]]]},"properties":{"name":"Agricola Village","RDC":"4","Pop_2012":2504,"Shape_Le_1":3275.62324086,"District_I":"152","Shape_Leng":3275.61955201,"Shape_Area":450719.73043}},
{"type":"Feature","geometry":{"type":"Polygon","coordinates":[[[-58.15077,6.80574],[-58.15109,6.80488],[-58.15111,6.80414],[-58.14967,6.80374],[-58.14379,6.80225],[-58.14115,6.80153],[-58.13969,6.80119],[-58.13732,6.80057],[-58.13344,6.79958],[-58.13295,6.80125],[-58.14929,6.80535],[-58.15077,6.80574]]]},"properties":{"name":"Durban Area","RDC":"4","Pop_2012":134,"Shape_Le_1":4460.36990839,"District_I":"129","Shape_Leng":4460.61665191,"Shape_Area":388111.063585}},
{"type":"Feature","geometry":{"type":"Polygon","coordinates":[[[-58.15753,6.82169],[-58.1452,6.81826],[-58.14327,6.82584],[-58.14498,6.82574],[-58.15121,6.82521],[-58.15406,6.82491],[-58.15612,6.82485],[-58.15655,6.82497],[-58.15753,6.82169]]]},"properties":{"name":"Thomas Lands","RDC":"4","Pop_2012":13,"Shape_Le_1":4172.19038659,"District_I":"108","Shape_Leng":4171.14584863,"Shape_Area":876735.345465}},
{"type":"Feature","geometry":{"type":"Polygon","coordinates":[[[-58.13969,6.80119],[-58.1402,6.79868],[-58.14053,6.79776],[-58.13795,6.79709],[-58.13833,6.79737],[-58.13816,6.79817],[-58.13787,6.79862],[-58.13792,6.79906],[-58.13749,6.79938],[-58.13732,6.80057],[-58.13969,6.80119]]]},"properties":{"name":"Lodge Housing Scheme","RDC":"4","Pop_2012":704,"Shape_Le_1":1421.03819547,"District_I":"130","Shape_Leng":1426.03194838,"Shape_Area":101838.544068}},
{"type":"Feature","geometry":{"type":"Polygon","coordinates":[[[-58.16236,6.80348],[-58.16846,6.80503],[-58.16844,6.80518],[-58.16945,6.80535],[-58.16965,6.80517],[-58.16994,6.80357],[-58.16976,6.8026],[-58.16873,6.80232],[-58.16974,6.80243],[-58.16987,6.80162],[-58.16341,6.80003],[-58.16165,6.79955],[-58.16074,6.80306],[-58.16236,6.80348]]]},"properties":{"name":"Charlestown","RDC":"4","Pop_2012":3093,"Shape_Le_1":3120.30293303,"District_I":"122","Shape_Leng":3119.38685285,"Shape_Area":399391.950204}},
{"type":"Feature","geometry":{"type":"Polygon","coordinates":[[[-58.16381,6.79843],[-58.15718,6.79674],[-58.15722,6.79658],[-58.15262,6.79542],[-58.15249,6.79591],[-58.15219,6.79701],[-58.16165,6.79955],[-58.16341,6.80003],[-58.16987,6.80162],[-58.17009,6.80125],[-58.17035,6.80014],[-58.16381,6.79843]]]},"properties":{"name":"Albouystown","RDC":"4","Pop_2012":3838,"Shape_Le_1":4506.96929844,"District_I":"123","Shape_Leng":4504.33002905,"Shape_Area":373056.335547}},
{"type":"Feature","geometry":{"type":"Polygon","coordinates":[[[-58.15792,6.80234],[-58.16074,6.80306],[-58.16165,6.79955],[-58.15219,6.79701],[-58.1503,6.79651],[-58.14478,6.79521],[-58.14209,6.79442],[-58.14053,6.79776],[-58.14452,6.79875],[-58.15058,6.80038],[-58.15131,6.80064],[-58.15792,6.80234]]]},"properties":{"name":"Le Repentir Cemetery","RDC":"4","Pop_2012":0,"Shape_Le_1":5409.9427569,"District_I":"","Shape_Leng":5400.20078446,"Shape_Area":934399.652542}},
{"type":"Feature","geometry":{"type":"Polygon","coordinates":[[[-58.1685,6.7978],[-58.16856,6.79735],[-58.16533,6.79647],[-58.1642,6.7962],[-58.16421,6.79673],[-58.1685,6.7978]]]},"properties":{"name":"Yarrow Dam","RDC":"4","Pop_2012":105,"Shape_Le_1":1106.62889692,"District_I":"145","Shape_Leng":1104.95730256,"Shape_Area":26921.4233803}},
{"type":"Feature","geometry":{"type":"Polygon","coordinates":[[[-58.16165,6.80692],[-58.16889,6.80884],[-58.16914,6.80852],[-58.16876,6.80839],[-58.16894,6.80743],[-58.16923,6.80748],[-58.16947,6.80623],[-58.16928,6.80619],[-58.16945,6.80535],[-58.16844,6.80518],[-58.16846,6.80503],[-58.16236,6.80348],[-58.16165,6.80692]]]},"properties":{"name":"Werk En Rust","RDC":"4","Pop_2012":3699,"Shape_Le_1":2644.13136951,"District_I":"121","Shape_Leng":2642.29887518,"Shape_Area":329121.559165}},
{"type":"Feature","geometry":{"type":"Polygon","coordinates":[[[-58.15793,6.81136],[-58.16257,6.81258],[-58.16671,6.81373],[-58.16669,6.81383],[-58.16815,6.81425],[-58.16876,6.81068],[-58.16828,6.8104],[-58.15888,6.80794],[-58.15793,6.81136]]]},"properties":{"name":"Lacytown","RDC":"4","Pop_2012":354,"Shape_Le_1":3191.57644771,"District_I":"117","Shape_Leng":3191.74034478,"Shape_Area":464534.093452}},
{"type":"Feature","geometry":{"type":"Polygon","coordinates":[[[-58.12609,6.82404],[-58.12536,6.82639],[-58.12926,6.82605],[-58.12993,6.82378],[-58.12889,6.82407],[-58.12792,6.82419],[-58.12685,6.82418],[-58.12609,6.82404]]]},"properties":{"name":"Bel Air Springs","RDC":"4","Pop_2012":49,"Shape_Le_1":1410.5577012,"District_I":"95","Shape_Leng":1410.26529584,"Shape_Area":99843.511671}},
{"type":"Feature","geometry":{"type":"Polygon","coordinates":[[[-58.11906,6.78729],[-58.11623,6.78653],[-58.11598,6.78743],[-58.11572,6.78754],[-58.11372,6.7943],[-58.11316,6.79629],[-58.11221,6.79947],[-58.11124,6.80314],[-58.10882,6.8118],[-58.10817,6.81368],[-58.10669,6.81878],[-58.10595,6.82142],[-58.10534,6.82332],[-58.10539,6.82379],[-58.10799,6.82456],[-58.11065,6.8251],[-58.11145,6.82249],[-58.11326,6.816],[-58.11392,6.81331],[-58.1161,6.8061],[-58.11772,6.80095],[-58.12018,6.79252],[-58.12115,6.78923],[-58.11868,6.78861],[-58.11906,6.78729]]]},"properties":{"name":"Cummings Lodge","RDC":"4","Pop_2012":7245,"Shape_Le_1":9940.10076922,"District_I":"90","Shape_Leng":9939.38630783,"Shape_Area":2654686.38505}},
{"type":"Feature","geometry":{"type":"Polygon","coordinates":[[[-58.11925,6.8264],[-58.12005,6.82678],[-58.12238,6.82713],[-58.12261,6.82708],[-58.12326,6.82468],[-58.1235,6.82336],[-58.12329,6.82331],[-58.12372,6.82188],[-58.12563,6.81598],[-58.12682,6.81215],[-58.1268,6.81077],[-58.1281,6.80631],[-58.12844,6.80529],[-58.12918,6.80466],[-58.1301,6.80153],[-58.13221,6.79465],[-58.13287,6.79241],[-58.13267,6.79237],[-58.13171,6.79183],[-58.12992,6.79138],[-58.12894,6.79451],[-58.1274,6.79978],[-58.1266,6.80234],[-58.12454,6.80947],[-58.12458,6.80948],[-58.1236,6.81318],[-58.12291,6.81539],[-58.12105,6.82198],[-58.1205,6.82196],[-58.11993,6.82247],[-58.12013,6.82272],[-58.11925,6.8264]]]},"properties":{"name":"Lilliandaal","RDC":"4","Pop_2012":3099,"Shape_Le_1":9024.92985106,"District_I":"93","Shape_Leng":9023.48777867,"Shape_Area":1334211.0295}},
{"type":"Feature","geometry":{"type":"Polygon","coordinates":[[[-58.12992,6.79138],[-58.12928,6.79134],[-58.12669,6.79064],[-58.12597,6.79272],[-58.12571,6.79406],[-58.1239,6.80024],[-58.12273,6.804],[-58.12198,6.80652],[-58.12129,6.8085],[-58.11958,6.80799],[-58.11825,6.81235],[-58.11666,6.81784],[-58.1156,6.82128],[-58.11437,6.82563],[-58.11656,6.82591],[-58.11865,6.82612],[-58.11925,6.8264],[-58.12013,6.82272],[-58.11993,6.82247],[-58.1205,6.82196],[-58.12105,6.82198],[-58.12291,6.81539],[-58.1236,6.81318],[-58.12458,6.80948],[-58.12454,6.80947],[-58.1266,6.80234],[-58.1274,6.79978],[-58.12894,6.79451],[-58.12992,6.79138]]]},"properties":{"name":"Pattensen","RDC":"4","Pop_2012":5013,"Shape_Le_1":9457.98719149,"District_I":"92","Shape_Leng":9458.20111085,"Shape_Area":1924497.87358}},
{"type":"Feature","geometry":{"type":"Polygon","coordinates":[[[-58.15413,6.81792],[-58.15834,6.81907],[-58.16553,6.82104],[-58.16561,6.82087],[-58.16694,6.82113],[-58.16724,6.81978],[-58.16706,6.81906],[-58.1674,6.81866],[-58.16744,6.81779],[-58.16424,6.81696],[-58.16429,6.81673],[-58.15935,6.81538],[-58.15517,6.81422],[-58.15413,6.81792]]]},"properties":{"name":"North Cummingsburg","RDC":"4","Pop_2012":2357,"Shape_Le_1":3799.93558642,"District_I":"113","Shape_Leng":3794.96960303,"Shape_Area":609117.197831}},
{"type":"Feature","geometry":{"type":"Polygon","coordinates":[[[-58.15517,6.81422],[-58.15935,6.81538],[-58.16429,6.81673],[-58.16424,6.81696],[-58.16744,6.81779],[-58.16763,6.81687],[-58.16746,6.8166],[-58.16757,6.81567],[-58.16782,6.81588],[-58.16815,6.81425],[-58.16669,6.81383],[-58.16671,6.81373],[-58.16257,6.81258],[-58.15793,6.81136],[-58.15612,6.81086],[-58.15517,6.81422]]]},"properties":{"name":"South Cummingsburg","RDC":"4","Pop_2012":2357,"Shape_Le_1":3879.70872235,"District_I":"114","Shape_Leng":3878.18277065,"Shape_Area":560353.274072}},
{"type":"Feature","geometry":{"type":"Polygon","coordinates":[[[-58.17213,6.79108],[-58.17232,6.79071],[-58.17229,6.78995],[-58.17283,6.78986],[-58.17294,6.79042],[-58.17335,6.78834],[-58.17314,6.7883],[-58.17303,6.78892],[-58.17266,6.78884],[-58.17315,6.78768],[-58.17305,6.78712],[-58.17272,6.78725],[-58.17185,6.78686],[-58.16877,6.78606],[-58.16872,6.78624],[-58.16699,6.78577],[-58.16603,6.78545],[-58.16324,6.78483],[-58.16089,6.78425],[-58.15985,6.78808],[-58.16595,6.78968],[-58.16609,6.78949],[-58.16943,6.79036],[-58.16964,6.79055],[-58.17213,6.79108]]]},"properties":{"name":"Meadow Bank (Houston)","RDC":"4","Pop_2012":695,"Shape_Le_1":4188.98820403,"District_I":"149","Shape_Leng":4174.89808088,"Shape_Area":638799.871634}},
{"type":"Feature","geometry":{"type":"Polygon","coordinates":[[[-58.15389,6.79033],[-58.15688,6.7911],[-58.15772,6.78751],[-58.15137,6.78585],[-58.15045,6.78941],[-58.15389,6.79033]]]},"properties":{"name":"Roxanne Burnham Gardens","RDC":"4","Pop_2012":2058,"Shape_Le_1":13.9640317957,"District_I":"141","Shape_Leng":2295.72914491,"Shape_Area":304370.780831}},
{"type":"Feature","geometry":{"type":"Polygon","coordinates":[[[-58.14453,6.79164],[-58.14439,6.7922],[-58.14408,6.79254],[-58.14268,6.79356],[-58.14354,6.79416],[-58.14378,6.7937],[-58.14637,6.79433],[-58.15249,6.79591],[-58.15262,6.79542],[-58.15304,6.79384],[-58.14981,6.79307],[-58.14763,6.79251],[-58.14453,6.79164]]]},"properties":{"name":"East La Penitence","RDC":"4","Pop_2012":1984,"Shape_Le_1":2712.77700089,"District_I":"126","Shape_Leng":2713.1036322,"Shape_Area":246236.365767}},
{"type":"Feature","geometry":{"type":"Polygon","coordinates":[[[-58.1455,6.78805],[-58.14562,6.7876],[-58.14058,6.78628],[-58.13327,6.78436],[-58.13221,6.78848],[-58.13362,6.78883],[-58.13646,6.78965],[-58.13949,6.79039],[-58.13961,6.79069],[-58.13884,6.79362],[-58.14209,6.79442],[-58.14268,6.79356],[-58.14408,6.79254],[-58.14439,6.7922],[-58.14453,6.79164],[-58.1455,6.78805]]]},"properties":{"name":"Tucville","RDC":"4","Pop_2012":1319,"Shape_Le_1":4391.26640784,"District_I":"133","Shape_Leng":4390.92014203,"Shape_Area":850485.508309}},
{"type":"Feature","geometry":{"type":"Polygon","coordinates":[[[-58.15045,6.78941],[-58.15137,6.78585],[-58.14529,6.78427],[-58.1414,6.7833],[-58.14058,6.78628],[-58.14562,6.7876],[-58.1455,6.78805],[-58.15045,6.78941]]]},"properties":{"name":"South Ruimveldt Gardens","RDC":"4","Pop_2012":3428,"Shape_Le_1":3115.00189591,"District_I":"140","Shape_Leng":3113.36877531,"Shape_Area":435004.814059}},
{"type":"Feature","geometry":{"type":"Polygon","coordinates":[[[-58.13295,6.80125],[-58.13344,6.79958],[-58.13441,6.79625],[-58.13543,6.79276],[-58.13397,6.79242],[-58.13287,6.79241],[-58.13221,6.79465],[-58.1301,6.80153],[-58.12918,6.80466],[-58.12844,6.80529],[-58.1281,6.80631],[-58.1268,6.81077],[-58.12682,6.81215],[-58.12563,6.81598],[-58.12372,6.82188],[-58.12329,6.82331],[-58.1235,6.82336],[-58.12326,6.82468],[-58.12261,6.82708],[-58.12351,6.82658],[-58.12536,6.82639],[-58.12609,6.82404],[-58.12719,6.82053],[-58.12839,6.8171],[-58.13012,6.81112],[-58.13023,6.8109],[-58.13202,6.80442],[-58.13295,6.80125]]]},"properties":{"name":"Sophia","RDC":"4","Pop_2012":3687,"Shape_Le_1":8652.77174507,"District_I":"94","Shape_Leng":8649.97609698,"Shape_Area":1261316.06788}},
{"type":"Feature","geometry":{"type":"Polygon","coordinates":[[[-58.12719,6.82053],[-58.13043,6.82145],[-58.13138,6.81794],[-58.12839,6.8171],[-58.12719,6.82053]]]},"properties":{"name":"New Haven","RDC":"4","Pop_2012":199,"Shape_Le_1":1537.17591229,"District_I":"97","Shape_Leng":1538.59657736,"Shape_Area":146948.797852}},
{"type":"Feature","geometry":{"type":"Polygon","coordinates":[[[-58.16812,6.78243],[-58.16793,6.78239],[-58.16699,6.78577],[-58.16872,6.78624],[-58.16877,6.78606],[-58.17185,6.78686],[-58.17272,6.78725],[-58.17305,6.78712],[-58.17328,6.787],[-58.17343,6.78586],[-58.17373,6.78496],[-58.17349,6.78491],[-58.17361,6.78412],[-58.17269,6.78358],[-58.16812,6.78243]]]},"properties":{"name":"Houston","RDC":"4","Pop_2012":999,"Shape_Le_1":2200.70158694,"District_I":"150","Shape_Leng":2187.91960133,"Shape_Area":265414.716734}},
{"type":"Feature","geometry":{"type":"Polygon","coordinates":[[[-58.13287,6.79241],[-58.13397,6.79242],[-58.13543,6.79276],[-58.13768,6.79328],[-58.13884,6.79362],[-58.13961,6.79069],[-58.13949,6.79039],[-58.13646,6.78965],[-58.13362,6.78883],[-58.13267,6.79237],[-58.13287,6.79241]]]},"properties":{"name":"Guyhoc Park","RDC":"4","Pop_2012":945,"Shape_Le_1":2175.3817259,"District_I":"134","Shape_Leng":2174.62123842,"Shape_Area":261232.204642}},
{"type":"Feature","geometry":{"type":"Polygon","coordinates":[[[-58.12115,6.78923],[-58.12018,6.79252],[-58.11772,6.80095],[-58.1161,6.8061],[-58.11392,6.81331],[-58.11326,6.816],[-58.11145,6.82249],[-58.11065,6.8251],[-58.11271,6.82544],[-58.11437,6.82563],[-58.1156,6.82128],[-58.11666,6.81784],[-58.11825,6.81235],[-58.11958,6.80799],[-58.12129,6.8085],[-58.12198,6.80652],[-58.12273,6.804],[-58.1239,6.80024],[-58.12571,6.79406],[-58.12597,6.79272],[-58.12669,6.79064],[-58.12592,6.79044],[-58.12115,6.78923]]]},"properties":{"name":"Turkeyen","RDC":"4","Pop_2012":6601,"Shape_Le_1":9789.82893413,"District_I":"91","Shape_Leng":9596.88184689,"Shape_Area":2205765.94564}},
{"type":"Feature","geometry":{"type":"Polygon","coordinates":[[[-58.1642,6.7962],[-58.16533,6.79647],[-58.16856,6.79735],[-58.1691,6.79411],[-58.16494,6.79302],[-58.16433,6.79519],[-58.1642,6.79608],[-58.1642,6.7962]]]},"properties":{"name":"Alexander Village","RDC":"4","Pop_2012":1342,"Shape_Le_1":1718.38564166,"District_I":"147","Shape_Leng":1717.49935008,"Shape_Area":181228.385408}},
{"type":"Feature","geometry":{"type":"Polygon","coordinates":[[[-58.16964,6.79055],[-58.16943,6.79036],[-58.16609,6.78949],[-58.16595,6.78968],[-58.15985,6.78808],[-58.15772,6.78751],[-58.15688,6.7911],[-58.16261,6.79257],[-58.16416,6.79294],[-58.16494,6.79302],[-58.1691,6.79411],[-58.16926,6.79337],[-58.16964,6.79055]]]},"properties":{"name":"West Ruimveldt","RDC":"4","Pop_2012":4206,"Shape_Le_1":3611.48593938,"District_I":"143","Shape_Leng":3610.87320057,"Shape_Area":569908.466237}},
{"type":"Feature","geometry":{"type":"Polygon","coordinates":[[[-58.14053,6.79776],[-58.14209,6.79442],[-58.13884,6.79362],[-58.13768,6.79328],[-58.13543,6.79276],[-58.13441,6.79625],[-58.13552,6.79647],[-58.13795,6.79709],[-58.14053,6.79776]]]},"properties":{"name":"Meadow Brook Gardens","RDC":"4","Pop_2012":1370,"Shape_Le_1":2280.08638793,"District_I":"132","Shape_Leng":2286.29940022,"Shape_Area":295101.600851}},
{"type":"Feature","geometry":{"type":"Polygon","coordinates":[[[-58.13732,6.80057],[-58.13749,6.79938],[-58.13792,6.79906],[-58.13787,6.79862],[-58.13816,6.79817],[-58.13833,6.79737],[-58.13795,6.79709],[-58.13552,6.79647],[-58.13441,6.79625],[-58.13344,6.79958],[-58.13732,6.80057]]]},"properties":{"name":"Century Palm Gardens (Lodge)","RDC":"4","Pop_2012":265,"Shape_Le_1":1700.99833619,"District_I":"131","Shape_Leng":1699.22971487,"Shape_Area":176783.914436}},
{"type":"Feature","geometry":{"type":"Polygon","coordinates":[[[-58.16421,6.79673],[-58.16014,6.7957],[-58.15482,6.79427],[-58.15304,6.79384],[-58.15262,6.79542],[-58.15722,6.79658],[-58.15718,6.79674],[-58.16381,6.79843],[-58.16421,6.79673]]]},"properties":{"name":"West La Penitence","RDC":"4","Pop_2012":3099,"Shape_Le_1":2970.68354352,"District_I":"125","Shape_Leng":2973.48155087,"Shape_Area":245132.89442}},
{"type":"Feature","geometry":{"type":"Polygon","coordinates":[[[-58.13202,6.80442],[-58.13023,6.8109],[-58.13012,6.81112],[-58.13303,6.81192],[-58.13413,6.80834],[-58.13494,6.80519],[-58.13202,6.80442]]]},"properties":{"name":"Lamaha Gardens","RDC":"4","Pop_2012":638,"Shape_Le_1":2240.47717485,"District_I":"99","Shape_Leng":2238.04057323,"Shape_Area":263308.225567}},
{"type":"Feature","geometry":{"type":"Polygon","coordinates":[[[-58.15131,6.80064],[-58.15058,6.80038],[-58.14452,6.79875],[-58.14053,6.79776],[-58.1402,6.79868],[-58.13969,6.80119],[-58.14115,6.80153],[-58.14379,6.80225],[-58.14967,6.80374],[-58.15111,6.80414],[-58.15093,6.80352],[-58.15095,6.80226],[-58.15131,6.80064]]]},"properties":{"name":"Lodge","RDC":"4","Pop_2012":4934,"Shape_Le_1":3361.12927644,"District_I":"128","Shape_Leng":3354.82266001,"Shape_Area":498751.35655}},
{"type":"Feature","geometry":{"type":"Polygon","coordinates":[[[-58.15111,6.80414],[-58.15109,6.80488],[-58.15077,6.80574],[-58.15529,6.807],[-58.15888,6.80794],[-58.16828,6.8104],[-58.16845,6.80961],[-58.16883,6.80946],[-58.16889,6.80884],[-58.16165,6.80692],[-58.15722,6.80577],[-58.15163,6.80424],[-58.15111,6.80414]]]},"properties":{"name":"Stabroek","RDC":"4","Pop_2012":2845,"Shape_Le_1":4504.80294982,"District_I":"116","Shape_Leng":4489.39811022,"Shape_Area":379335.78414}},
{"type":"Feature","geometry":{"type":"Polygon","coordinates":[[[-58.15134,6.81716],[-58.14586,6.81566],[-58.1452,6.81826],[-58.15753,6.82169],[-58.15834,6.81907],[-58.15413,6.81792],[-58.15134,6.81716]]]},"properties":{"name":"Non Pariel Park","RDC":"4","Pop_2012":42,"Shape_Le_1":3472.72711275,"District_I":"110","Shape_Leng":3473.88419613,"Shape_Area":434593.812881}},
{"type":"Feature","geometry":{"type":"Polygon","coordinates":[[[-58.15249,6.79591],[-58.14637,6.79433],[-58.14378,6.7937],[-58.14354,6.79416],[-58.14268,6.79356],[-58.14209,6.79442],[-58.14478,6.79521],[-58.1503,6.79651],[-58.15219,6.79701],[-58.15249,6.79591]]]},"properties":{"name":"North East La Penitence","RDC":"4","Pop_2012":1139,"Shape_Le_1":2594.81626637,"District_I":"127","Shape_Leng":2593.27434724,"Shape_Area":145970.738001}},
{"type":"Feature","geometry":{"type":"Polygon","coordinates":[[[-58.12733,6.78704],[-58.12667,6.78751],[-58.12592,6.79044],[-58.12669,6.79064],[-58.12928,6.79134],[-58.12992,6.79138],[-58.13171,6.79183],[-58.13267,6.79237],[-58.13362,6.78883],[-58.13221,6.78848],[-58.1313,6.78824],[-58.12733,6.78704]]]},"properties":{"name":"Lamaha Park","RDC":"4","Pop_2012":1116,"Shape_Le_1":2375.25098809,"District_I":"135","Shape_Leng":2375.90686521,"Shape_Area":306459.309199}},
{"type":"Feature","geometry":{"type":"Polygon","coordinates":[[[-58.13451,6.82073],[-58.13128,6.82314],[-58.12993,6.82378],[-58.12926,6.82605],[-58.133,6.82576],[-58.1343,6.82128],[-58.13451,6.82073]]]},"properties":{"name":"Bel Air Gardens","RDC":"4","Pop_2012":77,"Shape_Le_1":1886.57885981,"District_I":"103","Shape_Leng":1888.91856877,"Shape_Area":157390.46186}},
{"type":"Feature","geometry":{"type":"Polygon","coordinates":[[[-58.12993,6.82378],[-58.13056,6.82163],[-58.13043,6.82145],[-58.12719,6.82053],[-58.12609,6.82404],[-58.12685,6.82418],[-58.12792,6.82419],[-58.12889,6.82407],[-58.12993,6.82378]]]},"properties":{"name":"Bel Air","RDC":"4","Pop_2012":444,"Shape_Le_1":1503.27921398,"District_I":"96","Shape_Leng":1503.01469694,"Shape_Area":142816.087146}},
{"type":"Feature","geometry":{"type":"Polygon","coordinates":[[[-58.1283,6.78307],[-58.13327,6.78436],[-58.14058,6.78628],[-58.1414,6.7833],[-58.14138,6.78326],[-58.13488,6.7817],[-58.1342,6.78126],[-58.13165,6.78063],[-58.12122,6.77795],[-58.12104,6.77787],[-58.12036,6.78094],[-58.12396,6.78189],[-58.1283,6.78307]]]},"properties":{"name":"South Ruimveldt Park","RDC":"4","Pop_2012":3786,"Shape_Le_1":5395.07138331,"District_I":"139","Shape_Leng":5386.80095307,"Shape_Area":819842.000862}},
{"type":"Feature","geometry":{"type":"Polygon","coordinates":[[[-58.14009,6.81402],[-58.13917,6.81726],[-58.13782,6.81822],[-58.13606,6.81961],[-58.13451,6.82073],[-58.13797,6.82163],[-58.13754,6.82287],[-58.13703,6.82473],[-58.13671,6.82547],[-58.13704,6.82554],[-58.13961,6.82663],[-58.14113,6.82705],[-58.14194,6.82738],[-58.14265,6.82724],[-58.14281,6.82639],[-58.14327,6.82584],[-58.1452,6.81826],[-58.14586,6.81566],[-58.14009,6.81402]]]},"properties":{"name":"Kitty","RDC":"4","Pop_2012":6789,"Shape_Le_1":4559.29888784,"District_I":"107","Shape_Leng":4605.7113594,"Shape_Area":1033677.26374}},
{"type":"Feature","geometry":{"type":"Polygon","coordinates":[[[-58.13764,6.80926],[-58.13661,6.81304],[-58.14009,6.81399],[-58.14111,6.8102],[-58.13764,6.80926]]]},"properties":{"name":"Section K Campbellville","RDC":"4","Pop_2012":482,"Shape_Le_1":1679.34337958,"District_I":"101","Shape_Leng":1681.26705286,"Shape_Area":176294.778878}},
{"type":"Feature","geometry":{"type":"Polygon","coordinates":[[[-58.13494,6.80519],[-58.13413,6.80834],[-58.13303,6.81192],[-58.13138,6.81794],[-58.13043,6.82145],[-58.13056,6.82163],[-58.12993,6.82378],[-58.13128,6.82314],[-58.13451,6.82073],[-58.13606,6.81961],[-58.13782,6.81822],[-58.13917,6.81726],[-58.14009,6.81402],[-58.14009,6.81399],[-58.13661,6.81304],[-58.13764,6.80926],[-58.13831,6.80669],[-58.13824,6.80607],[-58.13494,6.80519]]]},"properties":{"name":"Campbelville","RDC":"4","Pop_2012":5030,"Shape_Le_1":5348.30605622,"District_I":"102","Shape_Leng":5409.84014528,"Shape_Area":1058321.16896}},
{"type":"Feature","geometry":{"type":"Polygon","coordinates":[[[-58.12839,6.8171],[-58.13138,6.81794],[-58.13303,6.81192],[-58.13012,6.81112],[-58.12839,6.8171]]]},"properties":{"name":"Prashad Nagan","RDC":"4","Pop_2012":1013,"Shape_Le_1":2056.36604066,"District_I":"98","Shape_Leng":2079.77641237,"Shape_Area":238945.722799}},
{"type":"Feature","geometry":{"type":"Polygon","coordinates":[[[-58.15612,6.81086],[-58.15793,6.81136],[-58.15888,6.80794],[-58.15529,6.807],[-58.15077,6.80574],[-58.15011,6.80642],[-58.14885,6.80698],[-58.14813,6.80766],[-58.14774,6.80861],[-58.14909,6.80899],[-58.15324,6.81006],[-58.15612,6.81086]]]},"properties":{"name":"Botanical Gardens","RDC":"4","Pop_2012":255,"Shape_Le_1":4718.8950249,"District_I":"100","Shape_Leng":3000.1370588,"Shape_Area":427687.325414}}
]}