{"type":"FeatureCollection", "features": [
{"type":"Feature","geometry":{"type":"Polygon","coordinates":[[[-58.26332,5.95827],[-58.26325,5.95421],[-58.26332,5.95081],[-58.26187,5.94918],[-58.25682,5.94178],[-58.25635,5.9405],[-58.26201,5.92727],[-58.25037,5.91786],[-58.24055,5.94597],[-58.22752,5.9833],[-58.22361,5.99525],[-58.22621,6.00284],[-58.2282,6.00974],[-58.23376,5.99605],[-58.23515,5.99743],[-58.23908,5.9981],[-58.23913,5.99865],[-58.24154,5.99802],[-58.24247,5.99713],[-58.24315,5.99776],[-58.24471,5.99604],[-58.24603,5.99562],[-58.24691,5.99402],[-58.24632,5.99343],[-58.2459,5.99107],[-58.24594,5.99019],[-58.2467,5.99073],[-58.24861,5.98901],[-58.24979,5.98737],[-58.25106,5.98779],[-58.25242,5.98913],[-58.25335,5.99061],[-58.25572,5.99019],[-58.25669,5.99027],[-58.25745,5.99149],[-58.25809,5.99197],[-58.25863,5.99153],[-58.25927,5.99181],[-58.26107,5.99092],[-58.26151,5.99032],[-58.26381,5.98839],[-58.26351,5.98735],[-58.26412,5.98677],[-58.26581,5.98619],[-58.26655,5.98614],[-58.26718,5.98474],[-58.26711,5.98318],[-58.26729,5.9831],[-58.26673,5.98225],[-58.26572,5.98074],[-58.26343,5.97756],[-58.2635,5.96779],[-58.26321,5.96578],[-58.26343,5.96405],[-58.26332,5.96152],[-58.26332,5.96006],[-58.26332,5.95827]]]},"properties":{"FID_":11,"Name":"Shiburu","Constituen":"Constituency #4","Pop_2012":0,"SHAPE_Leng":0.241366564333,"SHAPE_Area":0.0019218191914}},
{"type":"Feature","geometry":{"type":"Polygon","coordinates":[[[-58.31188,5.98237],[-58.31436,5.98561],[-58.31529,5.98683],[-58.31726,5.98875],[-58.31864,5.98985],[-58.31865,5.98983],[-58.31917,5.99012],[-58.31933,5.9902],[-58.32079,5.99089],[-58.32189,5.99236],[-58.32273,5.99372],[-58.32381,5.99542],[-58.3244,5.99635],[-58.32441,5.99643],[-58.32444,5.99642],[-58.32455,5.99636],[-58.32457,5.99635],[-58.32475,5.99626],[-58.32684,5.99494],[-58.32752,5.99429],[-58.32948,5.99317],[-58.33904,5.98723],[-58.3448,5.99443],[-58.34587,5.99767],[-58.34643,5.99922],[-58.34517,5.99968],[-58.3489,5.99833],[-58.34938,5.99814],[-58.34971,5.99801],[-58.35054,5.99769],[-58.35177,5.99728],[-58.35354,5.99704],[-58.35447,5.99704],[-58.35472,5.99671],[-58.35529,5.98669],[-58.36096,5.98352],[-58.35975,5.98131],[-58.35629,5.97555],[-58.35234,5.97573],[-58.35028,5.97555],[-58.34987,5.97521],[-58.3484,5.97503],[-58.3466,5.97557],[-58.3458,5.97609],[-58.34366,5.97649],[-58.34281,5.97722],[-58.3413,5.98041],[-58.34079,5.98083],[-58.33615,5.98165],[-58.33441,5.98141],[-58.33314,5.98199],[-58.32942,5.98342],[-58.3268,5.98271],[-58.32626,5.98229],[-58.32374,5.98264],[-58.32269,5.98257],[-58.32164,5.98184],[-58.32132,5.98103],[-58.3208,5.98092],[-58.32076,5.98021],[-58.31918,5.97868],[-58.31802,5.97661],[-58.31751,5.97621],[-58.31513,5.97521],[-58.31334,5.97374],[-58.31139,5.97076],[-58.31147,5.96932],[-58.31278,5.96834],[-58.30791,5.96934],[-58.30655,5.97256],[-58.30633,5.97351],[-58.30652,5.97501],[-58.30716,5.9757],[-58.30745,5.97623],[-58.30885,5.97838],[-58.31188,5.98237]]]},"properties":{"FID_":9,"Name":"Dakoura","Constituen":"Constituency #8","Pop_2012":0,"SHAPE_Leng":0.163941099744,"SHAPE_Area":0.000666432051391}},
{"type":"Feature","geometry":{"type":"Polygon","coordinates":[[[-58.31367,6.00473],[-58.31349,6.00456],[-58.31307,6.00433],[-58.31285,6.00449],[-58.3126,6.00468],[-58.31252,6.00478],[-58.31209,6.00511],[-58.31173,6.00523],[-58.31165,6.00676],[-58.31123,6.00693],[-58.31098,6.00742],[-58.31092,6.00772],[-58.31089,6.00786],[-58.31087,6.00795],[-58.31086,6.00816],[-58.31084,6.00825],[-58.31084,6.00828],[-58.31086,6.00827],[-58.31091,6.00825],[-58.31123,6.00805],[-58.31156,6.00799],[-58.31165,6.00801],[-58.31173,6.00803],[-58.31187,6.00816],[-58.31247,6.00826],[-58.31308,6.00813],[-58.31517,6.00843],[-58.31701,6.00939],[-58.31774,6.00985],[-58.31933,6.00844],[-58.31953,6.00781],[-58.31881,6.00641],[-58.31736,6.00655],[-58.31741,6.00574],[-58.31546,6.00567],[-58.31429,6.00547],[-58.31396,6.00521],[-58.31369,6.00475],[-58.31367,6.00473]]]},"properties":{"FID_":10,"Name":"Victory Valley","Constituen":"Constituency #6","Pop_2012":560,"SHAPE_Leng":0.0245256337912,"SHAPE_Area":0.000024590141381}},
{"type":"Feature","geometry":{"type":"Polygon","coordinates":[[[-58.31084,6.00825],[-58.31084,6.00828],[-58.3108,6.00838],[-58.31058,6.009],[-58.31014,6.00889],[-58.30986,6.00991],[-58.30975,6.01035],[-58.30934,6.01185],[-58.30918,6.01271],[-58.30904,6.01352],[-58.30921,6.01417],[-58.31031,6.01411],[-58.31018,6.0151],[-58.31002,6.01523],[-58.31002,6.01535],[-58.30994,6.01563],[-58.3099,6.01572],[-58.30994,6.01719],[-58.31018,6.01779],[-58.31015,6.01816],[-58.3104,6.01867],[-58.31076,6.01964],[-58.31084,6.01948],[-58.31105,6.01926],[-58.31158,6.01913],[-58.31384,6.01893],[-58.31417,6.01875],[-58.3143,6.01857],[-58.31537,6.0171],[-58.31761,6.0141],[-58.31926,6.01176],[-58.3198,6.011],[-58.32038,6.01018],[-58.32146,6.00866],[-58.32203,6.00786],[-58.32207,6.00781],[-58.32213,6.0077],[-58.32225,6.00751],[-58.32245,6.00721],[-58.32254,6.00707],[-58.32264,6.00692],[-58.32355,6.00567],[-58.32463,6.00418],[-58.3239,6.00415],[-58.323,6.00424],[-58.32023,6.00514],[-58.31968,6.00531],[-58.31926,6.00544],[-58.31887,6.00555],[-58.31816,6.00574],[-58.31741,6.00574],[-58.31736,6.00655],[-58.31881,6.00641],[-58.31953,6.00781],[-58.31933,6.00844],[-58.31774,6.00985],[-58.31701,6.00939],[-58.31517,6.00843],[-58.31308,6.00813],[-58.31247,6.00826],[-58.31187,6.00816],[-58.31173,6.00803],[-58.31165,6.00801],[-58.31156,6.00799],[-58.31123,6.00805],[-58.31091,6.00825],[-58.31086,6.00827],[-58.31084,6.00828],[-58.31084,6.00825]]]},"properties":{"FID_":25,"Name":"Danjou Park","Constituen":"Constituency #6","Pop_2012":1894,"SHAPE_Leng":0.0577555218104,"SHAPE_Area":0.0000987033959514}},
{"type":"Feature","geometry":{"type":"Polygon","coordinates":[[[-58.30329,5.99516],[-58.30209,5.99347],[-58.30075,5.99238],[-58.29901,5.99094],[-58.29846,5.9906],[-58.29703,5.98992],[-58.29617,5.98947],[-58.29264,5.98658],[-58.29263,5.98657],[-58.28877,5.98345],[-58.28678,5.98119],[-58.28579,5.98001],[-58.28316,5.97561],[-58.28057,5.97274],[-58.28037,5.97212],[-58.2804,5.97068],[-58.28045,5.97046],[-58.2805,5.97022],[-58.27947,5.97029],[-58.27944,5.97034],[-58.27801,5.97404],[-58.27839,5.97737],[-58.27839,5.97757],[-58.27839,5.97773],[-58.27912,5.97947],[-58.27984,5.98028],[-58.27984,5.98029],[-58.27986,5.98028],[-58.28017,5.98046],[-58.28109,5.981],[-58.28198,5.9816],[-58.28545,5.98445],[-58.28762,5.98576],[-58.2888,5.98676],[-58.28961,5.98708],[-58.29056,5.98789],[-58.29148,5.98826],[-58.29154,5.98833],[-58.2917,5.98841],[-58.29377,5.99033],[-58.29378,5.99034],[-58.29387,5.99052],[-58.29634,5.99249],[-58.29815,5.99375],[-58.30073,5.995],[-58.30367,5.9957],[-58.30329,5.99516]]]},"properties":{"FID_":14,"Name":"Watooka","Constituen":"Constituency #4","Pop_2012":507,"SHAPE_Leng":0.0762698135947,"SHAPE_Area":0.000106181056066}},
{"type":"Feature","geometry":{"type":"Polygon","coordinates":[[[-58.26729,5.9831],[-58.26789,5.98282],[-58.26761,5.98206],[-58.26804,5.98109],[-58.26937,5.98029],[-58.26935,5.97903],[-58.26863,5.97836],[-58.26861,5.97784],[-58.26952,5.97706],[-58.26889,5.97609],[-58.26891,5.97546],[-58.27026,5.97572],[-58.27065,5.97525],[-58.27226,5.97585],[-58.27278,5.97527],[-58.27335,5.97585],[-58.27335,5.97659],[-58.27415,5.97724],[-58.27557,5.97743],[-58.2763,5.97711],[-58.27674,5.97635],[-58.27724,5.97652],[-58.27744,5.97722],[-58.27839,5.97757],[-58.27839,5.97737],[-58.27801,5.97404],[-58.27944,5.97034],[-58.27947,5.97029],[-58.2805,5.97022],[-58.28054,5.97003],[-58.28064,5.96958],[-58.28144,5.96713],[-58.28088,5.96679],[-58.27973,5.96597],[-58.27838,5.96308],[-58.27527,5.96239],[-58.27195,5.96198],[-58.27076,5.9623],[-58.26957,5.961],[-58.26899,5.96067],[-58.26768,5.96063],[-58.26612,5.95998],[-58.26332,5.96006],[-58.26332,5.96152],[-58.26343,5.96405],[-58.26321,5.96578],[-58.2635,5.96779],[-58.26343,5.97756],[-58.26572,5.98074],[-58.26673,5.98225],[-58.26729,5.9831]]]},"properties":{"FID_":17,"Name":"Airport Area","Constituen":"Constituency #4","Pop_2012":0,"SHAPE_Leng":0.080026088416,"SHAPE_Area":0.000260630405927}},
{"type":"Feature","geometry":{"type":"Polygon","coordinates":[[[-58.29378,5.99034],[-58.2936,5.99049],[-58.29306,5.99092],[-58.29241,5.99134],[-58.29427,5.99151],[-58.29672,5.99379],[-58.29805,5.99579],[-58.29829,5.99619],[-58.29931,5.99796],[-58.29875,5.99864],[-58.29937,6.00034],[-58.30037,6.00225],[-58.3006,6.0034],[-58.30349,6.00171],[-58.30391,6.00259],[-58.30419,6.00329],[-58.30539,6.00323],[-58.30561,6.00323],[-58.30615,6.00323],[-58.307,6.0032],[-58.30736,6.0032],[-58.30735,6.00292],[-58.30732,6.00223],[-58.30704,6.00153],[-58.30663,6.0006],[-58.30415,5.99637],[-58.30367,5.9957],[-58.30073,5.995],[-58.29815,5.99375],[-58.29634,5.99249],[-58.29387,5.99052],[-58.29378,5.99034]]]},"properties":{"FID_":22,"Name":"Bauxite Plant","Constituen":"Constituency #4","Pop_2012":0,"SHAPE_Leng":0.0470794272734,"SHAPE_Area":0.000057580946331}},
{"type":"Feature","geometry":{"type":"Polygon","coordinates":[[[-58.31278,5.96834],[-58.30591,5.96613],[-58.30482,5.96561],[-58.30096,5.96377],[-58.29813,5.96242],[-58.29615,5.96163],[-58.29543,5.96132],[-58.2926,5.95997],[-58.29034,5.9596],[-58.28871,5.95969],[-58.2878,5.96027],[-58.28689,5.96196],[-58.2856,5.96348],[-58.28447,5.96426],[-58.28383,5.96461],[-58.28323,5.96493],[-58.28278,5.96525],[-58.28253,5.96553],[-58.28251,5.96556],[-58.28215,5.96599],[-58.28144,5.96713],[-58.28064,5.96958],[-58.28054,5.97003],[-58.2805,5.97022],[-58.28045,5.97046],[-58.2804,5.97068],[-58.28037,5.97212],[-58.28057,5.97274],[-58.28316,5.97561],[-58.28579,5.98001],[-58.28678,5.98119],[-58.28877,5.98345],[-58.29263,5.98657],[-58.29264,5.98658],[-58.29617,5.98947],[-58.29703,5.98992],[-58.29846,5.9906],[-58.29901,5.99094],[-58.30075,5.99238],[-58.30209,5.99347],[-58.30329,5.99516],[-58.30367,5.9957],[-58.30471,5.99592],[-58.3052,5.99606],[-58.30522,5.99597],[-58.30501,5.9952],[-58.30501,5.99485],[-58.30601,5.99313],[-58.30876,5.99326],[-58.31144,5.99275],[-58.31196,5.99247],[-58.31313,5.99148],[-58.31339,5.99127],[-58.31407,5.99081],[-58.31479,5.9906],[-58.31748,5.99032],[-58.31849,5.98992],[-58.31864,5.98985],[-58.31726,5.98875],[-58.31529,5.98683],[-58.31436,5.98561],[-58.31188,5.98237],[-58.30885,5.97838],[-58.30745,5.97623],[-58.30716,5.9757],[-58.30652,5.97501],[-58.30633,5.97351],[-58.30655,5.97256],[-58.30791,5.96934],[-58.31278,5.96834]]]},"properties":{"FID_":12,"Name":"Old England","Constituen":"Constituency #5","Pop_2012":37,"SHAPE_Leng":0.128750691635,"SHAPE_Area":0.0007270357624}},
{"type":"Feature","geometry":{"type":"Polygon","coordinates":[[[-58.26332,5.96006],[-58.26612,5.95998],[-58.26768,5.96063],[-58.26899,5.96067],[-58.26957,5.961],[-58.27076,5.9623],[-58.27195,5.96198],[-58.27527,5.96239],[-58.27838,5.96308],[-58.27973,5.96597],[-58.28088,5.96679],[-58.28144,5.96713],[-58.28215,5.96599],[-58.28251,5.96556],[-58.28253,5.96553],[-58.28278,5.96525],[-58.28323,5.96493],[-58.28383,5.96461],[-58.28447,5.96426],[-58.2856,5.96348],[-58.28689,5.96196],[-58.2878,5.96027],[-58.28871,5.95969],[-58.29034,5.9596],[-58.2926,5.95997],[-58.29543,5.96132],[-58.29615,5.96163],[-58.29813,5.96242],[-58.30096,5.96377],[-58.30482,5.96561],[-58.30591,5.96613],[-58.31278,5.96834],[-58.26201,5.92728],[-58.25635,5.9405],[-58.25682,5.94178],[-58.26187,5.94918],[-58.26332,5.95081],[-58.26325,5.95421],[-58.26332,5.95827],[-58.26332,5.96006]]]},"properties":{"FID_":30,"Name":"Coomacka Mine","Constituen":"Constituency #4","Pop_2012":0,"SHAPE_Leng":0.159267313713,"SHAPE_Area":0.000823622826504}},
{"type":"Feature","geometry":{"type":"Polygon","coordinates":[[[-58.27984,5.98029],[-58.27975,5.98074],[-58.27911,5.98239],[-58.28044,5.98503],[-58.28052,5.98689],[-58.27945,5.98737],[-58.27878,5.9883],[-58.27819,5.98808],[-58.27708,5.98833],[-58.27638,5.98966],[-58.27638,5.99098],[-58.27708,5.99138],[-58.27744,5.99158],[-58.27868,5.99241],[-58.28309,5.99107],[-58.28669,5.99119],[-58.28735,5.99098],[-58.28785,5.99077],[-58.28974,5.98964],[-58.29056,5.98889],[-58.29096,5.98878],[-58.29153,5.98833],[-58.29154,5.98833],[-58.29148,5.98826],[-58.29056,5.98789],[-58.28961,5.98708],[-58.2888,5.98676],[-58.28762,5.98576],[-58.28545,5.98445],[-58.28198,5.9816],[-58.28109,5.981],[-58.28017,5.98046],[-58.27986,5.98028],[-58.27984,5.98029]]]},"properties":{"FID_":4,"Name":"Richmond Hill","Constituen":"Constituency #4","Pop_2012":507,"SHAPE_Leng":0.0452567937039,"SHAPE_Area":0.0000863740731162}},
{"type":"Feature","geometry":{"type":"Polygon","coordinates":[[[-58.2282,6.00974],[-58.23113,6.01851],[-58.23204,6.02153],[-58.23243,6.02611],[-58.23375,6.02578],[-58.23529,6.02202],[-58.24002,6.02419],[-58.24267,6.02533],[-58.24659,6.02548],[-58.24658,6.02558],[-58.24659,6.02558],[-58.24669,6.02163],[-58.25718,6.01853],[-58.26754,6.01487],[-58.2689,6.01442],[-58.26974,6.01433],[-58.26981,6.01424],[-58.2698,6.01375],[-58.27078,6.01276],[-58.27002,6.01146],[-58.26999,6.01145],[-58.26909,6.01003],[-58.26859,6.00797],[-58.26736,6.00751],[-58.2654,6.00608],[-58.26339,6.00598],[-58.26287,6.0053],[-58.26223,6.00439],[-58.26162,6.00354],[-58.26088,6.00329],[-58.2608,6.00281],[-58.25974,6.00155],[-58.25847,5.99772],[-58.25889,5.99637],[-58.2597,5.99541],[-58.2597,5.99469],[-58.25919,5.99343],[-58.25813,5.992],[-58.25809,5.99197],[-58.25745,5.99149],[-58.25669,5.99027],[-58.25572,5.99019],[-58.25335,5.99061],[-58.25242,5.98913],[-58.25106,5.98779],[-58.24979,5.98737],[-58.24861,5.98901],[-58.2467,5.99073],[-58.24594,5.99019],[-58.2459,5.99107],[-58.24632,5.99343],[-58.24691,5.99402],[-58.24603,5.99562],[-58.24471,5.99604],[-58.24315,5.99776],[-58.24247,5.99713],[-58.24154,5.99802],[-58.23913,5.99865],[-58.23908,5.9981],[-58.23515,5.99743],[-58.23376,5.99605],[-58.2282,6.00974]]]},"properties":{"FID_":18,"Name":"Bamia South","Constituen":"Constituency #1","Pop_2012":0,"SHAPE_Leng":0.144994037873,"SHAPE_Area":0.000921953468405}},
{"type":"Feature","geometry":{"type":"Polygon","coordinates":[[[-58.29154,5.98833],[-58.29153,5.98833],[-58.29096,5.98878],[-58.29056,5.98889],[-58.28974,5.98964],[-58.28785,5.99077],[-58.28787,5.99077],[-58.28831,5.99153],[-58.28937,5.99311],[-58.28938,5.9931],[-58.29027,5.99258],[-58.29149,5.99209],[-58.2923,5.99282],[-58.29269,5.99314],[-58.29796,5.99753],[-58.29931,5.99796],[-58.29829,5.99619],[-58.29805,5.99579],[-58.29672,5.99379],[-58.29427,5.99151],[-58.29241,5.99134],[-58.29306,5.99092],[-58.2936,5.99049],[-58.29378,5.99034],[-58.29377,5.99033],[-58.2917,5.98841],[-58.29154,5.98833]]]},"properties":{"FID_":26,"Name":"Noitgedacht - Fairs Rust","Constituen":"Constituency #4","Pop_2012":226,"SHAPE_Leng":0.0346728903415,"SHAPE_Area":0.0000308745247975}},
{"type":"Feature","geometry":{"type":"Polygon","coordinates":[[[-58.3006,6.0034],[-58.30099,6.00459],[-58.30183,6.00604],[-58.29988,6.00724],[-58.29864,6.00804],[-58.29808,6.0084],[-58.29621,6.00832],[-58.29381,6.00805],[-58.29373,6.00995],[-58.29371,6.01013],[-58.29383,6.01056],[-58.29401,6.01103],[-58.29489,6.01153],[-58.30089,6.01432],[-58.30257,6.01517],[-58.30358,6.01379],[-58.30403,6.01312],[-58.30439,6.01256],[-58.30502,6.01159],[-58.30518,6.011],[-58.30594,6.00912],[-58.30649,6.00731],[-58.30698,6.00591],[-58.30733,6.00351],[-58.30736,6.0032],[-58.307,6.0032],[-58.30615,6.00323],[-58.30561,6.00323],[-58.30539,6.00323],[-58.30419,6.00329],[-58.30391,6.00259],[-58.30349,6.00171],[-58.3006,6.0034]]]},"properties":{"FID_":13,"Name":"North Mckenzie","Constituen":"Constituency #3","Pop_2012":932,"SHAPE_Leng":0.0458490772467,"SHAPE_Area":0.0000907240017917}},
{"type":"Feature","geometry":{"type":"Polygon","coordinates":[[[-58.31307,6.00433],[-58.31362,6.00279],[-58.31294,6.00121],[-58.31259,6.00053],[-58.31173,5.99951],[-58.30997,5.99818],[-58.3091,5.99801],[-58.30774,5.99846],[-58.30671,5.99792],[-58.30612,5.99663],[-58.30521,5.99606],[-58.3052,5.99606],[-58.30471,5.99592],[-58.30367,5.9957],[-58.30415,5.99637],[-58.30663,6.0006],[-58.30704,6.00153],[-58.30732,6.00223],[-58.30735,6.00292],[-58.30736,6.0032],[-58.30733,6.00351],[-58.30968,6.00365],[-58.31036,6.00407],[-58.31038,6.00411],[-58.31038,6.00413],[-58.31044,6.00428],[-58.31047,6.00437],[-58.3105,6.00456],[-58.31053,6.00531],[-58.31054,6.00531],[-58.31115,6.0053],[-58.31161,6.00526],[-58.31173,6.00523],[-58.31209,6.00511],[-58.31252,6.00478],[-58.3126,6.00468],[-58.31285,6.00449],[-58.31307,6.00433]]]},"properties":{"FID_":24,"Name":"Silvertown","Constituen":"Constituency #5","Pop_2012":2023,"SHAPE_Leng":0.031941941114,"SHAPE_Area":0.0000397911021985}},
{"type":"Feature","geometry":{"type":"Polygon","coordinates":[[[-58.29381,6.00805],[-58.29343,6.00803],[-58.29223,6.00792],[-58.29125,6.00783],[-58.29107,6.00869],[-58.29095,6.01008],[-58.29373,6.00995],[-58.29381,6.00805]]]},"properties":{"FID_":0,"Name":"Rainbow City","Constituen":"Constituency #2","Pop_2012":168,"SHAPE_Leng":0.00952845220173,"SHAPE_Area":0.00000565684173675}},
{"type":"Feature","geometry":{"type":"Polygon","coordinates":[[[-58.32444,5.99642],[-58.32439,5.99644],[-58.32455,5.9967],[-58.32486,5.99719],[-58.32518,5.9977],[-58.3259,5.9998],[-58.32572,6.00212],[-58.32516,6.00341],[-58.32513,6.00346],[-58.325,6.00364],[-58.32463,6.00418],[-58.32474,6.0042],[-58.3265,6.00454],[-58.32721,6.00469],[-58.32865,6.00496],[-58.32889,6.00498],[-58.32899,6.00499],[-58.3297,6.00502],[-58.33007,6.005],[-58.33016,6.00499],[-58.3311,6.00485],[-58.33121,6.00484],[-58.33184,6.0047],[-58.34046,6.0015],[-58.34517,5.99968],[-58.34643,5.99922],[-58.34587,5.99767],[-58.3448,5.99443],[-58.33904,5.98723],[-58.32948,5.99317],[-58.32752,5.99429],[-58.32684,5.99494],[-58.32475,5.99626],[-58.32457,5.99635],[-58.32455,5.99636],[-58.32444,5.99642]]]},"properties":{"FID_":1,"Name":"Wisroc","Constituen":"Constituency #8","Pop_2012":3932,"SHAPE_Leng":0.0642700081117,"SHAPE_Area":0.000233743565921}},
{"type":"Feature","geometry":{"type":"Polygon","coordinates":[[[-58.31741,6.00574],[-58.31816,6.00574],[-58.31887,6.00555],[-58.31926,6.00544],[-58.31968,6.00531],[-58.31961,6.00493],[-58.31956,6.00473],[-58.31941,6.00444],[-58.3174,6.00112],[-58.31556,5.99838],[-58.31416,5.99713],[-58.31385,5.99709],[-58.31231,5.99749],[-58.31188,5.99784],[-58.30997,5.99818],[-58.31173,5.99951],[-58.31259,6.00053],[-58.31294,6.00121],[-58.31362,6.00279],[-58.31307,6.00433],[-58.31349,6.00456],[-58.31367,6.00473],[-58.31369,6.00475],[-58.31396,6.00521],[-58.31429,6.00547],[-58.31546,6.00567],[-58.31741,6.00574]]]},"properties":{"FID_":5,"Name":"Half Mile","Constituen":"Constituency #5","Pop_2012":1004,"SHAPE_Leng":0.0293604506525,"SHAPE_Area":0.0000404697541562}},
{"type":"Feature","geometry":{"type":"Polygon","coordinates":[[[-58.30921,6.01417],[-58.30876,6.01419],[-58.3087,6.01418],[-58.30726,6.01389],[-58.30403,6.01312],[-58.30358,6.01379],[-58.30257,6.01517],[-58.30102,6.01869],[-58.30048,6.01966],[-58.30032,6.02024],[-58.30016,6.02081],[-58.29936,6.02266],[-58.29936,6.02267],[-58.29839,6.02412],[-58.29805,6.02463],[-58.29801,6.02469],[-58.29771,6.02517],[-58.29768,6.02522],[-58.29717,6.026],[-58.29548,6.02773],[-58.29529,6.02792],[-58.29527,6.02794],[-58.29305,6.02989],[-58.29519,6.03197],[-58.29596,6.03118],[-58.29794,6.03137],[-58.29917,6.03211],[-58.30074,6.03293],[-58.30168,6.03308],[-58.30189,6.03299],[-58.30259,6.03254],[-58.3033,6.03159],[-58.30354,6.03092],[-58.3037,6.03057],[-58.3039,6.0301],[-58.3044,6.02864],[-58.30479,6.02759],[-58.30547,6.02641],[-58.30597,6.02577],[-58.30624,6.02554],[-58.30678,6.02527],[-58.30761,6.0252],[-58.30886,6.02535],[-58.31045,6.02585],[-58.31125,6.02546],[-58.31134,6.02483],[-58.31098,6.02353],[-58.31016,6.02186],[-58.31015,6.02123],[-58.31076,6.01964],[-58.3104,6.01867],[-58.31015,6.01816],[-58.31018,6.01779],[-58.30994,6.01719],[-58.3099,6.01572],[-58.30994,6.01563],[-58.31002,6.01535],[-58.31002,6.01523],[-58.31018,6.0151],[-58.31031,6.01411],[-58.30921,6.01417]]]},"properties":{"FID_":32,"Name":"Christianburg","Constituen":"Constituency #6","Pop_2012":1457,"SHAPE_Leng":0.0639281360334,"SHAPE_Area":0.000177419874116}},
{"type":"Feature","geometry":{"type":"Polygon","coordinates":[[[-58.32273,5.99372],[-58.31912,5.99591],[-58.31743,5.9971],[-58.31556,5.99838],[-58.3174,6.00112],[-58.31941,6.00444],[-58.31956,6.00473],[-58.31961,6.00493],[-58.31968,6.00531],[-58.32023,6.00514],[-58.323,6.00424],[-58.3239,6.00415],[-58.32463,6.00418],[-58.325,6.00364],[-58.32513,6.00346],[-58.32516,6.00341],[-58.32572,6.00212],[-58.3259,5.9998],[-58.32518,5.9977],[-58.32486,5.99719],[-58.32455,5.9967],[-58.32439,5.99644],[-58.32444,5.99642],[-58.32441,5.99643],[-58.3244,5.99635],[-58.32381,5.99542],[-58.32273,5.99372]]]},"properties":{"FID_":27,"Name":"One Mile","Constituen":"Constituency #5","Pop_2012":781,"SHAPE_Leng":0.0340466952542,"SHAPE_Area":0.0000735923776942}},
{"type":"Feature","geometry":{"type":"Polygon","coordinates":[[[-58.29931,5.99796],[-58.29796,5.99753],[-58.29269,5.99314],[-58.2923,5.99282],[-58.29149,5.99209],[-58.29027,5.99258],[-58.28938,5.9931],[-58.28937,5.99311],[-58.28558,5.99517],[-58.28186,5.99698],[-58.28005,5.99811],[-58.27972,5.99869],[-58.28165,5.99952],[-58.28238,6.00012],[-58.28285,6.00188],[-58.28278,6.00341],[-58.28331,6.00397],[-58.28368,6.00506],[-58.28535,6.00583],[-58.28545,6.00649],[-58.28531,6.01016],[-58.28911,6.00801],[-58.29023,6.00777],[-58.29125,6.00783],[-58.29223,6.00792],[-58.29343,6.00803],[-58.29381,6.00805],[-58.29402,6.00674],[-58.29413,6.00671],[-58.29421,6.0067],[-58.29423,6.0067],[-58.29513,6.00692],[-58.29564,6.00667],[-58.29594,6.00652],[-58.29595,6.00652],[-58.29615,6.00642],[-58.29618,6.00641],[-58.2965,6.00625],[-58.29709,6.00591],[-58.29731,6.00556],[-58.29756,6.00521],[-58.29784,6.0048],[-58.29846,6.00429],[-58.29875,6.00418],[-58.29961,6.00384],[-58.3006,6.0034],[-58.30037,6.00225],[-58.29937,6.00034],[-58.29875,5.99864],[-58.29931,5.99796]]]},"properties":{"FID_":15,"Name":"Washerpond","Constituen":"Constituency #4","Pop_2012":0,"SHAPE_Leng":0.0627245272857,"SHAPE_Area":0.00021044676326}},
{"type":"Feature","geometry":{"type":"Polygon","coordinates":[[[-58.24659,6.02558],[-58.24627,6.03775],[-58.25782,6.03708],[-58.2665,6.03599],[-58.27442,6.03457],[-58.2819,6.03253],[-58.28928,6.03099],[-58.28773,6.03015],[-58.28653,6.02834],[-58.28658,6.02758],[-58.28657,6.02743],[-58.28656,6.02742],[-58.2865,6.02733],[-58.28646,6.02727],[-58.28636,6.02723],[-58.28591,6.02704],[-58.28559,6.02689],[-58.28476,6.02651],[-58.28389,6.02611],[-58.28305,6.02565],[-58.28125,6.02498],[-58.28177,6.02344],[-58.28137,6.0213],[-58.28173,6.01989],[-58.28168,6.01956],[-58.28121,6.01871],[-58.27874,6.02022],[-58.27739,6.01989],[-58.27674,6.02003],[-58.27578,6.01929],[-58.2752,6.01837],[-58.27282,6.01466],[-58.27034,6.01432],[-58.26974,6.01433],[-58.2689,6.01442],[-58.26754,6.01487],[-58.25718,6.01853],[-58.24669,6.02163],[-58.24659,6.02558]]]},"properties":{"FID_":21,"Name":"Amelia's Ward","Constituen":"Constituency #1","Pop_2012":6408,"SHAPE_Leng":0.116214366566,"SHAPE_Area":0.000665015260128}},
{"type":"Feature","geometry":{"type":"Polygon","coordinates":[[[-58.23243,6.02611],[-58.23313,6.03284],[-58.23387,6.03904],[-58.23418,6.04247],[-58.23432,6.04288],[-58.23718,6.04753],[-58.2383,6.04909],[-58.23898,6.0506],[-58.2404,6.05225],[-58.24203,6.05343],[-58.24454,6.05383],[-58.24817,6.05385],[-58.25128,6.05345],[-58.25344,6.05355],[-58.25471,6.05393],[-58.25622,6.05485],[-58.25974,6.05652],[-58.26307,6.0568],[-58.26373,6.0562],[-58.26563,6.05588],[-58.26713,6.05672],[-58.26832,6.05674],[-58.26973,6.0561],[-58.2703,6.05654],[-58.27149,6.05658],[-58.2728,6.05569],[-58.27355,6.05485],[-58.27538,6.05491],[-58.27682,6.05576],[-58.27861,6.0565],[-58.28045,6.05696],[-58.28241,6.05764],[-58.28465,6.05907],[-58.28553,6.0601],[-58.28903,6.05753],[-58.29007,6.05118],[-58.29584,6.04841],[-58.29543,6.0478],[-58.29446,6.04635],[-58.29329,6.04456],[-58.29237,6.0436],[-58.29064,6.04101],[-58.28979,6.03831],[-58.28961,6.03724],[-58.28994,6.03475],[-58.29028,6.03353],[-58.29032,6.03349],[-58.29064,6.03305],[-58.29028,6.03258],[-58.28928,6.03099],[-58.2819,6.03253],[-58.27442,6.03457],[-58.2665,6.03599],[-58.25782,6.03708],[-58.24627,6.03775],[-58.24659,6.02558],[-58.24658,6.02558],[-58.24659,6.02548],[-58.24267,6.02533],[-58.24002,6.02419],[-58.23529,6.02202],[-58.23375,6.02578],[-58.23243,6.02611]]]},"properties":{"FID_":19,"Name":"Bamia North","Constituen":"Constituency #1","Pop_2012":0,"SHAPE_Leng":0.190449599777,"SHAPE_Area":0.00127908431299}},
{"type":"Feature","geometry":{"type":"Polygon","coordinates":[[[-58.26974,6.01433],[-58.27034,6.01432],[-58.27282,6.01466],[-58.2752,6.01837],[-58.27578,6.01929],[-58.27674,6.02003],[-58.27739,6.01989],[-58.27874,6.02022],[-58.28121,6.01871],[-58.28168,6.01956],[-58.28173,6.01989],[-58.28137,6.0213],[-58.28177,6.02344],[-58.28125,6.02498],[-58.28305,6.02565],[-58.28389,6.02611],[-58.28476,6.02651],[-58.28559,6.02689],[-58.28591,6.02704],[-58.28636,6.02723],[-58.28646,6.02727],[-58.2865,6.02733],[-58.28656,6.02742],[-58.28657,6.02743],[-58.28658,6.02758],[-58.28653,6.02834],[-58.28773,6.03015],[-58.28928,6.03099],[-58.29028,6.03258],[-58.29064,6.03305],[-58.292,6.0308],[-58.29227,6.03056],[-58.29305,6.02989],[-58.29527,6.02794],[-58.29529,6.02792],[-58.29548,6.02773],[-58.29717,6.026],[-58.29768,6.02522],[-58.29771,6.02517],[-58.29801,6.02469],[-58.29805,6.02463],[-58.29839,6.02412],[-58.29936,6.02267],[-58.29936,6.02266],[-58.30016,6.02081],[-58.30032,6.02024],[-58.29598,6.01784],[-58.29548,6.01729],[-58.29412,6.0166],[-58.29187,6.01598],[-58.29147,6.01448],[-58.29183,6.01418],[-58.29148,6.01318],[-58.2922,6.01241],[-58.29371,6.01013],[-58.29373,6.00995],[-58.29095,6.01008],[-58.29107,6.00869],[-58.29125,6.00783],[-58.29023,6.00777],[-58.28911,6.00801],[-58.28531,6.01016],[-58.28423,6.01072],[-58.28348,6.01119],[-58.28216,6.01202],[-58.28121,6.0117],[-58.27992,6.01276],[-58.27514,6.01237],[-58.27429,6.01162],[-58.27313,6.01194],[-58.2723,6.01187],[-58.27114,6.01125],[-58.27023,6.01153],[-58.27002,6.01146],[-58.27078,6.01276],[-58.2698,6.01375],[-58.26981,6.01424],[-58.26974,6.01433]]]},"properties":{"FID_":29,"Name":"Kara Kara","Constituen":"Constituency #2","Pop_2012":938,"SHAPE_Leng":0.100298139069,"SHAPE_Area":0.000335684646007}},
{"type":"Feature","geometry":{"type":"Polygon","coordinates":[[[-58.3006,6.0034],[-58.29961,6.00384],[-58.29875,6.00418],[-58.29846,6.00429],[-58.29784,6.0048],[-58.29756,6.00521],[-58.29731,6.00556],[-58.29709,6.00591],[-58.2965,6.00625],[-58.29618,6.00641],[-58.29615,6.00642],[-58.29595,6.00652],[-58.29594,6.00652],[-58.29564,6.00667],[-58.29513,6.00692],[-58.29423,6.0067],[-58.29421,6.0067],[-58.29413,6.00671],[-58.29402,6.00674],[-58.29381,6.00805],[-58.29621,6.00832],[-58.29808,6.0084],[-58.29864,6.00804],[-58.29988,6.00724],[-58.30183,6.00604],[-58.30099,6.00459],[-58.3006,6.0034]]]},"properties":{"FID_":7,"Name":"Industrial Area","Constituen":"Constituency #3","Pop_2012":483,"SHAPE_Leng":0.0209599054,"SHAPE_Area":0.0000195478653456}},
{"type":"Feature","geometry":{"type":"Polygon","coordinates":[[[-58.29305,6.02989],[-58.29227,6.03056],[-58.292,6.0308],[-58.29064,6.03305],[-58.29032,6.03349],[-58.29028,6.03353],[-58.28994,6.03475],[-58.28961,6.03724],[-58.28979,6.03831],[-58.29064,6.04101],[-58.29237,6.0436],[-58.29329,6.04456],[-58.29446,6.04635],[-58.29543,6.0478],[-58.29584,6.04841],[-58.29636,6.04972],[-58.2968,6.05162],[-58.29831,6.05136],[-58.30013,6.05074],[-58.30052,6.05033],[-58.30147,6.04628],[-58.30169,6.04537],[-58.30214,6.04351],[-58.30232,6.04277],[-58.30267,6.04117],[-58.30289,6.04021],[-58.30303,6.03947],[-58.30325,6.03858],[-58.30413,6.0347],[-58.30413,6.03396],[-58.30393,6.03051],[-58.30391,6.03018],[-58.3039,6.0301],[-58.3037,6.03057],[-58.30354,6.03092],[-58.3033,6.03159],[-58.30259,6.03254],[-58.30189,6.03299],[-58.30168,6.03308],[-58.30074,6.03293],[-58.29917,6.03211],[-58.29794,6.03137],[-58.29596,6.03118],[-58.29519,6.03197],[-58.29305,6.02989]]]},"properties":{"FID_":6,"Name":"Katapuli","Constituen":"Constituency #6","Pop_2012":0,"SHAPE_Leng":0.0635986561754,"SHAPE_Area":0.000201962011532}},
{"type":"Feature","geometry":{"type":"Polygon","coordinates":[[[-58.3108,6.00838],[-58.30826,6.00768],[-58.30649,6.00731],[-58.30594,6.00912],[-58.30518,6.011],[-58.30502,6.01159],[-58.30439,6.01256],[-58.30403,6.01312],[-58.30726,6.01389],[-58.3087,6.01418],[-58.30876,6.01419],[-58.30921,6.01417],[-58.30904,6.01352],[-58.30918,6.01271],[-58.30934,6.01185],[-58.30975,6.01035],[-58.30986,6.00991],[-58.31014,6.00889],[-58.31058,6.009],[-58.3108,6.00838]]]},"properties":{"FID_":23,"Name":"Wismar","Constituen":"Constituency #6","Pop_2012":4137,"SHAPE_Leng":0.0222694165036,"SHAPE_Area":0.0000267409023769}},
{"type":"Feature","geometry":{"type":"Polygon","coordinates":[[[-58.31864,5.98985],[-58.31849,5.98992],[-58.31748,5.99032],[-58.31479,5.9906],[-58.31407,5.99081],[-58.31339,5.99127],[-58.31313,5.99148],[-58.31196,5.99247],[-58.31144,5.99275],[-58.30876,5.99326],[-58.30601,5.99313],[-58.30501,5.99485],[-58.30501,5.9952],[-58.30522,5.99597],[-58.3052,5.99606],[-58.30521,5.99606],[-58.30612,5.99663],[-58.30671,5.99792],[-58.30774,5.99846],[-58.3091,5.99801],[-58.30997,5.99818],[-58.31188,5.99784],[-58.31231,5.99749],[-58.31385,5.99709],[-58.31416,5.99713],[-58.31556,5.99838],[-58.31743,5.9971],[-58.31912,5.99591],[-58.32273,5.99372],[-58.32189,5.99236],[-58.32079,5.99089],[-58.31933,5.9902],[-58.31917,5.99012],[-58.31865,5.98983],[-58.31864,5.98985]]]},"properties":{"FID_":28,"Name":"Canvas City","Constituen":"Constituency #5","Pop_2012":935,"SHAPE_Leng":0.0436160396613,"SHAPE_Area":0.0000908425068674}},
{"type":"Feature","geometry":{"type":"Polygon","coordinates":[[[-58.29371,6.01013],[-58.2922,6.01241],[-58.29148,6.01318],[-58.29183,6.01418],[-58.29147,6.01448],[-58.29187,6.01598],[-58.29412,6.0166],[-58.29548,6.01729],[-58.29598,6.01784],[-58.30032,6.02024],[-58.30048,6.01966],[-58.30102,6.01869],[-58.30257,6.01517],[-58.30089,6.01432],[-58.29489,6.01153],[-58.29401,6.01103],[-58.29383,6.01056],[-58.29371,6.01013]]]},"properties":{"FID_":3,"Name":"Retrieve","Constituen":"Constituency #2","Pop_2012":1555,"SHAPE_Leng":0.0327391478314,"SHAPE_Area":0.0000550206629251}},
{"type":"Feature","geometry":{"type":"Polygon","coordinates":[[[-58.25809,5.99197],[-58.25813,5.992],[-58.25919,5.99343],[-58.2597,5.99469],[-58.2597,5.99541],[-58.25889,5.99637],[-58.25847,5.99772],[-58.25974,6.00155],[-58.2608,6.00281],[-58.26088,6.00329],[-58.26162,6.00354],[-58.26223,6.00439],[-58.26287,6.0053],[-58.26339,6.00598],[-58.2654,6.00608],[-58.26736,6.00751],[-58.26859,6.00797],[-58.26909,6.01003],[-58.26999,6.01145],[-58.27002,6.01146],[-58.27023,6.01153],[-58.27114,6.01125],[-58.2723,6.01187],[-58.27313,6.01194],[-58.27429,6.01162],[-58.27514,6.01237],[-58.27992,6.01276],[-58.28121,6.0117],[-58.28216,6.01202],[-58.28348,6.01119],[-58.28423,6.01072],[-58.28531,6.01016],[-58.28545,6.00649],[-58.28535,6.00583],[-58.28368,6.00506],[-58.28331,6.00397],[-58.28278,6.00341],[-58.28285,6.00188],[-58.28238,6.00012],[-58.28165,5.99952],[-58.27972,5.99869],[-58.28005,5.99811],[-58.28186,5.99698],[-58.28558,5.99517],[-58.28937,5.99311],[-58.28831,5.99153],[-58.28787,5.99077],[-58.28785,5.99077],[-58.28735,5.99098],[-58.28669,5.99119],[-58.28309,5.99107],[-58.27868,5.99241],[-58.27744,5.99158],[-58.27708,5.99138],[-58.27638,5.99098],[-58.27638,5.98966],[-58.27708,5.98833],[-58.27819,5.98808],[-58.27878,5.9883],[-58.27945,5.98737],[-58.28052,5.98689],[-58.28044,5.98503],[-58.27911,5.98239],[-58.27975,5.98074],[-58.27984,5.98029],[-58.27984,5.98028],[-58.27912,5.97947],[-58.27839,5.97773],[-58.27839,5.97757],[-58.27744,5.97722],[-58.27724,5.97652],[-58.27674,5.97635],[-58.2763,5.97711],[-58.27557,5.97743],[-58.27415,5.97724],[-58.27335,5.97659],[-58.27335,5.97585],[-58.27278,5.97527],[-58.27226,5.97585],[-58.27065,5.97525],[-58.27026,5.97572],[-58.26891,5.97546],[-58.26889,5.97609],[-58.26952,5.97706],[-58.26861,5.97784],[-58.26863,5.97836],[-58.26935,5.97903],[-58.26937,5.98029],[-58.26804,5.98109],[-58.26761,5.98206],[-58.26789,5.98282],[-58.26729,5.9831],[-58.26711,5.98318],[-58.26718,5.98474],[-58.26655,5.98614],[-58.26581,5.98619],[-58.26412,5.98677],[-58.26351,5.98735],[-58.26381,5.98839],[-58.26151,5.99032],[-58.26107,5.99092],[-58.25927,5.99181],[-58.25863,5.99153],[-58.25809,5.99197]]]},"properties":{"FID_":16,"Name":"Kara Kara Mine","Constituen":"Constituency #4","Pop_2012":0,"SHAPE_Leng":0.139048911964,"SHAPE_Area":0.000640073973409}},
{"type":"Feature","geometry":{"type":"Polygon","coordinates":[[[-58.34517,5.99968],[-58.34046,6.0015],[-58.33184,6.0047],[-58.33121,6.00484],[-58.3311,6.00485],[-58.33016,6.00499],[-58.33007,6.005],[-58.3297,6.00502],[-58.32899,6.00499],[-58.32889,6.00498],[-58.32865,6.00496],[-58.32721,6.00469],[-58.3265,6.00454],[-58.32474,6.0042],[-58.32463,6.00418],[-58.32355,6.00567],[-58.32264,6.00692],[-58.32254,6.00707],[-58.32245,6.00721],[-58.32225,6.00751],[-58.32213,6.0077],[-58.32207,6.00781],[-58.32203,6.00786],[-58.32146,6.00866],[-58.32038,6.01018],[-58.3198,6.011],[-58.31926,6.01176],[-58.31761,6.0141],[-58.31537,6.0171],[-58.3143,6.01857],[-58.31417,6.01875],[-58.31384,6.01893],[-58.31158,6.01913],[-58.31105,6.01926],[-58.31084,6.01948],[-58.31076,6.01964],[-58.31015,6.02123],[-58.31016,6.02186],[-58.31098,6.02353],[-58.31134,6.02483],[-58.31125,6.02546],[-58.31045,6.02585],[-58.30886,6.02535],[-58.30761,6.0252],[-58.30678,6.02527],[-58.30624,6.02554],[-58.30597,6.02577],[-58.30547,6.02641],[-58.30479,6.02759],[-58.3044,6.02864],[-58.3039,6.0301],[-58.30391,6.03018],[-58.30393,6.03051],[-58.30413,6.03396],[-58.30413,6.0347],[-58.30325,6.03858],[-58.30303,6.03947],[-58.30289,6.04021],[-58.30267,6.04117],[-58.30232,6.04277],[-58.30214,6.04351],[-58.30169,6.04537],[-58.30147,6.04628],[-58.30052,6.05033],[-58.30013,6.05074],[-58.29831,6.05136],[-58.2968,6.05162],[-58.29636,6.04972],[-58.29584,6.04841],[-58.29007,6.05118],[-58.28903,6.05753],[-58.28553,6.0601],[-58.28608,6.06101],[-58.28632,6.06621],[-58.28628,6.06763],[-58.28649,6.0685],[-58.2878,6.06959],[-58.28776,6.07097],[-58.29085,6.07119],[-58.29081,6.07292],[-58.29159,6.07294],[-58.29176,6.07246],[-58.29246,6.07248],[-58.29236,6.07326],[-58.2949,6.07473],[-58.29585,6.07458],[-58.29743,6.07475],[-58.29926,6.07274],[-58.30017,6.07218],[-58.30127,6.07209],[-58.30166,6.07046],[-58.30189,6.06764],[-58.30167,6.06423],[-58.29902,6.05883],[-58.29791,6.05606],[-58.29956,6.05627],[-58.31065,6.05871],[-58.31457,6.04102],[-58.31608,6.0408],[-58.33477,6.04062],[-58.33473,6.02956],[-58.33899,6.02851],[-58.34222,6.02809],[-58.3502,6.02659],[-58.36154,6.02468],[-58.36314,6.01813],[-58.35315,6.01532],[-58.35401,6.00298],[-58.35447,5.99704],[-58.35354,5.99704],[-58.35177,5.99728],[-58.35054,5.99769],[-58.34971,5.99801],[-58.34938,5.99814],[-58.3489,5.99833],[-58.34517,5.99968]]]},"properties":{"FID_":20,"Name":"Kadabuli/ Harukuru","Constituen":"","Pop_2012":0,"SHAPE_Leng":0.289761192414,"SHAPE_Area":0.00193891407732}},
{"type":"Feature","geometry":{"type":"Polygon","coordinates":[[[-58.31173,6.00523],[-58.31161,6.00526],[-58.31115,6.0053],[-58.31054,6.00531],[-58.31053,6.00531],[-58.3105,6.00456],[-58.31047,6.00437],[-58.31044,6.00428],[-58.31038,6.00413],[-58.31038,6.00411],[-58.31036,6.00407],[-58.30968,6.00365],[-58.30733,6.00351],[-58.30698,6.00591],[-58.30649,6.00731],[-58.30826,6.00768],[-58.3108,6.00838],[-58.31084,6.00828],[-58.31084,6.00825],[-58.31086,6.00816],[-58.31087,6.00795],[-58.31089,6.00786],[-58.31092,6.00772],[-58.31098,6.00742],[-58.31123,6.00693],[-58.31165,6.00676],[-58.31173,6.00523]]]},"properties":{"FID_":2,"Name":"Silver City","Constituen":"Constituency #6","Pop_2012":734,"SHAPE_Leng":0.0175560177777,"SHAPE_Area":0.0000172934098732}}
]}