{"type":"FeatureCollection", "features": [
{"type":"Feature","geometry":{"type":"Polygon","coordinates":[[[-57.51525,6.249],[-57.51511,6.24891],[-57.51243,6.24723],[-57.51223,6.2471],[-57.50861,6.24483],[-57.50729,6.24413],[-57.50704,6.24579],[-57.50861,6.25082],[-57.50984,6.2504],[-57.51242,6.2533],[-57.51245,6.25332],[-57.51472,6.24986],[-57.51525,6.249]]]},"properties":{"NCID":"1","NCD":"New Amsterdam","REGION":"East Berbice-Corentyne","District":"Tucber Park","Males_2012":367,"Fem_2012":464,"Total_2012":831}},
{"type":"Feature","geometry":{"type":"Polygon","coordinates":[[[-57.51223,6.2471],[-57.51328,6.24397],[-57.51505,6.23862],[-57.51603,6.23565],[-57.51603,6.23562],[-57.50914,6.23114],[-57.50729,6.24413],[-57.50861,6.24483],[-57.51223,6.2471]]]},"properties":{"NCID":"2","NCD":"New Amsterdam","REGION":"East Berbice-Corentyne","District":"Mount Sinai","Males_2012":1893,"Fem_2012":1966,"Total_2012":3859}},
{"type":"Feature","geometry":{"type":"Polygon","coordinates":[[[-57.51525,6.249],[-57.51578,6.24926],[-57.51586,6.24947],[-57.51587,6.2495],[-57.51586,6.24947],[-57.51579,6.24927],[-57.51605,6.2486],[-57.51663,6.2469],[-57.5171,6.24554],[-57.51711,6.24549],[-57.51984,6.23809],[-57.51985,6.23805],[-57.51604,6.23564],[-57.51603,6.23565],[-57.51505,6.23862],[-57.51328,6.24397],[-57.51223,6.2471],[-57.51243,6.24723],[-57.51511,6.24891],[-57.51525,6.249]]]},"properties":{"NCID":"3","NCD":"New Amsterdam","REGION":"East Berbice-Corentyne","District":"Vryman's Erven","Males_2012":356,"Fem_2012":446,"Total_2012":802}},
{"type":"Feature","geometry":{"type":"Polygon","coordinates":[[[-57.51106,6.18752],[-57.50466,6.18892],[-57.50898,6.20312],[-57.50697,6.20382],[-57.50913,6.21029],[-57.51018,6.20994],[-57.50951,6.21833],[-57.5107,6.23054],[-57.5156,6.22889],[-57.52235,6.22681],[-57.52244,6.22685],[-57.52264,6.22597],[-57.52125,6.22178],[-57.52342,6.2211],[-57.52262,6.21877],[-57.52157,6.21919],[-57.51331,6.19397],[-57.51106,6.18752]]]},"properties":{"NCID":"4","NCD":"New Amsterdam","REGION":"East Berbice-Corentyne","District":"Overwinning","Males_2012":421,"Fem_2012":451,"Total_2012":872}},
{"type":"Feature","geometry":{"type":"Polygon","coordinates":[[[-57.51985,6.23806],[-57.51985,6.23805],[-57.51984,6.23809],[-57.51711,6.24549],[-57.5171,6.24554],[-57.51663,6.2469],[-57.51605,6.2486],[-57.51579,6.24927],[-57.51586,6.24947],[-57.51587,6.2495],[-57.51588,6.24955],[-57.51588,6.24956],[-57.51707,6.25036],[-57.51804,6.25093],[-57.51806,6.25094],[-57.51868,6.25134],[-57.51902,6.25156],[-57.51921,6.25168],[-57.52062,6.25261],[-57.52065,6.25263],[-57.52277,6.25401],[-57.52277,6.254],[-57.52341,6.2506],[-57.52405,6.24717],[-57.52432,6.24592],[-57.52556,6.23831],[-57.5222,6.23638],[-57.5207,6.23459],[-57.52054,6.23525],[-57.52045,6.23563],[-57.52009,6.2371],[-57.51996,6.23763],[-57.51985,6.23806]]]},"properties":{"NCID":"5","NCD":"New Amsterdam","REGION":"East Berbice-Corentyne","District":"Smythtown","Males_2012":1273,"Fem_2012":1405,"Total_2012":2678}},
{"type":"Feature","geometry":{"type":"Polygon","coordinates":[[[-57.51985,6.23806],[-57.51996,6.23763],[-57.52009,6.2371],[-57.52045,6.23563],[-57.52054,6.23525],[-57.5207,6.23459],[-57.5222,6.23638],[-57.52503,6.238],[-57.52556,6.2383],[-57.52624,6.23281],[-57.52664,6.22545],[-57.52265,6.22696],[-57.52244,6.22685],[-57.52235,6.22681],[-57.5156,6.22889],[-57.50914,6.23114],[-57.51603,6.23562],[-57.51603,6.23565],[-57.51604,6.23564],[-57.51985,6.23805],[-57.51985,6.23806]]]},"properties":{"NCID":"6","NCD":"New Amsterdam","REGION":"East Berbice-Corentyne","District":"Stanleytown","Males_2012":1408,"Fem_2012":1643,"Total_2012":3051}},
{"type":"Feature","geometry":{"type":"Polygon","coordinates":[[[-57.52615,6.19439],[-57.52656,6.19315],[-57.53054,6.18697],[-57.53221,6.18508],[-57.52889,6.18634],[-57.52644,6.1865],[-57.5196,6.1888],[-57.52188,6.19581],[-57.52615,6.19439]]]},"properties":{"NCID":"7","NCD":"New Amsterdam","REGION":"East Berbice-Corentyne","District":"Edinburg","Males_2012":518,"Fem_2012":551,"Total_2012":1069}},
{"type":"Feature","geometry":{"type":"Polygon","coordinates":[[[-57.52244,6.22685],[-57.52265,6.22696],[-57.52664,6.22545],[-57.52659,6.21744],[-57.52594,6.21495],[-57.52321,6.21592],[-57.5167,6.19634],[-57.51418,6.18804],[-57.5137,6.18701],[-57.51106,6.18752],[-57.51331,6.19397],[-57.52157,6.21919],[-57.52262,6.21877],[-57.52342,6.2211],[-57.52125,6.22178],[-57.52264,6.22597],[-57.52244,6.22685]]]},"properties":{"NCID":"8","NCD":"New Amsterdam","REGION":"East Berbice-Corentyne","District":"Providence","Males_2012":61,"Fem_2012":54,"Total_2012":115}},
{"type":"Feature","geometry":{"type":"Polygon","coordinates":[[[-57.5196,6.1888],[-57.51941,6.18833],[-57.51418,6.18804],[-57.5167,6.19634],[-57.52321,6.21592],[-57.52594,6.21495],[-57.52499,6.2061],[-57.52499,6.19939],[-57.52615,6.19439],[-57.52188,6.19581],[-57.5196,6.1888]]]},"properties":{"NCID":"8","NCD":"New Amsterdam","REGION":"East Berbice-Corentyne","District":"Glasgow","Males_2012":923,"Fem_2012":944,"Total_2012":1867}},
{"type":"Feature","geometry":{"type":"Polygon","coordinates":[[[-57.50861,6.25082],[-57.50878,6.25497],[-57.50772,6.25749],[-57.50956,6.25998],[-57.51392,6.26056],[-57.51812,6.26049],[-57.52223,6.25854],[-57.52278,6.25401],[-57.52277,6.254],[-57.52277,6.25401],[-57.52065,6.25263],[-57.52062,6.25261],[-57.51921,6.25168],[-57.51902,6.25156],[-57.51868,6.25134],[-57.51806,6.25094],[-57.51735,6.2521],[-57.51524,6.25537],[-57.51375,6.25419],[-57.51309,6.25374],[-57.51301,6.25369],[-57.51245,6.25332],[-57.51242,6.2533],[-57.50984,6.2504],[-57.50861,6.25082]]]},"properties":{"NCID":"10","NCD":"New Amsterdam","REGION":"East Berbice-Corentyne","District":"Smythfield","Males_2012":424,"Fem_2012":485,"Total_2012":909}},
{"type":"Feature","geometry":{"type":"Polygon","coordinates":[[[-57.51588,6.24955],[-57.51586,6.24957],[-57.51517,6.25058],[-57.51309,6.25374],[-57.51375,6.25419],[-57.51524,6.25537],[-57.51735,6.2521],[-57.51806,6.25094],[-57.51804,6.25093],[-57.51707,6.25036],[-57.51588,6.24956],[-57.51588,6.24955]]]},"properties":{"NCID":"11","NCD":"New Amsterdam","REGION":"East Berbice-Corentyne","District":"Queenstown","Males_2012":18,"Fem_2012":21,"Total_2012":39}},
{"type":"Feature","geometry":{"type":"Polygon","coordinates":[[[-57.51245,6.25332],[-57.51301,6.25369],[-57.51309,6.25374],[-57.51517,6.25058],[-57.51586,6.24957],[-57.51588,6.24955],[-57.51587,6.2495],[-57.51586,6.24947],[-57.51578,6.24926],[-57.51525,6.249],[-57.51472,6.24986],[-57.51245,6.25332]]]},"properties":{"NCID":"12","NCD":"New Amsterdam","REGION":"East Berbice-Corentyne","District":"Winkel","Males_2012":95,"Fem_2012":127,"Total_2012":222}}
]}