{"type":"FeatureCollection", "features": [
{"type":"Feature","geometry":{"type":"Polygon","coordinates":[[[-58.48034,7.25088],[-58.47866,7.2617],[-58.47635,7.26763],[-58.47543,7.28343],[-58.4762,7.28975],[-58.47619,7.30955],[-58.47751,7.31264],[-58.47801,7.3221],[-58.47994,7.32385],[-58.48108,7.33258],[-58.4955,7.33324],[-58.52192,7.33564],[-58.55751,7.33727],[-58.54506,7.30132],[-58.5437,7.29347],[-58.53529,7.2679],[-58.53179,7.2544],[-58.52597,7.24109],[-58.52414,7.24124],[-58.52126,7.23126],[-58.50964,7.23077],[-58.48358,7.22892],[-58.48034,7.25088]]]},"properties":{"NDC_ID":206,"NDC":"Anna Regina","REG_NAME":"Pomeroon-Supenaam","Region":2,"STATUS":"Neighborhood Democratic Councils","Tot_Males":2736,"Tot_Female":2715,"Total":5451}}
]}