{"type":"FeatureCollection", "features": [
{"type":"Feature","geometry":{"type":"Polygon","coordinates":[[[-58.62772,6.40112],[-58.62753,6.40122],[-58.62688,6.40159],[-58.62671,6.40172],[-58.62671,6.4027],[-58.62633,6.40385],[-58.62533,6.40733],[-58.62533,6.40734],[-58.62429,6.41078],[-58.62836,6.41125],[-58.62952,6.41087],[-58.63091,6.41155],[-58.63294,6.40891],[-58.6348,6.4052],[-58.63429,6.4042],[-58.63496,6.4008],[-58.62772,6.40112]]]},"properties":{"Id":6,"Constituen":"Constituency #6","Name":"Bartica (West)"}},
{"type":"Feature","geometry":{"type":"Polygon","coordinates":[[[-58.62671,6.40172],[-58.62527,6.40124],[-58.62498,6.40106],[-58.62454,6.40136],[-58.62381,6.40187],[-58.62303,6.40208],[-58.6225,6.40367],[-58.62183,6.40609],[-58.62169,6.40631],[-58.62533,6.40734],[-58.62533,6.40733],[-58.62633,6.40385],[-58.62671,6.4027],[-58.62671,6.40172]]]},"properties":{"Id":5,"Constituen":"Constituency #5","Name":"Bartica West Central (South)"}},
{"type":"Feature","geometry":{"type":"Polygon","coordinates":[[[-58.62772,6.40112],[-58.62787,6.40105],[-58.62797,6.40084],[-58.62661,6.39863],[-58.62608,6.39787],[-58.62321,6.3968],[-58.62316,6.3968],[-58.62171,6.40205],[-58.61983,6.40858],[-58.61986,6.40859],[-58.62098,6.40891],[-58.62169,6.40631],[-58.62183,6.40609],[-58.6225,6.40367],[-58.62303,6.40208],[-58.62381,6.40187],[-58.62454,6.40136],[-58.62498,6.40106],[-58.62527,6.40124],[-58.62671,6.40172],[-58.62688,6.40159],[-58.62753,6.40122],[-58.62772,6.40112]]]},"properties":{"Id":3,"Constituen":"Constituency #3","Name":"Bartica East Central"}},
{"type":"Feature","geometry":{"type":"Polygon","coordinates":[[[-58.61981,6.39676],[-58.61875,6.40126],[-58.62171,6.40205],[-58.62316,6.3968],[-58.62302,6.39666],[-58.6213,6.39632],[-58.62091,6.39637],[-58.6201,6.39666],[-58.61981,6.39676]]]},"properties":{"Id":2,"Constituen":"Constituency #2","Name":"Bartica East (South)"}},
{"type":"Feature","geometry":{"type":"Polygon","coordinates":[[[-58.62533,6.40734],[-58.62169,6.40631],[-58.62098,6.40891],[-58.61986,6.40859],[-58.61977,6.40897],[-58.61963,6.40953],[-58.62143,6.41041],[-58.62429,6.41078],[-58.62533,6.40734]]]},"properties":{"Id":4,"Constituen":"Constituency #4","Name":"Bartica West Central (North)"}},
{"type":"Feature","geometry":{"type":"Polygon","coordinates":[[[-58.62171,6.40205],[-58.61875,6.40126],[-58.61746,6.40517],[-58.61708,6.40726],[-58.61963,6.40953],[-58.61977,6.40897],[-58.61986,6.40859],[-58.61983,6.40858],[-58.62171,6.40205]]]},"properties":{"Id":1,"Constituen":"Constituency #1","Name":"Bartica East (North)"}},
{"type":"Feature","geometry":{"type":"Polygon","coordinates":[[[-58.62797,6.40084],[-58.62945,6.39881],[-58.63052,6.39617],[-58.6292,6.38971],[-58.62829,6.38766],[-58.62821,6.38491],[-58.62763,6.38406],[-58.62846,6.38064],[-58.63046,6.37859],[-58.63114,6.37973],[-58.63295,6.37876],[-58.63249,6.37504],[-58.63609,6.37155],[-58.63693,6.36996],[-58.63598,6.36753],[-58.63598,6.36332],[-58.63502,6.36069],[-58.63388,6.35906],[-58.63077,6.35694],[-58.62899,6.35605],[-58.62675,6.3557],[-58.61969,6.35857],[-58.61798,6.35871],[-58.61587,6.35945],[-58.61352,6.35977],[-58.61056,6.35974],[-58.6117,6.36144],[-58.61427,6.36884],[-58.61473,6.36881],[-58.61552,6.37497],[-58.61519,6.37582],[-58.61548,6.37958],[-58.61694,6.38234],[-58.61641,6.38277],[-58.61658,6.38603],[-58.6163,6.38723],[-58.61716,6.38748],[-58.61908,6.39282],[-58.62022,6.3952],[-58.61981,6.39676],[-58.6201,6.39666],[-58.62091,6.39637],[-58.6213,6.39632],[-58.62302,6.39666],[-58.62316,6.3968],[-58.62321,6.3968],[-58.62608,6.39787],[-58.62661,6.39863],[-58.62797,6.40084]]]},"properties":{"Id":8,"Constituen":"Constituency #8","Name":"Tumering / Mongrippo (East)"}},
{"type":"Feature","geometry":{"type":"Polygon","coordinates":[[[-58.63496,6.4008],[-58.63657,6.39934],[-58.63712,6.39804],[-58.64211,6.3951],[-58.64643,6.39404],[-58.64881,6.39393],[-58.65363,6.3901],[-58.65698,6.38936],[-58.65883,6.38957],[-58.65873,6.39024],[-58.66229,6.38869],[-58.66318,6.38865],[-58.66486,6.38748],[-58.66921,6.38709],[-58.66967,6.38585],[-58.66832,6.38624],[-58.66582,6.38546],[-58.66201,6.3816],[-58.65894,6.37717],[-58.65709,6.37554],[-58.65006,6.37225],[-58.64799,6.37143],[-58.64771,6.37072],[-58.6455,6.37023],[-58.64161,6.36991],[-58.63693,6.36996],[-58.63609,6.37155],[-58.63249,6.37504],[-58.63295,6.37876],[-58.63114,6.37973],[-58.63046,6.37859],[-58.62846,6.38064],[-58.62763,6.38406],[-58.62821,6.38491],[-58.62829,6.38766],[-58.6292,6.38971],[-58.63052,6.39617],[-58.62945,6.39881],[-58.62797,6.40084],[-58.62787,6.40105],[-58.62772,6.40112],[-58.63496,6.4008]]]},"properties":{"Id":7,"Constituen":"Constituency #7","Name":"Tumering / Mongrippo (West)"}}
]}