{"type":"FeatureCollection", "features": [
{"type":"Feature","geometry":{"type":"Polygon","coordinates":[[[-57.14034,5.88407],[-57.13782,5.88294],[-57.13782,5.88292],[-57.13781,5.88292],[-57.13691,5.88574],[-57.13693,5.88575],[-57.14139,5.8875],[-57.1414,5.8875],[-57.14232,5.88792],[-57.14704,5.88995],[-57.15003,5.89128],[-57.15043,5.89146],[-57.15361,5.89287],[-57.16062,5.89595],[-57.1619,5.89332],[-57.14083,5.88411],[-57.14034,5.88407]]]},"properties":{"id":5,"Constit":"No. 79 (North) Queenstown"}},
{"type":"Feature","geometry":{"type":"Polygon","coordinates":[[[-57.17104,5.87186],[-57.1749,5.86332],[-57.16908,5.86125],[-57.14696,5.85304],[-57.14555,5.85996],[-57.14452,5.86248],[-57.14456,5.8625],[-57.14457,5.86248],[-57.14757,5.86327],[-57.15714,5.86658],[-57.16677,5.87011],[-57.17104,5.87186]]]},"properties":{"id":8,"Constit":"Line Path D - Block 19 - Line Path E"}},
{"type":"Feature","geometry":{"type":"Polygon","coordinates":[[[-57.14456,5.8625],[-57.14433,5.86309],[-57.14377,5.86326],[-57.14305,5.86483],[-57.13949,5.87388],[-57.13894,5.87402],[-57.13898,5.87522],[-57.13847,5.87604],[-57.13861,5.87677],[-57.13862,5.87677],[-57.13879,5.87685],[-57.13911,5.87699],[-57.13926,5.87706],[-57.13948,5.87725],[-57.13955,5.87731],[-57.13957,5.87732],[-57.13966,5.87736],[-57.14083,5.87792],[-57.14412,5.87931],[-57.1447,5.87952],[-57.14482,5.87956],[-57.14526,5.87973],[-57.14565,5.87988],[-57.14783,5.88081],[-57.14996,5.88172],[-57.1506,5.88201],[-57.15321,5.88306],[-57.15424,5.8835],[-57.1548,5.88374],[-57.15601,5.88433],[-57.15916,5.8857],[-57.16088,5.8866],[-57.16304,5.88757],[-57.16369,5.88784],[-57.16406,5.88799],[-57.17104,5.87186],[-57.16677,5.87011],[-57.15714,5.86658],[-57.14757,5.86327],[-57.14457,5.86248],[-57.14456,5.8625]]]},"properties":{"id":7,"Constit":"Skeldon - Line Path A, B, C and F"}},
{"type":"Feature","geometry":{"type":"Polygon","coordinates":[[[-57.15361,5.89287],[-57.15043,5.89146],[-57.15003,5.89128],[-57.14704,5.88995],[-57.14232,5.88792],[-57.1414,5.8875],[-57.14139,5.8875],[-57.13693,5.88575],[-57.13686,5.88614],[-57.1363,5.8863],[-57.13572,5.88872],[-57.13502,5.89563],[-57.13518,5.90029],[-57.13585,5.90113],[-57.13586,5.90113],[-57.13613,5.9011],[-57.13624,5.90108],[-57.13883,5.9002],[-57.1406,5.89975],[-57.14536,5.89836],[-57.14871,5.8963],[-57.14996,5.89729],[-57.15014,5.89735],[-57.1508,5.89753],[-57.15135,5.89769],[-57.15154,5.89774],[-57.15276,5.89795],[-57.15405,5.89799],[-57.15644,5.89726],[-57.15866,5.89661],[-57.16063,5.89606],[-57.16077,5.89602],[-57.16065,5.89596],[-57.16062,5.89595],[-57.15381,5.89296],[-57.15361,5.89287]]]},"properties":{"id":3,"Constit":"3 and 4"}},
{"type":"Feature","geometry":{"type":"Polygon","coordinates":[[[-57.13696,5.90972],[-57.13719,5.91184],[-57.13826,5.91519],[-57.13874,5.91818],[-57.15232,5.91445],[-57.16489,5.91079],[-57.16251,5.90227],[-57.15593,5.90427],[-57.13696,5.90972]]]},"properties":{"id":1,"Constit":"No. 75 - No. 76 (Scottsburg - Dukestown)"}},
{"type":"Feature","geometry":{"type":"Polygon","coordinates":[[[-57.13586,5.90113],[-57.13631,5.90438],[-57.13648,5.90583],[-57.13667,5.90654],[-57.13672,5.90773],[-57.13696,5.90972],[-57.15593,5.90427],[-57.16251,5.90227],[-57.16077,5.89602],[-57.16063,5.89606],[-57.15866,5.89661],[-57.15644,5.89726],[-57.15405,5.89799],[-57.15276,5.89795],[-57.15154,5.89774],[-57.15135,5.89769],[-57.1508,5.89753],[-57.15014,5.89735],[-57.14996,5.89729],[-57.14871,5.8963],[-57.14536,5.89836],[-57.1406,5.89975],[-57.13883,5.9002],[-57.13624,5.90108],[-57.13613,5.9011],[-57.13586,5.90113]]]},"properties":{"id":2,"Constit":"Princetown - No 77 New Housing Scheme"}},
{"type":"Feature","geometry":{"type":"Polygon","coordinates":[[[-57.1619,5.89332],[-57.16404,5.88801],[-57.16369,5.88784],[-57.16304,5.88757],[-57.16088,5.8866],[-57.15916,5.8857],[-57.15601,5.88433],[-57.1548,5.88374],[-57.15424,5.8835],[-57.15321,5.88306],[-57.1506,5.88201],[-57.14996,5.88172],[-57.14783,5.88081],[-57.14565,5.87988],[-57.14526,5.87973],[-57.14482,5.87956],[-57.1447,5.87952],[-57.14412,5.87931],[-57.14083,5.87792],[-57.13966,5.87736],[-57.13957,5.87732],[-57.13955,5.87731],[-57.13948,5.87725],[-57.13926,5.87706],[-57.13911,5.87699],[-57.13879,5.87685],[-57.13862,5.87677],[-57.13869,5.87744],[-57.13806,5.87908],[-57.13759,5.87911],[-57.13795,5.87991],[-57.13791,5.88182],[-57.13786,5.8824],[-57.13787,5.88272],[-57.13782,5.88292],[-57.13782,5.88294],[-57.14034,5.88407],[-57.14083,5.88411],[-57.1619,5.89332]]]},"properties":{"id":5,"Constit":"No 79 (South) Little India - Kingston"}}
]}