{"type":"FeatureCollection", "features": [
{"type":"Feature","geometry":{"type":"Polygon","coordinates":[[[-58.17012,6.79054],[-58.17216,6.79103],[-58.1723,6.78995],[-58.17294,6.79042],[-58.17333,6.78832],[-58.17341,6.78589],[-58.17469,6.7814],[-58.17558,6.77715],[-58.16473,6.77451],[-58.15702,6.77257],[-58.15645,6.77215],[-58.15022,6.77056],[-58.13233,6.76584],[-58.12282,6.76312],[-58.12191,6.76711],[-58.12012,6.77396],[-58.11907,6.77719],[-58.1222,6.7779],[-58.13245,6.78066],[-58.13463,6.78125],[-58.13487,6.78151],[-58.14153,6.78329],[-58.14449,6.78406],[-58.14621,6.78454],[-58.15588,6.78704],[-58.15898,6.78796],[-58.16704,6.78996],[-58.1683,6.79009],[-58.17012,6.79054]]]},"properties":{"ID":"15","NAME":"Meadow Bank  1Agricola","Constituen":"Constituency #15"}},
{"type":"Feature","geometry":{"type":"Polygon","coordinates":[[[-58.13015,6.81108],[-58.12955,6.81103],[-58.1158,6.80692],[-58.11389,6.81389],[-58.11063,6.8251],[-58.1187,6.82615],[-58.12043,6.82687],[-58.12242,6.82713],[-58.12352,6.82657],[-58.12536,6.82639],[-58.12791,6.818],[-58.12833,6.81715],[-58.13015,6.81108]]]},"properties":{"ID":"5","NAME":"Sophia / Liliendaal / Turkeyen","Constituen":"Constituency #5"}},
{"type":"Feature","geometry":{"type":"Polygon","coordinates":[[[-58.13309,6.82568],[-58.13659,6.82542],[-58.14093,6.82704],[-58.14242,6.82735],[-58.14299,6.82615],[-58.14488,6.81931],[-58.14588,6.81567],[-58.14416,6.81523],[-58.14338,6.81454],[-58.14044,6.81378],[-58.14013,6.81372],[-58.13911,6.81742],[-58.13447,6.82086],[-58.13309,6.82568]]]},"properties":{"ID":"2","NAME":"Kitty / Subryanville","Constituen":"Constituency #2"}},
{"type":"Feature","geometry":{"type":"Polygon","coordinates":[[[-58.12536,6.82639],[-58.13309,6.82568],[-58.13447,6.82086],[-58.13911,6.81742],[-58.14013,6.81372],[-58.1392,6.81364],[-58.13729,6.81315],[-58.13045,6.81118],[-58.13015,6.81108],[-58.12833,6.81715],[-58.12791,6.818],[-58.12536,6.82639]]]},"properties":{"ID":"3","NAME":"Bell Air Gardens / Bell Air Springs","Constituen":"Constituency #3"}},
{"type":"Feature","geometry":{"type":"Polygon","coordinates":[[[-58.14588,6.81567],[-58.14488,6.81931],[-58.14324,6.82528],[-58.14321,6.8259],[-58.15412,6.82489],[-58.15617,6.82486],[-58.16133,6.82623],[-58.16215,6.82597],[-58.16426,6.82676],[-58.16485,6.8274],[-58.16583,6.82533],[-58.16638,6.82259],[-58.16575,6.82104],[-58.16691,6.82122],[-58.16815,6.81426],[-58.16655,6.81344],[-58.14774,6.80836],[-58.1477,6.80863],[-58.14743,6.81011],[-58.14588,6.81567]]]},"properties":{"ID":"1","NAME":"Kingston/Albertown/Queenstow / C.burg","Constituen":"Constituency #1"}},
{"type":"Feature","geometry":{"type":"Polygon","coordinates":[[[-58.16073,6.80312],[-58.15735,6.80222],[-58.15129,6.80057],[-58.15086,6.8033],[-58.15108,6.80519],[-58.15077,6.80579],[-58.15799,6.80774],[-58.15844,6.80604],[-58.16389,6.80746],[-58.16897,6.80884],[-58.1694,6.80538],[-58.16215,6.80349],[-58.16073,6.80312]]]},"properties":{"ID":"8","NAME":"Stabroek, Wortmanville, Werk-en-Rust","Constituen":"Constituency #8"}},
{"type":"Feature","geometry":{"type":"Polygon","coordinates":[[[-58.16815,6.81426],[-58.16876,6.81069],[-58.16823,6.81058],[-58.16897,6.80884],[-58.16389,6.80746],[-58.15844,6.80604],[-58.15799,6.80774],[-58.15077,6.80579],[-58.15036,6.80621],[-58.1482,6.80748],[-58.14774,6.80836],[-58.16655,6.81344],[-58.16815,6.81426]]]},"properties":{"ID":"7","NAME":"Bourda / Stabroek / Lacytown","Constituen":"Constituency #7"}},
{"type":"Feature","geometry":{"type":"Polygon","coordinates":[[[-58.1694,6.80538],[-58.16994,6.80333],[-58.16951,6.8029],[-58.17033,6.80024],[-58.16542,6.79885],[-58.15721,6.79665],[-58.15676,6.79836],[-58.16165,6.79965],[-58.16073,6.80312],[-58.16215,6.80349],[-58.1694,6.80538]]]},"properties":{"ID":"10","NAME":"Albouystown / Charlestown","Constituen":"Constituency #10"}},
{"type":"Feature","geometry":{"type":"Polygon","coordinates":[[[-58.16073,6.80312],[-58.16165,6.79965],[-58.15676,6.79836],[-58.15721,6.79665],[-58.16542,6.79885],[-58.17033,6.80024],[-58.17059,6.79901],[-58.17038,6.7978],[-58.17106,6.79583],[-58.17116,6.79456],[-58.16495,6.793],[-58.16411,6.79602],[-58.14473,6.79096],[-58.14451,6.79195],[-58.14427,6.79227],[-58.14299,6.79327],[-58.1421,6.79431],[-58.14201,6.79446],[-58.14172,6.79496],[-58.14044,6.79782],[-58.14888,6.80003],[-58.15129,6.80057],[-58.15735,6.80222],[-58.16073,6.80312]]]},"properties":{"ID":"11","NAME":"East La Penitance /River View","Constituen":"Constituency #11"}},
{"type":"Feature","geometry":{"type":"Polygon","coordinates":[[[-58.14013,6.81372],[-58.14044,6.81378],[-58.14338,6.81454],[-58.14416,6.81523],[-58.14588,6.81567],[-58.14743,6.81011],[-58.1477,6.80863],[-58.13896,6.8063],[-58.132,6.80445],[-58.13015,6.81108],[-58.13045,6.81118],[-58.13729,6.81315],[-58.1392,6.81364],[-58.14013,6.81372]]]},"properties":{"ID":"4","NAME":"Lamaha Gardens /  Newtown, /Campbellville","Constituen":"Constituency #4"}},
{"type":"Feature","geometry":{"type":"Polygon","coordinates":[[[-58.13015,6.81108],[-58.132,6.80445],[-58.13386,6.79802],[-58.13558,6.79285],[-58.12374,6.78998],[-58.11579,6.78796],[-58.11157,6.80224],[-58.10974,6.80867],[-58.10765,6.8155],[-58.10524,6.82383],[-58.11063,6.8251],[-58.11389,6.81389],[-58.1158,6.80692],[-58.12955,6.81103],[-58.13015,6.81108]]]},"properties":{"ID":"6","NAME":"Cummings Lodge / Turkeyen","Constituen":"Constituency #6"}},
{"type":"Feature","geometry":{"type":"Polygon","coordinates":[[[-58.14774,6.80836],[-58.1482,6.80748],[-58.15036,6.80621],[-58.15077,6.80579],[-58.15108,6.80519],[-58.15086,6.8033],[-58.15129,6.80057],[-58.14888,6.80003],[-58.14044,6.79782],[-58.14172,6.79496],[-58.14201,6.79446],[-58.13872,6.79359],[-58.13558,6.79285],[-58.13386,6.79802],[-58.132,6.80445],[-58.13896,6.8063],[-58.1477,6.80863],[-58.14774,6.80836]]]},"properties":{"ID":"9","NAME":"Lodge / Meadow Brook Gardens","Constituen":"Constituency #9"}},
{"type":"Feature","geometry":{"type":"Polygon","coordinates":[[[-58.14201,6.79446],[-58.1421,6.79431],[-58.14299,6.79327],[-58.14427,6.79227],[-58.14451,6.79195],[-58.14473,6.79096],[-58.14513,6.7892],[-58.14552,6.78823],[-58.1468,6.78838],[-58.14734,6.78853],[-58.14747,6.78804],[-58.14119,6.78646],[-58.13462,6.78469],[-58.1272,6.78281],[-58.11807,6.78023],[-58.11579,6.78796],[-58.12374,6.78998],[-58.13558,6.79285],[-58.13872,6.79359],[-58.14201,6.79446]]]},"properties":{"ID":"12","NAME":"Tucville / North Ruimveldt","Constituen":"Constituency #12"}},
{"type":"Feature","geometry":{"type":"Polygon","coordinates":[[[-58.16495,6.793],[-58.16326,6.79277],[-58.16049,6.79198],[-58.15378,6.79029],[-58.14734,6.78853],[-58.1468,6.78838],[-58.14552,6.78823],[-58.14513,6.7892],[-58.14473,6.79096],[-58.16411,6.79602],[-58.16495,6.793]]]},"properties":{"ID":"13","NAME":"East and West Ruimveldt","Constituen":"Constituency #13"}},
{"type":"Feature","geometry":{"type":"Polygon","coordinates":[[[-58.11907,6.77719],[-58.11807,6.78023],[-58.1272,6.78281],[-58.13462,6.78469],[-58.14119,6.78646],[-58.14747,6.78804],[-58.14734,6.78853],[-58.15378,6.79029],[-58.16049,6.79198],[-58.16326,6.79277],[-58.16495,6.793],[-58.17116,6.79456],[-58.17199,6.7917],[-58.17139,6.79086],[-58.17012,6.79054],[-58.1683,6.79009],[-58.16704,6.78996],[-58.15898,6.78796],[-58.15588,6.78704],[-58.14621,6.78454],[-58.14449,6.78406],[-58.14153,6.78329],[-58.13487,6.78151],[-58.13463,6.78125],[-58.13245,6.78066],[-58.1222,6.7779],[-58.11907,6.77719]]]},"properties":{"ID":"14","NAME":"South Ruimveldt Park  and Industrial Estate","Constituen":"Constituency #14"}}
]}