{"type":"FeatureCollection", "features": [
{"type":"Feature","geometry":{"type":"Polygon","coordinates":[[[-59.9002,8.8699],[-59.90191,8.8508],[-59.91617,8.81205],[-59.91761,8.55204],[-59.9785,8.53036],[-59.97458,8.5226],[-59.94463,8.49604],[-59.90346,8.44655],[-59.88509,8.40776],[-59.86503,8.37933],[-59.84136,8.36072],[-59.82188,8.36073],[-59.78385,8.34333],[-59.76888,8.36053],[-59.8142,8.3889],[-59.82007,8.39482],[-59.78128,8.4075],[-59.76367,8.40383],[-59.72955,8.38883],[-59.70603,8.36809],[-59.6252,8.32499],[-59.59973,8.30855],[-59.56183,8.28835],[-59.52731,8.27312],[-59.46914,8.24083],[-59.35284,8.17316],[-59.32561,8.15459],[-59.29367,8.13863],[-59.25747,8.11293],[-59.22758,8.09855],[-59.16988,8.05974],[-59.12382,8.02075],[-59.08708,7.98102],[-59.06639,7.9556],[-59.06449,7.946],[-59.04167,7.92208],[-59.01352,7.90974],[-58.97468,7.86956],[-58.93706,7.81839],[-58.9242,7.81082],[-58.913,7.79655],[-58.89249,7.78277],[-58.86865,7.7531],[-58.84532,7.74288],[-58.82283,7.72075],[-58.80718,7.68635],[-58.79415,7.67179],[-58.78504,7.64955],[-58.76748,7.62746],[-58.75097,7.62173],[-58.72871,7.62459],[-58.71094,7.61217],[-58.67709,7.60095],[-58.64875,7.5509],[-58.62553,7.5204],[-58.60171,7.49468],[-58.599,7.48619],[-58.581,7.47196],[-58.55875,7.43734],[-58.53797,7.41095],[-58.52979,7.39556],[-58.51294,7.38417],[-58.48372,7.34282],[-58.4761,7.30955],[-58.47679,7.26345],[-58.48474,7.22526],[-58.48828,7.18992],[-58.4735,7.14411],[-58.47624,7.10947],[-58.36832,6.99489],[-58.32732,6.95242],[-58.32732,6.88251],[-58.30978,6.88205],[-58.28165,6.87422],[-58.22291,6.84182],[-58.19306,6.81774],[-58.1691,6.80734],[-58.16695,6.82304],[-58.12174,6.82664],[-58.09125,6.82331],[-58.05235,6.81191],[-58.04532,6.80412],[-58.02851,6.80214],[-58.00781,6.78878],[-57.98102,6.76603],[-57.97455,6.75682],[-57.95151,6.74299],[-57.92614,6.71666],[-57.92164,6.7068],[-57.90846,6.70391],[-57.86567,6.66509],[-57.82,6.62862],[-57.80288,6.60693],[-57.7988,6.5927],[-57.77729,6.58601],[-57.7431,6.54744],[-57.72175,6.53446],[-57.69569,6.51441],[-57.66851,6.48255],[-57.62596,6.44739],[-57.61536,6.42915],[-57.5987,6.40968],[-57.574,6.37157],[-57.5629,6.32738],[-57.53623,6.29261],[-57.53532,6.28108],[-57.52102,6.28064],[-57.5174,6.31132],[-57.50264,6.32898],[-57.48683,6.33946],[-57.46132,6.33603],[-57.43766,6.32857],[-57.38528,6.29823],[-57.3133,6.24942],[-57.28385,6.22567],[-57.21894,6.16592],[-57.20479,6.14964],[-57.17699,6.10981],[-57.16479,6.07425],[-56.54801,7.05819],[-56.41039,7.31261],[-56.32817,7.483],[-56.24983,7.666],[-56.23501,7.7408],[-56.13261,8.23899],[-56.06644,8.55835],[-55.85343,9.11225],[-56.11625,9.39928],[-56.66353,10.05363],[-57.35405,10.63946],[-57.46089,10.70592],[-57.58877,10.78725],[-57.63197,10.76755],[-58.41434,10.44434],[-58.66204,10.34012],[-58.90143,10.25111],[-58.96007,10.22055],[-58.95456,10.12002],[-59.57263,10.01211],[-59.62508,9.85711],[-59.71093,9.56314],[-59.74831,9.43511],[-59.78277,9.30764],[-59.85302,9.04078],[-59.87904,8.93651],[-59.88412,8.92815],[-59.9002,8.8699]]]},"properties":{"gml_id":"eez.105","mrgid":8460,"geoname":"Guyanese Exclusive Economic Zone","pol_type":"200NM","area_km2":135625}}
]}