{"type":"FeatureCollection", "features": [
{"type":"Feature","geometry":{"type":"Polygon","coordinates":[[[-58.93441,7.81691],[-58.94169,7.82654],[-58.95286,7.83886],[-58.95715,7.84734],[-58.97237,7.86711],[-58.98846,7.88224],[-58.99341,7.88968],[-59.01862,7.92022],[-59.03471,7.93432],[-59.05784,7.95971],[-59.06825,7.97383],[-59.08722,7.99499],[-59.12073,8.02716],[-59.15186,8.04913],[-59.15498,8.05325],[-59.17312,8.06217],[-59.18168,8.0683],[-59.18894,8.07136],[-59.21412,8.0908],[-59.23383,8.10203],[-59.25872,8.11348],[-59.2652,8.11886],[-59.2831,8.13009],[-59.29297,8.13802],[-59.31785,8.14999],[-59.35885,8.17577],[-59.38168,8.18928],[-59.40321,8.20075],[-59.40659,8.20382],[-59.43124,8.21887],[-59.44109,8.22396],[-59.45746,8.23648],[-59.46549,8.23902],[-59.4821,8.24946],[-59.48884,8.25148],[-59.52022,8.26957],[-59.54668,8.28074],[-59.5485,8.28253],[-59.57158,8.29371],[-59.57885,8.2983],[-59.60326,8.31044],[-59.62091,8.32165],[-59.63079,8.32931],[-59.65206,8.34186],[-59.66376,8.35131],[-59.67493,8.35871],[-59.69491,8.36861],[-59.70634,8.37677],[-59.73956,8.39405],[-59.76781,8.40312],[-59.80815,8.40232],[-59.81201,8.39998],[-59.81401,8.39069],[-59.80178,8.38074],[-59.7724,8.36367],[-59.76,8.35304],[-59.76398,8.34978],[-59.77263,8.35286],[-59.78089,8.35179],[-59.78144,8.34253],[-59.82208,8.36064],[-59.83099,8.35873],[-59.83938,8.35936],[-59.84688,8.36578],[-59.85419,8.36968],[-59.86306,8.38081],[-59.86826,8.38387],[-59.87765,8.3959],[-59.89,8.4213],[-59.89613,8.42949],[-59.90192,8.44207],[-59.90886,8.45386],[-59.92263,8.47034],[-59.93934,8.49165],[-59.95188,8.50091],[-59.97385,8.52163],[-59.97938,8.53094],[-59.98672,8.52838],[-59.98111,8.51833],[-59.94389,8.4725],[-59.88611,8.40083],[-59.87194,8.38278],[-59.82861,8.32917],[-59.815,8.31139],[-59.80472,8.29167],[-59.80139,8.275],[-59.81944,8.25861],[-59.82556,8.23611],[-59.83194,8.22889],[-59.84833,8.225],[-59.86167,8.22472],[-59.87194,8.22194],[-59.87917,8.22222],[-59.88889,8.21861],[-59.90028,8.21639],[-59.90792,8.2174],[-59.94603,8.21346],[-59.94597,8.19762],[-59.94841,8.195],[-59.96504,8.19156],[-59.97603,8.18797],[-59.97974,8.18118],[-59.98265,8.16842],[-59.99341,8.1582],[-59.99333,8.15157],[-59.98183,8.13883],[-59.98062,8.13271],[-59.99127,8.12387],[-59.99419,8.11963],[-59.99587,8.10936],[-59.99985,8.10025],[-59.99845,8.08972],[-59.99952,8.07533],[-60.00578,8.07209],[-60.0058,8.06009],[-60.00878,8.05606],[-60.0238,8.04506],[-60.0319,8.03333],[-60.04096,8.03613],[-60.04843,8.02717],[-60.06127,8.02343],[-60.06754,8.02505],[-60.07785,8.03244],[-60.08607,8.03161],[-60.08893,8.03584],[-60.10062,8.03528],[-60.10413,8.02946],[-60.12193,8.02887],[-60.12422,8.01648],[-60.12895,8.00972],[-60.1347,7.99647],[-60.14954,7.98473],[-60.16345,7.97913],[-60.16731,7.9724],[-60.1718,7.97382],[-60.18347,7.96432],[-60.19002,7.96138],[-60.1922,7.96579],[-60.19847,7.96486],[-60.19945,7.95906],[-60.21399,7.95942],[-60.21911,7.95774],[-60.23464,7.94421],[-60.22999,7.93791],[-60.2335,7.93273],[-60.24207,7.93167],[-60.24287,7.92254],[-60.24523,7.92116],[-60.24777,7.9107],[-60.25311,7.91511],[-60.25725,7.90608],[-60.26231,7.90354],[-60.2626,7.89872],[-60.26876,7.89704],[-60.27882,7.88507],[-60.28785,7.88303],[-60.28808,7.87844],[-60.29388,7.87899],[-60.30113,7.87139],[-60.30377,7.87254],[-60.31377,7.86791],[-60.31452,7.86119],[-60.32079,7.85463],[-60.33125,7.84966],[-60.33292,7.84167],[-60.34407,7.83705],[-60.34825,7.83128],[-60.35693,7.82883],[-60.36247,7.82523],[-60.36818,7.82791],[-60.37087,7.83305],[-60.37663,7.83313],[-60.3795,7.83981],[-60.38218,7.83318],[-60.38893,7.82886],[-60.39321,7.82971],[-60.40218,7.82627],[-60.40482,7.82079],[-60.40721,7.82547],[-60.42135,7.82507],[-60.42314,7.82901],[-60.42917,7.83075],[-60.4345,7.82712],[-60.43763,7.83613],[-60.44819,7.83957],[-60.45257,7.83543],[-60.46522,7.83598],[-60.48002,7.83333],[-60.48836,7.8298],[-60.49075,7.83181],[-60.49908,7.82981],[-60.50117,7.83502],[-60.50778,7.83213],[-60.51035,7.8272],[-60.51406,7.83007],[-60.52079,7.82231],[-60.53123,7.82158],[-60.53972,7.81607],[-60.54151,7.81102],[-60.53539,7.80491],[-60.5371,7.80298],[-60.53223,7.79509],[-60.54143,7.78774],[-60.54367,7.78317],[-60.54929,7.78251],[-60.55207,7.77807],[-60.55147,7.76991],[-60.55891,7.77019],[-60.56382,7.76093],[-60.56382,7.75303],[-60.56707,7.74436],[-60.57198,7.74014],[-60.575,7.74197],[-60.57914,7.73651],[-60.58143,7.73838],[-60.5843,7.73028],[-60.57617,7.72627],[-60.57538,7.71856],[-60.57068,7.71482],[-60.56814,7.7056],[-60.57942,7.69625],[-60.57745,7.68891],[-60.58188,7.68654],[-60.58211,7.6787],[-60.58967,7.67953],[-60.59338,7.6739],[-60.59278,7.66753],[-60.58772,7.66065],[-60.59158,7.65721],[-60.58931,7.65409],[-60.59222,7.6497],[-60.58985,7.64365],[-60.59032,7.63148],[-60.59717,7.6342],[-60.60124,7.63965],[-60.60506,7.63787],[-60.61236,7.64347],[-60.61784,7.64268],[-60.6252,7.6331],[-60.6261,7.62331],[-60.61953,7.61694],[-60.62292,7.61002],[-60.62728,7.60971],[-60.6297,7.60325],[-60.63959,7.60072],[-60.63845,7.59719],[-60.6423,7.5928],[-60.63887,7.57758],[-60.64624,7.57097],[-60.66035,7.56457],[-60.66557,7.57063],[-60.67242,7.56876],[-60.6756,7.56488],[-60.68252,7.5681],[-60.68574,7.5781],[-60.69234,7.57557],[-60.68858,7.56654],[-60.6901,7.56087],[-60.68767,7.5581],[-60.6938,7.55779],[-60.70469,7.56025],[-60.71165,7.55312],[-60.70957,7.54932],[-60.71441,7.54077],[-60.72036,7.53884],[-60.714,7.53441],[-60.71144,7.52971],[-60.71355,7.52566],[-60.70867,7.52303],[-60.70698,7.51732],[-60.7103,7.51386],[-60.70431,7.50677],[-60.70566,7.49556],[-60.69653,7.48256],[-60.69764,7.47906],[-60.69283,7.47453],[-60.6856,7.47585],[-60.68249,7.47036],[-60.68328,7.46274],[-60.67228,7.45374],[-60.66488,7.4599],[-60.65997,7.45838],[-60.65191,7.45215],[-60.64838,7.45291],[-60.63921,7.44724],[-60.64056,7.4443],[-60.63713,7.43392],[-60.6424,7.42796],[-60.64311,7.41839],[-60.62871,7.4089],[-60.62533,7.40262],[-60.61943,7.40156],[-60.61398,7.39518],[-60.60722,7.39356],[-60.61255,7.39032],[-60.61158,7.3833],[-60.60731,7.37568],[-60.61134,7.3691],[-60.60153,7.35657],[-60.59374,7.3518],[-60.59341,7.34738],[-60.59803,7.33887],[-60.59145,7.33173],[-60.59341,7.32335],[-60.58813,7.31428],[-60.59243,7.30791],[-60.60695,7.30731],[-60.60817,7.30233],[-60.61543,7.29869],[-60.61291,7.28808],[-60.61632,7.28354],[-60.61617,7.27791],[-60.62272,7.2764],[-60.63037,7.27113],[-60.63618,7.26173],[-60.63443,7.25352],[-60.63795,7.24599],[-60.63546,7.23945],[-60.62868,7.2315],[-60.62876,7.22492],[-60.62447,7.21096],[-60.61824,7.20456],[-60.61229,7.20284],[-60.6063,7.20587],[-60.59941,7.20137],[-60.59798,7.19304],[-60.59943,7.18437],[-60.58858,7.17572],[-60.57794,7.17453],[-60.57604,7.17021],[-60.56623,7.15808],[-60.55868,7.15435],[-60.55794,7.14774],[-60.54507,7.12439],[-60.53959,7.12374],[-60.53969,7.13049],[-60.5358,7.13481],[-60.5274,7.13802],[-60.52856,7.14872],[-60.52257,7.15513],[-60.52198,7.16478],[-60.51134,7.16562],[-60.50927,7.17202],[-60.50292,7.17247],[-60.50475,7.18159],[-60.50023,7.18962],[-60.49776,7.1851],[-60.49231,7.18644],[-60.4839,7.18413],[-60.48267,7.18719],[-60.4753,7.1894],[-60.47116,7.19448],[-60.46601,7.19458],[-60.4595,7.20477],[-60.4574,7.20283],[-60.4495,7.20481],[-60.43921,7.19781],[-60.43846,7.20066],[-60.43027,7.19959],[-60.42519,7.19409],[-60.42066,7.17645],[-60.41253,7.17709],[-60.40942,7.17331],[-60.40334,7.17716],[-60.39518,7.17703],[-60.38553,7.1813],[-60.36712,7.18479],[-60.36068,7.18163],[-60.35397,7.16926],[-60.34728,7.1684],[-60.3473,7.15739],[-60.34014,7.1536],[-60.33269,7.15791],[-60.32347,7.15179],[-60.31795,7.15173],[-60.30759,7.14215],[-60.30038,7.1396],[-60.29844,7.13516],[-60.29355,7.13353],[-60.29652,7.12748],[-60.29286,7.1202],[-60.29531,7.11735],[-60.29214,7.10661],[-60.29656,7.10172],[-60.29297,7.09759],[-60.29576,7.09529],[-60.28759,7.08727],[-60.28795,7.08033],[-60.29138,7.0773],[-60.28986,7.07036],[-60.29969,7.06564],[-60.30364,7.06029],[-60.3079,7.04583],[-60.30571,7.04014],[-60.31107,7.03309],[-60.31902,7.03113],[-60.31765,7.02363],[-60.32437,7.02118],[-60.32682,7.01698],[-60.33381,7.01656],[-60.33557,7.01315],[-60.34134,7.01388],[-60.3521,7.01116],[-60.35708,7.00343],[-60.36239,7.00264],[-60.36664,6.99629],[-60.36469,6.9914],[-60.36707,6.98753],[-60.36226,6.9775],[-60.3668,6.96675],[-60.36673,6.95494],[-60.36983,6.95017],[-60.36784,6.94248],[-60.37559,6.93945],[-60.37585,6.93242],[-60.38025,6.92994],[-60.38813,6.9378],[-60.40127,6.94795],[-60.4088,6.95066],[-60.41257,6.94398],[-60.42402,6.93994],[-60.43195,6.93909],[-60.44498,6.93438],[-60.44679,6.93138],[-60.45767,6.9265],[-60.46638,6.91442],[-60.47811,6.90774],[-60.4876,6.89206],[-60.50055,6.88179],[-60.51418,6.87836],[-60.52971,6.88024],[-60.53782,6.87442],[-60.54282,6.8626],[-60.55525,6.85583],[-60.56733,6.85395],[-60.57501,6.85583],[-60.59571,6.85275],[-60.6021,6.84958],[-60.60745,6.84384],[-60.6348,6.83921],[-60.66361,6.82996],[-60.68118,6.81103],[-60.6878,6.79866],[-60.69063,6.78852],[-60.69654,6.77761],[-60.70462,6.76911],[-60.70947,6.76131],[-60.7185,6.75551],[-60.72488,6.75445],[-60.73621,6.7575],[-60.75003,6.76289],[-60.77465,6.77521],[-60.78516,6.7779],[-60.79585,6.78371],[-60.80973,6.7942],[-60.8216,6.79444],[-60.83293,6.78424],[-60.84586,6.78043],[-60.85354,6.7823],[-60.87509,6.79321],[-60.89475,6.81097],[-60.90261,6.81472],[-60.91389,6.8166],[-60.92233,6.80699],[-60.92487,6.79901],[-60.92558,6.78945],[-60.91932,6.77515],[-60.91365,6.77099],[-60.90402,6.76811],[-60.90031,6.7599],[-60.90432,6.75029],[-60.91879,6.7446],[-60.92835,6.74419],[-60.93626,6.73938],[-60.94081,6.72583],[-60.94618,6.7195],[-60.95569,6.71563],[-60.96998,6.71475],[-60.98362,6.71639],[-60.98917,6.71903],[-60.99348,6.72554],[-61.00505,6.73117],[-61.01291,6.7283],[-61.02117,6.71903],[-61.02548,6.71698],[-61.03954,6.71674],[-61.05353,6.72284],[-61.0556,6.71997],[-61.07786,6.72912],[-61.08215,6.71911],[-61.08399,6.70575],[-61.09217,6.70376],[-61.10219,6.71678],[-61.11063,6.71504],[-61.11572,6.71894],[-61.1215,6.71786],[-61.12992,6.72193],[-61.13843,6.72151],[-61.15002,6.70898],[-61.15263,6.70119],[-61.14845,6.69439],[-61.15146,6.6885],[-61.16607,6.68966],[-61.16073,6.6827],[-61.16173,6.6788],[-61.16891,6.68054],[-61.17217,6.67449],[-61.17685,6.67648],[-61.18294,6.67092],[-61.18495,6.66429],[-61.18428,6.65641],[-61.18904,6.654],[-61.18912,6.64645],[-61.18202,6.63832],[-61.18328,6.63045],[-61.19087,6.62621],[-61.19513,6.62754],[-61.20056,6.62505],[-61.19998,6.61701],[-61.20156,6.60755],[-61.20682,6.59926],[-61.20649,6.59337],[-61.21041,6.58963],[-61.21325,6.59212],[-61.22227,6.59287],[-61.22352,6.58316],[-61.21968,6.57487],[-61.22895,6.57528],[-61.23196,6.57047],[-61.22728,6.56707],[-61.21943,6.56583],[-61.21968,6.55853],[-61.22519,6.55463],[-61.22127,6.55181],[-61.21517,6.55297],[-61.20975,6.54932],[-61.21292,6.54318],[-61.20983,6.53729],[-61.21401,6.53911],[-61.2211,6.53795],[-61.22219,6.52584],[-61.21409,6.52601],[-61.21117,6.52966],[-61.20307,6.52227],[-61.20657,6.53214],[-61.20357,6.53604],[-61.19647,6.53737],[-61.19797,6.52891],[-61.18895,6.52559],[-61.18227,6.53073],[-61.18194,6.52252],[-61.17242,6.51945],[-61.17543,6.51298],[-61.17476,6.50618],[-61.17075,6.50535],[-61.17467,6.49863],[-61.17401,6.49348],[-61.18252,6.48942],[-61.18603,6.48261],[-61.17584,6.48095],[-61.18144,6.47647],[-61.18256,6.47175],[-61.17822,6.47078],[-61.17651,6.46496],[-61.1668,6.45839],[-61.15989,6.45845],[-61.15704,6.4645],[-61.15235,6.46444],[-61.15235,6.45736],[-61.15749,6.45308],[-61.1543,6.44885],[-61.14944,6.44965],[-61.14893,6.44514],[-61.15475,6.44628],[-61.15567,6.43657],[-61.15167,6.43012],[-61.14316,6.42915],[-61.15001,6.42418],[-61.14664,6.41904],[-61.14807,6.41305],[-61.15144,6.41139],[-61.1543,6.41556],[-61.15812,6.40602],[-61.15669,6.39923],[-61.15749,6.39038],[-61.16749,6.3942],[-61.1656,6.38643],[-61.15732,6.38592],[-61.16201,6.38261],[-61.16172,6.37673],[-61.16766,6.3789],[-61.15887,6.36742],[-61.16457,6.35839],[-61.16389,6.35451],[-61.16903,6.35177],[-61.16874,6.34772],[-61.1736,6.34275],[-61.17343,6.33538],[-61.17822,6.34058],[-61.17623,6.33304],[-61.18416,6.33013],[-61.17565,6.3271],[-61.16754,6.31459],[-61.16492,6.2998],[-61.16046,6.29689],[-61.15572,6.28832],[-61.1479,6.29209],[-61.14025,6.28752],[-61.14293,6.28296],[-61.1411,6.2757],[-61.13625,6.27148],[-61.1202,6.27593],[-61.11552,6.27302],[-61.11889,6.26502],[-61.1262,6.262],[-61.1294,6.25469],[-61.13248,6.25492],[-61.13534,6.23898],[-61.13322,6.23082],[-61.13825,6.22602],[-61.14202,6.21494],[-61.131,6.20501],[-61.12928,6.19604],[-61.12443,6.19587],[-61.12734,6.1881],[-61.13368,6.18833],[-61.13288,6.18073],[-61.13876,6.17657],[-61.14093,6.17874],[-61.16263,6.18188],[-61.1696,6.18479],[-61.17177,6.18102],[-61.1764,6.18713],[-61.17925,6.18707],[-61.18348,6.17885],[-61.18725,6.17851],[-61.18896,6.16652],[-61.18308,6.15955],[-61.18399,6.14893],[-61.19073,6.14013],[-61.18942,6.13242],[-61.20021,6.13134],[-61.20335,6.13425],[-61.20267,6.12723],[-61.20832,6.11797],[-61.20929,6.11198],[-61.21449,6.11506],[-61.21432,6.11146],[-61.2198,6.11683],[-61.22294,6.12534],[-61.23162,6.12631],[-61.23682,6.121],[-61.24315,6.10941],[-61.25138,6.10781],[-61.25932,6.11272],[-61.27005,6.10935],[-61.27428,6.1049],[-61.27371,6.09622],[-61.27702,6.09165],[-61.27925,6.09462],[-61.27947,6.08331],[-61.2865,6.07994],[-61.2849,6.07714],[-61.29455,6.07263],[-61.29152,6.06863],[-61.29786,6.06703],[-61.29878,6.06304],[-61.30403,6.06041],[-61.30186,6.05447],[-61.31191,6.05213],[-61.31225,6.04391],[-61.31545,6.04242],[-61.31951,6.02672],[-61.32636,6.0254],[-61.32773,6.02061],[-61.33458,6.01221],[-61.33567,6.00496],[-61.33104,5.99896],[-61.35114,5.98492],[-61.35326,5.97429],[-61.35794,5.96887],[-61.3669,5.96732],[-61.36966,5.96158],[-61.37918,5.96256],[-61.38433,5.9597],[-61.38886,5.9635],[-61.39675,5.96557],[-61.40499,5.97229],[-61.4149,5.97079],[-61.39222,5.94417],[-61.35667,5.90333],[-61.34028,5.88556],[-61.29222,5.83167],[-61.26083,5.79583],[-61.21222,5.74222],[-61.1325,5.6525],[-61.11611,5.63472],[-61.08472,5.59889],[-61.06806,5.58083],[-61.00472,5.50944],[-60.95667,5.45556],[-60.89222,5.38389],[-60.87667,5.36583],[-60.86028,5.34806],[-60.82889,5.31222],[-60.79667,5.27639],[-60.78111,5.25833],[-60.76444,5.24056],[-60.74889,5.2225],[-60.73755,5.2019],[-60.73197,5.21203],[-60.72781,5.21303],[-60.723,5.22],[-60.71027,5.21907],[-60.70066,5.22183],[-60.69285,5.22745],[-60.682,5.232],[-60.659,5.227],[-60.652,5.231],[-60.638,5.22],[-60.624,5.215],[-60.614,5.219],[-60.603,5.215],[-60.597,5.221],[-60.592,5.218],[-60.59,5.208],[-60.569,5.196],[-60.545,5.194],[-60.539,5.203],[-60.527,5.208],[-60.5,5.203],[-60.474,5.201],[-60.469,5.203],[-60.463,5.199],[-60.451,5.203],[-60.446,5.184],[-60.434,5.182],[-60.418,5.194],[-60.417,5.206],[-60.413,5.214],[-60.405,5.211],[-60.384,5.222],[-60.371,5.215],[-60.371,5.208],[-60.367,5.205],[-60.356,5.21],[-60.345,5.205],[-60.336,5.208],[-60.328,5.206],[-60.313,5.211],[-60.30562,5.21857],[-60.30076,5.22847],[-60.28483,5.22896],[-60.27868,5.23434],[-60.27108,5.23631],[-60.269,5.244],[-60.264,5.251],[-60.25018,5.25786],[-60.235,5.263],[-60.23102,5.27146],[-60.21854,5.28429],[-60.21501,5.28094],[-60.20825,5.28346],[-60.19964,5.27249],[-60.18686,5.26721],[-60.18041,5.26946],[-60.18475,5.26208],[-60.19317,5.23915],[-60.172,5.227],[-60.158,5.232],[-60.135,5.249],[-60.132,5.225],[-60.106,5.194],[-60.10137,5.1726],[-60.096,5.143],[-60.094,5.14],[-60.0772,5.13809],[-60.06341,5.13772],[-60.05741,5.12465],[-60.05029,5.12261],[-60.04804,5.11462],[-60.04258,5.11096],[-60.04507,5.10694],[-60.04093,5.10648],[-60.03593,5.11228],[-60.03485,5.10803],[-60.01839,5.08888],[-60.01237,5.09061],[-60.0084,5.08579],[-59.99821,5.0829],[-59.99304,5.08728],[-59.98964,5.08403],[-59.98229,5.0825],[-59.97205,5.07643],[-59.96984,5.06335],[-59.97127,5.05907],[-59.97756,5.05314],[-59.97388,5.0478],[-59.97665,5.04662],[-59.97698,5.03396],[-59.97384,5.03101],[-59.97952,5.01527],[-59.98532,5.0183],[-59.98553,5.00648],[-59.98831,5.00605],[-59.98677,4.98966],[-59.99072,4.9841],[-59.98701,4.97952],[-59.98766,4.97383],[-59.9941,4.96504],[-59.98948,4.95401],[-59.98959,4.94967],[-59.99405,4.94942],[-59.99358,4.9338],[-59.99722,4.93108],[-59.99875,4.91805],[-60.00151,4.91703],[-60.00239,4.90869],[-60.00707,4.88716],[-60.00478,4.88515],[-60.00651,4.87681],[-60.01031,4.87125],[-60.00896,4.86177],[-60.01347,4.84322],[-60.0179,4.83623],[-60.02519,4.83183],[-60.0282,4.8178],[-60.02197,4.81289],[-60.03364,4.80376],[-60.03592,4.79043],[-60.02218,4.78349],[-60.02657,4.76588],[-60.02436,4.75938],[-60.02552,4.74283],[-60.02919,4.73648],[-60.03437,4.7342],[-60.03926,4.72442],[-60.03651,4.71947],[-60.02662,4.71406],[-60.02594,4.70555],[-60.03307,4.69842],[-60.04277,4.69408],[-60.04492,4.68992],[-60.0526,4.68374],[-60.05397,4.67879],[-60.05873,4.67799],[-60.06152,4.6719],[-60.07542,4.65548],[-60.07631,4.64908],[-60.07253,4.65086],[-60.06942,4.64307],[-60.07039,4.63763],[-60.07573,4.63374],[-60.06979,4.61812],[-60.07689,4.61624],[-60.08902,4.60598],[-60.09514,4.60659],[-60.10009,4.6035],[-60.10764,4.60799],[-60.11258,4.60252],[-60.12342,4.60501],[-60.13115,4.59576],[-60.12826,4.58546],[-60.12295,4.58062],[-60.12818,4.57501],[-60.13553,4.58068],[-60.13887,4.56977],[-60.13533,4.5662],[-60.14551,4.5661],[-60.15079,4.57617],[-60.15725,4.57248],[-60.15629,4.56952],[-60.16082,4.55971],[-60.16074,4.5556],[-60.15576,4.55248],[-60.15405,4.54516],[-60.15681,4.54128],[-60.15849,4.52458],[-60.16114,4.51773],[-60.15623,4.51286],[-60.14955,4.51147],[-60.13666,4.51434],[-60.12762,4.50758],[-60.12383,4.5075],[-60.12229,4.50271],[-60.11779,4.50203],[-60.10817,4.50458],[-60.10188,4.50818],[-60.09818,4.51324],[-60.09894,4.51858],[-60.10496,4.52362],[-60.10243,4.52892],[-60.09459,4.52773],[-60.09108,4.53335],[-60.08431,4.53194],[-60.08291,4.5286],[-60.0869,4.51793],[-60.08136,4.51853],[-60.07819,4.52434],[-60.06592,4.52331],[-60.06392,4.51798],[-60.06695,4.51699],[-60.06791,4.50663],[-60.07152,4.50008],[-60.07119,4.49348],[-60.06174,4.49474],[-60.04508,4.49472],[-60.04321,4.49216],[-60.03224,4.49071],[-60.02554,4.49442],[-60.01717,4.48969],[-60.00917,4.49588],[-60.00171,4.49479],[-59.99511,4.48843],[-59.98963,4.48594],[-59.98012,4.48703],[-59.97292,4.4801],[-59.97184,4.48331],[-59.97599,4.49124],[-59.97234,4.49622],[-59.97094,4.50955],[-59.95364,4.50355],[-59.95192,4.49996],[-59.94127,4.49809],[-59.93732,4.50049],[-59.93355,4.49343],[-59.92684,4.49189],[-59.92538,4.48789],[-59.93031,4.48078],[-59.91102,4.47641],[-59.91613,4.46875],[-59.90941,4.46043],[-59.90487,4.46059],[-59.90144,4.47469],[-59.89823,4.47859],[-59.8892,4.47789],[-59.87559,4.47309],[-59.87417,4.47466],[-59.87813,4.48425],[-59.87181,4.48541],[-59.87438,4.48152],[-59.87183,4.47711],[-59.86301,4.4719],[-59.87038,4.46656],[-59.87149,4.4625],[-59.86154,4.4524],[-59.85367,4.45618],[-59.84822,4.45326],[-59.83101,4.45758],[-59.83106,4.45133],[-59.81881,4.44759],[-59.81224,4.44709],[-59.80651,4.45414],[-59.80495,4.466],[-59.79503,4.46554],[-59.79378,4.46346],[-59.79648,4.45003],[-59.78738,4.44607],[-59.78342,4.45034],[-59.77952,4.44681],[-59.78076,4.43989],[-59.7749,4.44127],[-59.7658,4.4369],[-59.76015,4.43215],[-59.75434,4.42239],[-59.75034,4.42057],[-59.73512,4.42327],[-59.72697,4.41013],[-59.72049,4.41036],[-59.71874,4.40316],[-59.72192,4.39868],[-59.71401,4.39605],[-59.70971,4.39056],[-59.70269,4.38714],[-59.69466,4.37999],[-59.68389,4.38515],[-59.67284,4.3774],[-59.66942,4.37269],[-59.67966,4.3684],[-59.68325,4.36103],[-59.6783,4.35664],[-59.67551,4.34639],[-59.67871,4.34133],[-59.68998,4.33496],[-59.70601,4.31471],[-59.70229,4.30957],[-59.70721,4.30423],[-59.71119,4.30701],[-59.71717,4.30333],[-59.71969,4.29675],[-59.73189,4.28587],[-59.72878,4.27742],[-59.73355,4.27426],[-59.72865,4.26798],[-59.71989,4.27452],[-59.7123,4.27176],[-59.71104,4.26527],[-59.71679,4.26271],[-59.73493,4.24115],[-59.73949,4.2339],[-59.73535,4.22892],[-59.73738,4.20985],[-59.72657,4.19037],[-59.73069,4.18076],[-59.72504,4.17784],[-59.71901,4.17019],[-59.70613,4.16071],[-59.70176,4.16038],[-59.6941,4.15273],[-59.68477,4.14722],[-59.67169,4.14632],[-59.66544,4.14391],[-59.65949,4.14625],[-59.64421,4.14482],[-59.63417,4.14132],[-59.61818,4.13166],[-59.62435,4.12613],[-59.62578,4.11725],[-59.6318,4.11087],[-59.63842,4.09434],[-59.644,4.08783],[-59.65406,4.06943],[-59.6425,4.0674],[-59.6394,4.06092],[-59.62852,4.05207],[-59.62085,4.05361],[-59.61705,4.0504],[-59.61942,4.03812],[-59.60813,4.032],[-59.60193,4.03021],[-59.60269,4.02442],[-59.60055,4.01719],[-59.60671,4.01447],[-59.61128,4.01889],[-59.61285,4.01545],[-59.60656,4.0068],[-59.60293,4.00831],[-59.59558,4.01793],[-59.59268,4.01607],[-59.59172,4.00601],[-59.59617,4.00293],[-59.58999,3.99532],[-59.58616,3.99343],[-59.58452,4.00211],[-59.58084,4.00226],[-59.57798,3.99551],[-59.57144,3.9869],[-59.58195,3.98039],[-59.5864,3.97549],[-59.58417,3.96851],[-59.56949,3.96886],[-59.55925,3.97351],[-59.55535,3.97937],[-59.54468,3.97913],[-59.54395,3.97275],[-59.53486,3.97172],[-59.52665,3.96887],[-59.52434,3.9622],[-59.51917,3.95527],[-59.5217,3.95022],[-59.5153,3.94492],[-59.52591,3.93884],[-59.52285,3.93223],[-59.52749,3.92365],[-59.53475,3.9275],[-59.5383,3.93189],[-59.54241,3.92894],[-59.53891,3.92452],[-59.5497,3.91841],[-59.56112,3.9205],[-59.56474,3.91733],[-59.5688,3.88972],[-59.57402,3.89401],[-59.57656,3.90156],[-59.57823,3.89941],[-59.57481,3.89197],[-59.5842,3.88816],[-59.58881,3.8889],[-59.59279,3.88538],[-59.59338,3.87717],[-59.58985,3.86847],[-59.59324,3.86078],[-59.58585,3.85783],[-59.58901,3.85157],[-59.58503,3.84065],[-59.58575,3.83446],[-59.57749,3.83208],[-59.57745,3.8172],[-59.58006,3.81491],[-59.58337,3.82273],[-59.58883,3.81652],[-59.59727,3.81497],[-59.59881,3.81181],[-59.59426,3.80866],[-59.59525,3.79557],[-59.59815,3.79373],[-59.60409,3.79644],[-59.60725,3.80363],[-59.61151,3.8035],[-59.61811,3.79096],[-59.62422,3.79067],[-59.62903,3.78407],[-59.63237,3.78668],[-59.63122,3.79278],[-59.62612,3.79644],[-59.62966,3.79859],[-59.63538,3.79294],[-59.63985,3.78433],[-59.64751,3.78699],[-59.65546,3.78611],[-59.65885,3.78237],[-59.66555,3.78126],[-59.6655,3.77615],[-59.67052,3.76792],[-59.66847,3.76719],[-59.67978,3.75649],[-59.67278,3.75391],[-59.67527,3.7461],[-59.66874,3.74214],[-59.66374,3.7345],[-59.67146,3.72827],[-59.6688,3.72184],[-59.66431,3.71899],[-59.66271,3.71406],[-59.66841,3.70278],[-59.68014,3.69618],[-59.68582,3.69934],[-59.6917,3.68892],[-59.70517,3.68854],[-59.71055,3.67919],[-59.71908,3.67402],[-59.71947,3.668],[-59.72376,3.6637],[-59.74235,3.66001],[-59.74707,3.65409],[-59.75147,3.65294],[-59.75644,3.64558],[-59.75898,3.63369],[-59.76739,3.63297],[-59.7637,3.62683],[-59.77604,3.62512],[-59.78787,3.61653],[-59.79677,3.61936],[-59.80427,3.61681],[-59.81719,3.619],[-59.81574,3.61002],[-59.82312,3.61349],[-59.83547,3.60661],[-59.85064,3.60449],[-59.85068,3.59704],[-59.856,3.58996],[-59.85893,3.58037],[-59.86728,3.57776],[-59.85872,3.57331],[-59.85906,3.57086],[-59.87019,3.56361],[-59.86989,3.55885],[-59.84599,3.5542],[-59.84223,3.55225],[-59.84531,3.54722],[-59.83892,3.52921],[-59.83313,3.52186],[-59.82651,3.52404],[-59.81734,3.52088],[-59.80591,3.51083],[-59.80193,3.4953],[-59.80306,3.49057],[-59.8114,3.48584],[-59.8226,3.48434],[-59.82719,3.47796],[-59.82298,3.47623],[-59.81779,3.47961],[-59.81178,3.47668],[-59.81118,3.46828],[-59.819,3.47248],[-59.82336,3.47218],[-59.82456,3.46648],[-59.83133,3.45155],[-59.83944,3.44291],[-59.84163,3.42875],[-59.84042,3.42475],[-59.82937,3.4225],[-59.82163,3.42888],[-59.81313,3.42836],[-59.81448,3.41995],[-59.82133,3.41695],[-59.81877,3.40306],[-59.81358,3.39158],[-59.81147,3.37964],[-59.80419,3.36931],[-59.80564,3.35409],[-59.81101,3.35171],[-59.82611,3.35669],[-59.83277,3.35439],[-59.83431,3.35041],[-59.82749,3.33366],[-59.83674,3.32102],[-59.84252,3.31876],[-59.84158,3.30862],[-59.84947,3.30659],[-59.85322,3.30152],[-59.85119,3.29591],[-59.85643,3.28592],[-59.85822,3.27898],[-59.86799,3.27953],[-59.87291,3.27485],[-59.87338,3.26978],[-59.88127,3.25901],[-59.87885,3.24513],[-59.88697,3.2431],[-59.88697,3.23764],[-59.87447,3.22906],[-59.87455,3.22446],[-59.88616,3.2161],[-59.89309,3.21483],[-59.90328,3.21602],[-59.90838,3.21157],[-59.90926,3.20195],[-59.9126,3.19503],[-59.90918,3.17603],[-59.90126,3.16039],[-59.89996,3.15342],[-59.90232,3.14985],[-59.91271,3.14839],[-59.92091,3.14904],[-59.91839,3.14385],[-59.90851,3.14577],[-59.90719,3.14215],[-59.91076,3.13867],[-59.91563,3.13988],[-59.91946,3.13269],[-59.91823,3.12643],[-59.91271,3.12764],[-59.90861,3.12456],[-59.90821,3.11288],[-59.91616,3.11164],[-59.91831,3.12164],[-59.92164,3.12148],[-59.92302,3.11102],[-59.92763,3.11105],[-59.93905,3.10012],[-59.93746,3.09097],[-59.94104,3.08646],[-59.95533,3.08225],[-59.95557,3.0713],[-59.95135,3.05777],[-59.952,3.03961],[-59.95947,3.02719],[-59.96245,3.01636],[-59.95434,3.00769],[-59.94763,3.00289],[-59.94697,2.99835],[-59.95425,2.99141],[-59.95864,2.97637],[-59.96501,2.96256],[-59.95905,2.95513],[-59.96137,2.95066],[-59.96741,2.94876],[-59.98421,2.92959],[-59.98281,2.9186],[-59.98636,2.90818],[-59.97842,2.90298],[-59.97817,2.89628],[-59.99009,2.88198],[-59.98529,2.87744],[-59.98264,2.86777],[-59.98678,2.86397],[-59.98556,2.84972],[-59.99079,2.84349],[-59.9918,2.83464],[-59.98699,2.80279],[-59.99146,2.79572],[-59.99332,2.78266],[-59.99146,2.77718],[-59.99214,2.76479],[-59.98733,2.75114],[-59.98734,2.74436],[-59.99286,2.73509],[-59.99239,2.72502],[-59.98951,2.71825],[-59.99155,2.70766],[-59.9888,2.69407],[-59.9917,2.68872],[-59.99082,2.68321],[-59.98424,2.67541],[-59.97863,2.67384],[-59.97346,2.66631],[-59.97443,2.66149],[-59.97145,2.65676],[-59.9782,2.64196],[-59.96899,2.62848],[-59.96478,2.62638],[-59.96338,2.61447],[-59.9583,2.61123],[-59.95891,2.60781],[-59.96715,2.6086],[-59.97232,2.59871],[-59.97057,2.59179],[-59.96391,2.59231],[-59.9526,2.58653],[-59.94191,2.58382],[-59.93481,2.57244],[-59.92911,2.56911],[-59.92981,2.56569],[-59.93822,2.55553],[-59.9384,2.55186],[-59.93279,2.54792],[-59.93331,2.54415],[-59.92595,2.53802],[-59.92236,2.52988],[-59.91841,2.52593],[-59.92148,2.52121],[-59.91885,2.51245],[-59.92034,2.50737],[-59.91482,2.50465],[-59.91263,2.49493],[-59.90684,2.49196],[-59.90211,2.48381],[-59.89707,2.48061],[-59.90082,2.47177],[-59.89358,2.46427],[-59.89474,2.45275],[-59.90082,2.43731],[-59.89197,2.4274],[-59.89224,2.42436],[-59.89841,2.42329],[-59.89617,2.41249],[-59.90081,2.39995],[-59.90691,2.39986],[-59.90901,2.39067],[-59.90682,2.38721],[-59.905,2.37565],[-59.89781,2.36637],[-59.89817,2.36145],[-59.89397,2.36163],[-59.88961,2.35606],[-59.88196,2.35272],[-59.87498,2.36051],[-59.87029,2.35856],[-59.86966,2.35062],[-59.85465,2.33771],[-59.85189,2.33035],[-59.84392,2.3295],[-59.84338,2.3203],[-59.83556,2.3229],[-59.83193,2.32921],[-59.82871,2.32889],[-59.82773,2.32231],[-59.82416,2.31813],[-59.81846,2.31763],[-59.81652,2.31323],[-59.80472,2.30547],[-59.80474,2.29912],[-59.79957,2.29793],[-59.79733,2.29328],[-59.78806,2.28795],[-59.78748,2.28386],[-59.78027,2.28568],[-59.76969,2.29542],[-59.76033,2.28964],[-59.75318,2.2902],[-59.75057,2.28773],[-59.74625,2.29227],[-59.74103,2.29295],[-59.73749,2.28637],[-59.72697,2.28185],[-59.72313,2.27615],[-59.72864,2.26691],[-59.72529,2.25434],[-59.72144,2.24908],[-59.72268,2.24478],[-59.71976,2.23849],[-59.73012,2.23134],[-59.731,2.22583],[-59.72923,2.21197],[-59.72625,2.20668],[-59.72894,2.19851],[-59.73696,2.18692],[-59.73575,2.18361],[-59.74045,2.18038],[-59.73727,2.17431],[-59.73968,2.17209],[-59.74179,2.16194],[-59.73793,2.15709],[-59.73956,2.14666],[-59.73314,2.14308],[-59.72539,2.13082],[-59.72813,2.12224],[-59.72402,2.12243],[-59.72181,2.11663],[-59.72332,2.11093],[-59.72168,2.10504],[-59.72313,2.09832],[-59.7344,2.09088],[-59.73685,2.08179],[-59.74092,2.07886],[-59.74231,2.07353],[-59.74094,2.0628],[-59.73789,2.05914],[-59.7372,2.05025],[-59.73246,2.04594],[-59.73041,2.04022],[-59.73235,2.03583],[-59.72817,2.02945],[-59.72142,2.02899],[-59.72219,2.02328],[-59.73255,2.01726],[-59.73151,2.00633],[-59.73484,2.00196],[-59.73297,1.99363],[-59.73547,1.99123],[-59.73359,1.98342],[-59.73693,1.98311],[-59.74088,1.97495],[-59.73695,1.96603],[-59.74183,1.95733],[-59.73875,1.95542],[-59.74024,1.94873],[-59.746,1.941],[-59.745,1.929],[-59.756,1.922],[-59.754,1.912],[-59.759,1.901],[-59.746,1.879],[-59.753,1.867],[-59.751,1.859],[-59.746,1.852],[-59.733,1.852],[-59.72,1.85],[-59.71,1.855],[-59.691,1.854],[-59.68,1.846],[-59.677,1.839],[-59.665,1.849],[-59.669,1.861],[-59.663,1.871],[-59.662,1.863],[-59.649,1.844],[-59.658,1.825],[-59.654,1.817],[-59.66,1.811],[-59.664,1.814],[-59.673,1.808],[-59.678,1.807],[-59.681,1.797],[-59.678,1.791],[-59.685,1.79],[-59.688,1.779],[-59.685,1.774],[-59.69,1.757],[-59.666,1.755],[-59.662,1.737],[-59.653,1.743],[-59.632,1.741],[-59.629,1.728],[-59.617,1.716],[-59.607,1.723],[-59.587,1.727],[-59.584,1.732],[-59.566,1.736],[-59.556,1.724],[-59.55,1.729],[-59.545,1.722],[-59.539,1.723],[-59.533,1.717],[-59.534,1.709],[-59.526,1.703],[-59.526,1.692],[-59.513,1.681],[-59.511,1.669],[-59.507,1.668],[-59.507,1.675],[-59.5,1.677],[-59.493,1.674],[-59.494,1.646],[-59.489,1.642],[-59.483,1.627],[-59.465,1.618],[-59.447,1.62],[-59.437,1.594],[-59.427,1.587],[-59.431,1.567],[-59.422,1.556],[-59.412,1.552],[-59.399,1.557],[-59.396,1.556],[-59.394,1.537],[-59.384,1.529],[-59.384,1.523],[-59.378,1.521],[-59.381,1.507],[-59.373,1.507],[-59.364,1.51],[-59.362,1.504],[-59.358,1.511],[-59.358,1.518],[-59.339,1.519],[-59.329,1.514],[-59.332,1.506],[-59.321,1.482],[-59.327,1.474],[-59.327,1.464],[-59.314,1.461],[-59.31,1.466],[-59.302,1.466],[-59.284,1.45],[-59.288,1.445],[-59.288,1.439],[-59.284,1.437],[-59.274,1.418],[-59.282,1.411],[-59.272,1.407],[-59.269,1.401],[-59.259,1.397],[-59.253,1.389],[-59.233,1.387],[-59.226,1.378],[-59.207,1.372],[-59.204,1.377],[-59.196,1.379],[-59.187,1.375],[-59.171,1.357],[-59.161,1.359],[-59.152,1.349],[-59.146,1.347],[-59.131,1.353],[-59.118,1.343],[-59.102,1.349],[-59.096,1.345],[-59.089,1.347],[-59.087,1.339],[-59.076,1.331],[-59.07,1.33],[-59.066,1.336],[-59.057,1.335],[-59.052,1.325],[-59.048,1.323],[-59.023,1.331],[-59.013,1.324],[-59,1.324],[-58.993,1.327],[-58.989,1.325],[-58.982,1.308],[-58.978,1.302],[-58.972,1.31],[-58.966,1.313],[-58.918,1.317],[-58.915,1.314],[-58.915,1.306],[-58.923,1.294],[-58.918,1.285],[-58.898,1.28],[-58.886,1.261],[-58.904,1.251],[-58.904,1.242],[-58.912,1.239],[-58.89528,1.22722],[-58.88206,1.22874],[-58.87455,1.22323],[-58.86678,1.20317],[-58.85928,1.20407],[-58.85429,1.18346],[-58.84594,1.18184],[-58.83178,1.18791],[-58.82401,1.18321],[-58.82512,1.17127],[-58.82123,1.171],[-58.80595,1.18123],[-58.80344,1.17599],[-58.80011,1.17653],[-58.7915,1.19046],[-58.77928,1.19065],[-58.77623,1.18541],[-58.76984,1.1865],[-58.76401,1.19708],[-58.75122,1.20848],[-58.73956,1.1999],[-58.71511,1.23763],[-58.72095,1.24513],[-58.72067,1.25544],[-58.70984,1.28348],[-58.71039,1.2899],[-58.69456,1.29732],[-58.68011,1.29625],[-58.67595,1.28513],[-58.66401,1.27935],[-58.65261,1.28822],[-58.63928,1.28542],[-58.62873,1.2885],[-58.61484,1.2829],[-58.60817,1.27378],[-58.58845,1.2699],[-58.58539,1.26212],[-58.57761,1.27461],[-58.57761,1.2832],[-58.56984,1.28601],[-58.56456,1.2946],[-58.55956,1.29018],[-58.54678,1.29181],[-58.54011,1.28792],[-58.53817,1.26767],[-58.53595,1.26568],[-58.52983,1.27066],[-58.52706,1.26957],[-58.52289,1.25791],[-58.519,1.25818],[-58.52011,1.26569],[-58.51289,1.27763],[-58.50428,1.2732],[-58.50401,1.26904],[-58.49622,1.26796],[-58.49506,1.29492],[-58.4834,1.30035],[-58.47611,1.30849],[-58.47095,1.31935],[-58.47428,1.34838],[-58.45787,1.37145],[-58.46484,1.37534],[-58.47006,1.37081],[-58.48503,1.38473],[-58.47901,1.38718],[-58.47964,1.39016],[-58.50511,1.40317],[-58.50595,1.40959],[-58.50154,1.41493],[-58.50317,1.42488],[-58.49806,1.43012],[-58.50233,1.44287],[-58.50789,1.44486],[-58.50873,1.46295],[-58.49342,1.4682],[-58.48833,1.46205],[-58.47277,1.46107],[-58.46192,1.46605],[-58.44844,1.45602],[-58.44426,1.45648],[-58.43939,1.46444],[-58.41277,1.47268],[-58.40398,1.4697],[-58.38559,1.46999],[-58.37175,1.48157],[-58.37667,1.48799],[-58.38517,1.48862],[-58.39031,1.49631],[-58.39153,1.50634],[-58.38358,1.51087],[-58.39373,1.51991],[-58.39472,1.52651],[-58.38954,1.53538],[-58.36309,1.53802],[-58.35942,1.54634],[-58.36039,1.56018],[-58.34345,1.56652],[-58.34453,1.57574],[-58.33739,1.58118],[-58.33237,1.59068],[-58.32237,1.59701],[-58.31433,1.59394],[-58.31714,1.56844],[-58.29281,1.56429],[-58.28816,1.57243],[-58.27173,1.56738],[-58.26226,1.57073],[-58.25723,1.56911],[-58.25447,1.56187],[-58.24134,1.5541],[-58.236,1.54669],[-58.21286,1.56479],[-58.19734,1.56715],[-58.19303,1.57222],[-58.18381,1.56526],[-58.16064,1.56011],[-58.15659,1.54366],[-58.15362,1.54302],[-58.1552,1.53],[-58.14606,1.51535],[-58.14956,1.51001],[-58.12943,1.49889],[-58.11131,1.50117],[-58.09759,1.51393],[-58.0855,1.51484],[-58.08495,1.50796],[-58.06945,1.50734],[-58.06523,1.52227],[-58.06093,1.52534],[-58.04056,1.52092],[-58.02717,1.50862],[-58.02387,1.5108],[-58.00423,1.50303],[-58.0055,1.51677],[-58.00045,1.52076],[-58.00123,1.52817],[-57.99492,1.53876],[-57.99028,1.54057],[-57.98937,1.54763],[-57.99431,1.55314],[-57.98881,1.56246],[-57.98986,1.56735],[-57.98254,1.56581],[-57.97856,1.57278],[-57.98387,1.58626],[-57.98136,1.5963],[-57.98528,1.61674],[-57.98203,1.61783],[-57.98031,1.63321],[-58.00261,1.64568],[-58.00236,1.64948],[-57.9902,1.65147],[-57.99009,1.65844],[-57.98103,1.65935],[-57.97884,1.65591],[-57.97042,1.65438],[-57.96186,1.6571],[-57.95942,1.65113],[-57.9502,1.6476],[-57.92676,1.64481],[-57.91351,1.64762],[-57.90472,1.65568],[-57.90209,1.66771],[-57.89498,1.67431],[-57.88923,1.67423],[-57.88465,1.6697],[-57.87715,1.67179],[-57.87712,1.68029],[-57.85206,1.66782],[-57.85306,1.67786],[-57.84698,1.68103],[-57.84417,1.6889],[-57.84006,1.68356],[-57.83639,1.68655],[-57.8195,1.68384],[-57.80909,1.68837],[-57.79979,1.68521],[-57.79637,1.691],[-57.80365,1.70185],[-57.79689,1.70321],[-57.79226,1.72664],[-57.78037,1.71923],[-57.77431,1.72973],[-57.76673,1.72258],[-57.76023,1.72268],[-57.75823,1.7187],[-57.74497,1.72286],[-57.73115,1.71889],[-57.71964,1.72287],[-57.71645,1.7207],[-57.7184,1.71546],[-57.71014,1.71763],[-57.70817,1.72071],[-57.7119,1.72858],[-57.70509,1.73093],[-57.69712,1.7208],[-57.69804,1.71374],[-57.68701,1.70642],[-57.67506,1.70597],[-57.67239,1.71086],[-57.6695,1.69991],[-57.66053,1.68915],[-57.65552,1.69042],[-57.65042,1.68237],[-57.63292,1.69142],[-57.62934,1.69848],[-57.62195,1.69975],[-57.6194,1.69577],[-57.60476,1.69297],[-57.59783,1.70048],[-57.58393,1.70202],[-57.58173,1.70609],[-57.57604,1.70266],[-57.57709,1.69035],[-57.57264,1.68873],[-57.5645,1.69587],[-57.55323,1.69244],[-57.55034,1.70067],[-57.5376,1.7005],[-57.53418,1.70819],[-57.54129,1.7204],[-57.53184,1.72149],[-57.52609,1.728],[-57.51887,1.72113],[-57.51423,1.72303],[-57.5167,1.73171],[-57.51451,1.74727],[-57.50851,1.75741],[-57.50179,1.75795],[-57.49729,1.76682],[-57.50187,1.78609],[-57.4937,1.79251],[-57.48703,1.79252],[-57.48514,1.79993],[-57.47765,1.79469],[-57.4509,1.80636],[-57.44476,1.82229],[-57.43776,1.82681],[-57.44499,1.84111],[-57.43192,1.85848],[-57.43237,1.86934],[-57.42923,1.87386],[-57.43612,1.88055],[-57.43248,1.89087],[-57.43343,1.90598],[-57.4277,1.90941],[-57.40287,1.91268],[-57.39842,1.92182],[-57.38503,1.92743],[-57.37573,1.92228],[-57.36768,1.92372],[-57.35704,1.94716],[-57.36815,1.95213],[-57.36912,1.95638],[-57.35423,1.96109],[-57.35623,1.97041],[-57.34562,1.98027],[-57.33818,1.9753],[-57.32926,1.97964],[-57.3132,1.9772],[-57.30712,1.99665],[-57.27723,1.983],[-57.26881,1.98363],[-57.26781,1.97983],[-57.27343,1.97413],[-57.26229,1.96174],[-57.25645,1.96111],[-57.25542,1.95034],[-57.22923,1.93759],[-57.22912,1.95351],[-57.21473,1.96129],[-57.1999,1.97866],[-57.18334,1.97957],[-57.17909,1.99016],[-57.16395,1.99477],[-57.14746,1.98907],[-57.14084,2.00102],[-57.11997,2.01015],[-57.11632,2.01486],[-57.11659,2.02789],[-57.11163,2.02952],[-57.09629,2.01785],[-57.08668,2.02644],[-57.08157,2.01884],[-57.08254,2.00753],[-57.07345,2.00238],[-57.07112,1.99659],[-57.07121,1.96872],[-57.06393,1.95597],[-57.05645,1.95678],[-57.05379,1.95244],[-57.04737,1.95316],[-57.03195,1.94692],[-57.02493,1.93977],[-57.0244,1.92783],[-57.01421,1.91489],[-57.00915,1.91697],[-57.0007,1.90729],[-56.98282,1.90729],[-56.9761,1.90295],[-56.97148,1.90557],[-56.9682,1.91661],[-56.95917,1.92439],[-56.95051,1.92267],[-56.94982,1.91941],[-56.91971,1.93036],[-56.90629,1.91516],[-56.90721,1.91046],[-56.89348,1.89933],[-56.89145,1.90186],[-56.88682,1.89688],[-56.86659,1.89308],[-56.86454,1.89661],[-56.85865,1.89525],[-56.85626,1.88919],[-56.84582,1.89326],[-56.83782,1.88801],[-56.83095,1.88883],[-56.82862,1.88159],[-56.82157,1.88322],[-56.82093,1.87924],[-56.80926,1.87372],[-56.79885,1.87254],[-56.80102,1.86602],[-56.79576,1.86132],[-56.79793,1.85336],[-56.78804,1.85435],[-56.78865,1.86412],[-56.77385,1.86883],[-56.76812,1.87597],[-56.7649,1.88837],[-56.75354,1.89262],[-56.74976,1.90284],[-56.7376,1.90863],[-56.73473,1.91722],[-56.72685,1.91849],[-56.72096,1.92581],[-56.70465,1.92391],[-56.68235,1.91233],[-56.67915,1.92092],[-56.67346,1.91269],[-56.65104,1.91712],[-56.64915,1.93114],[-56.64102,1.93132],[-56.62993,1.94244],[-56.62145,1.94588],[-56.60784,1.93429],[-56.5984,1.93646],[-56.59643,1.92588],[-56.57976,1.90588],[-56.56095,1.91103],[-56.55554,1.91727],[-56.54665,1.91537],[-56.52491,1.92468],[-56.51799,1.93228],[-56.49557,1.93797],[-56.48285,1.95407],[-56.46895,1.94918],[-56.4764,1.95944],[-56.48112,1.96861],[-56.48917,1.97389],[-56.50667,1.9775],[-56.51945,1.985],[-56.52778,1.99722],[-56.53723,2.00833],[-56.54917,2.01722],[-56.56278,2.02389],[-56.57362,2.02667],[-56.58584,2.02806],[-56.64612,2.02806],[-56.67028,2.02611],[-56.69084,2.02611],[-56.69167,2.02944],[-56.70056,2.04389],[-56.7039,2.04722],[-56.71056,2.06083],[-56.72667,2.08639],[-56.7389,2.10139],[-56.75917,2.12194],[-56.77167,2.13694],[-56.81001,2.19444],[-56.81695,2.20139],[-56.82112,2.21083],[-56.82167,2.23611],[-56.82362,2.25472],[-56.8264,2.26556],[-56.83667,2.27583],[-56.84973,2.28361],[-56.87723,2.29028],[-56.8814,2.29306],[-56.88612,2.30194],[-56.88667,2.30806],[-56.88334,2.33222],[-56.88334,2.34583],[-56.88556,2.3575],[-56.89028,2.36639],[-56.90612,2.37806],[-56.92528,2.38611],[-56.93473,2.39722],[-56.93556,2.40889],[-56.93001,2.43611],[-56.93667,2.44306],[-56.94667,2.44722],[-56.95195,2.45528],[-56.95612,2.465],[-56.95806,2.47667],[-56.95612,2.48833],[-56.95001,2.5025],[-56.95001,2.515],[-56.95334,2.51833],[-56.96445,2.51694],[-56.97917,2.50472],[-56.98945,2.5025],[-56.99362,2.50528],[-56.99862,2.51417],[-56.99917,2.52583],[-56.99584,2.54306],[-56.99695,2.55528],[-57.0039,2.56778],[-57.0164,2.57583],[-57.02306,2.58278],[-57.02723,2.59222],[-57.02862,2.60444],[-57.02667,2.61611],[-57.02112,2.62444],[-57.01778,2.63472],[-57.02473,2.64167],[-57.03695,2.64167],[-57.05056,2.63472],[-57.06028,2.6375],[-57.06362,2.64778],[-57.06362,2.65444],[-57.06028,2.67167],[-57.06084,2.67778],[-57.06501,2.6875],[-57.0739,2.69917],[-57.08195,2.71417],[-57.0939,2.72306],[-57.10056,2.72972],[-57.10278,2.73472],[-57.10278,2.74556],[-57.0964,2.75306],[-57.08917,2.76611],[-57.09028,2.77167],[-57.09862,2.77694],[-57.11778,2.77833],[-57.1314,2.77167],[-57.13778,2.77083],[-57.14195,2.77361],[-57.1464,2.7825],[-57.14445,2.79417],[-57.13778,2.80778],[-57.12612,2.81667],[-57.12473,2.82222],[-57.1314,2.82917],[-57.14306,2.83111],[-57.14917,2.83056],[-57.17667,2.81667],[-57.18778,2.81806],[-57.19112,2.83528],[-57.1939,2.83944],[-57.20251,2.84417],[-57.20834,2.8525],[-57.20612,2.86278],[-57.20751,2.875],[-57.21862,2.88806],[-57.2239,2.90306],[-57.21917,2.91194],[-57.19445,2.92833],[-57.18556,2.94],[-57.18362,2.95167],[-57.1864,2.95583],[-57.19723,2.95833],[-57.22056,2.95444],[-57.22612,2.95583],[-57.23028,2.9775],[-57.22112,2.98861],[-57.22001,2.99417],[-57.22723,3.00694],[-57.22806,3.01722],[-57.22473,3.02083],[-57.21278,3.02278],[-57.20751,3.02139],[-57.20473,3.02556],[-57.21084,3.04667],[-57.21084,3.06056],[-57.21501,3.07],[-57.22112,3.07611],[-57.24667,3.08778],[-57.25084,3.0975],[-57.2489,3.10889],[-57.2389,3.12528],[-57.2364,3.13639],[-57.23834,3.14111],[-57.24306,3.14333],[-57.26362,3.12944],[-57.27473,3.12944],[-57.28306,3.135],[-57.28501,3.13972],[-57.28306,3.15],[-57.27473,3.16306],[-57.27695,3.16778],[-57.28223,3.16917],[-57.28973,3.17528],[-57.29056,3.18167],[-57.28417,3.23],[-57.28306,3.23556],[-57.28417,3.24778],[-57.29251,3.26694],[-57.29473,3.27861],[-57.28417,3.28889],[-57.28362,3.295],[-57.28723,3.30528],[-57.2814,3.31361],[-57.2789,3.32444],[-57.28028,3.33],[-57.28973,3.34778],[-57.29862,3.35944],[-57.30001,3.36472],[-57.30001,3.38417],[-57.30834,3.38944],[-57.31723,3.38472],[-57.3289,3.36889],[-57.33695,3.36361],[-57.34667,3.35944],[-57.35778,3.35806],[-57.3739,3.36222],[-57.38778,3.36222],[-57.40473,3.3725],[-57.41167,3.37917],[-57.42195,3.38278],[-57.42751,3.36083],[-57.43501,3.35472],[-57.44723,3.35333],[-57.45751,3.34972],[-57.47334,3.33833],[-57.4789,3.33833],[-57.48973,3.34778],[-57.50001,3.35111],[-57.52056,3.36472],[-57.53723,3.36083],[-57.55001,3.34639],[-57.56112,3.34361],[-57.57362,3.345],[-57.5864,3.34444],[-57.59751,3.34167],[-57.61944,3.34722],[-57.63833,3.35528],[-57.64667,3.36083],[-57.65972,3.375],[-57.66611,3.38944],[-57.66528,3.40111],[-57.655,3.41833],[-57.64667,3.4375],[-57.64139,3.44556],[-57.63722,3.45528],[-57.63806,3.46694],[-57.65028,3.49556],[-57.65278,3.51333],[-57.65639,3.52361],[-57.66861,3.53861],[-57.6975,3.55083],[-57.70639,3.55583],[-57.71472,3.56806],[-57.71722,3.57972],[-57.72278,3.59472],[-57.73444,3.61028],[-57.755,3.62278],[-57.79333,3.63917],[-57.7975,3.64194],[-57.82083,3.65278],[-57.8325,3.66167],[-57.83861,3.66917],[-57.84278,3.67889],[-57.84556,3.68972],[-57.84694,3.70889],[-57.84694,3.7225],[-57.84889,3.74111],[-57.86111,3.77667],[-57.86389,3.78083],[-57.86944,3.79583],[-57.87611,3.80944],[-57.89,3.83],[-57.90222,3.845],[-57.90917,3.85194],[-57.9175,3.86417],[-57.92889,3.88667],[-57.94333,3.90639],[-57.95694,3.92028],[-57.98472,3.94056],[-57.98806,3.94417],[-58.00861,3.95778],[-58.01611,3.96389],[-58.02778,3.97972],[-58.04333,3.99806],[-58.04694,4.00833],[-58.04917,4.02694],[-58.04944,4.05361],[-58.04833,4.06583],[-58.04917,4.07889],[-58.05667,4.10528],[-58.06472,4.12472],[-58.06889,4.14111],[-58.07083,4.15944],[-58.06556,4.17444],[-58.05972,4.18139],[-58.05528,4.19028],[-58.04694,4.2025],[-58.03389,4.21694],[-58.01278,4.22972],[-58.0025,4.24],[-57.99417,4.2525],[-57.97639,4.26889],[-57.96667,4.27361],[-57.95917,4.27972],[-57.95361,4.28806],[-57.94889,4.31722],[-57.94833,4.34944],[-57.95917,4.37944],[-57.96056,4.39167],[-57.95861,4.40333],[-57.95056,4.41556],[-57.94139,4.42722],[-57.92778,4.44083],[-57.92222,4.44917],[-57.91806,4.45861],[-57.91056,4.48472],[-57.89556,4.5175],[-57.88944,4.53861],[-57.87694,4.57417],[-57.8675,4.59472],[-57.85639,4.61111],[-57.84472,4.63361],[-57.83861,4.65472],[-57.83778,4.66083],[-57.84,4.6725],[-57.84389,4.68222],[-57.85389,4.69306],[-57.8675,4.71361],[-57.87194,4.7225],[-57.87833,4.75028],[-57.88444,4.76472],[-57.89056,4.77222],[-57.90028,4.77639],[-57.9175,4.77972],[-57.92083,4.78306],[-57.92444,4.79333],[-57.92639,4.805],[-57.92444,4.81667],[-57.91806,4.83167],[-57.90417,4.85222],[-57.89806,4.85972],[-57.88444,4.87333],[-57.88194,4.8775],[-57.86389,4.89639],[-57.85306,4.91278],[-57.84389,4.92444],[-57.83667,4.93056],[-57.82611,4.93139],[-57.81528,4.92861],[-57.80556,4.92444],[-57.78861,4.92111],[-57.77611,4.92111],[-57.75833,4.93056],[-57.75306,4.93889],[-57.75556,4.94972],[-57.755,4.95583],[-57.74611,4.9675],[-57.73028,4.97778],[-57.71194,4.99333],[-57.68778,5.01056],[-57.67639,5.0125],[-57.67,5.01194],[-57.655,5.00639],[-57.63389,5.00028],[-57.62,4.99333],[-57.60778,4.99194],[-57.58972,4.99472],[-57.58028,4.99889],[-57.54999,5.00405],[-57.54558,5.00901],[-57.53215,5.01057],[-57.52111,5.00786],[-57.51292,4.99605],[-57.49667,4.99333],[-57.48639,4.99],[-57.47333,4.98944],[-57.44194,4.99472],[-57.42611,4.99],[-57.41389,4.99],[-57.40889,4.99194],[-57.39333,5.00361],[-57.39038,5.00767],[-57.37886,5.01399],[-57.37114,5.01576],[-57.35889,5.01207],[-57.35361,5.01194],[-57.34265,5.01518],[-57.33581,5.02361],[-57.33556,5.0314],[-57.33041,5.03517],[-57.31995,5.03291],[-57.31379,5.02769],[-57.30755,5.0169],[-57.30134,5.01282],[-57.28717,5.01541],[-57.28417,5.02611],[-57.28596,5.03815],[-57.29417,5.04945],[-57.29912,5.05266],[-57.31311,5.05681],[-57.32194,5.06389],[-57.32314,5.08247],[-57.32234,5.08946],[-57.31759,5.09956],[-57.30139,5.11778],[-57.29778,5.12778],[-57.29667,5.14028],[-57.29598,5.16806],[-57.28833,5.17779],[-57.26359,5.18219],[-57.24076,5.16694],[-57.23545,5.16183],[-57.23509,5.15167],[-57.23278,5.13841],[-57.22982,5.13066],[-57.22046,5.13057],[-57.21325,5.13641],[-57.20962,5.14891],[-57.20624,5.15176],[-57.1865,5.15623],[-57.1785,5.16107],[-57.17628,5.16942],[-57.18029,5.19577],[-57.1883,5.20531],[-57.1949,5.21077],[-57.19999,5.21813],[-57.20697,5.22434],[-57.21201,5.2345],[-57.21441,5.25156],[-57.22207,5.26325],[-57.24205,5.27636],[-57.2525,5.27905],[-57.26387,5.27368],[-57.26878,5.26466],[-57.26917,5.25472],[-57.25611,5.23361],[-57.255,5.22833],[-57.25766,5.22409],[-57.26747,5.2226],[-57.27688,5.22507],[-57.28654,5.23978],[-57.29111,5.25083],[-57.29111,5.26444],[-57.28917,5.28278],[-57.28639,5.29389],[-57.285,5.30611],[-57.28672,5.32016],[-57.29152,5.32576],[-57.29769,5.32699],[-57.31722,5.31643],[-57.32513,5.31397],[-57.33485,5.31667],[-57.33778,5.32574],[-57.33592,5.33058],[-57.32667,5.34301],[-57.31585,5.3521],[-57.30833,5.35528],[-57.28639,5.3675],[-57.27806,5.37306],[-57.26737,5.38402],[-57.26518,5.39722],[-57.265,5.40778],[-57.26306,5.41917],[-57.26394,5.43705],[-57.2661,5.456],[-57.26372,5.47192],[-57.25911,5.48227],[-57.23535,5.50222],[-57.22281,5.5103],[-57.21491,5.52354],[-57.20294,5.5398],[-57.18937,5.55996],[-57.16601,5.60462],[-57.15772,5.63164],[-57.14564,5.65752],[-57.13943,5.69256],[-57.1392,5.71889],[-57.14449,5.75141],[-57.13874,5.78347],[-57.13229,5.8407],[-57.1224,5.88088],[-57.11539,5.91955],[-57.13905,5.91997],[-57.14099,5.9443],[-57.14004,5.95181],[-57.14452,5.96403],[-57.14298,5.9665],[-57.14345,5.98894],[-57.14637,5.99835],[-57.15178,6.00916],[-57.16001,6.03761],[-57.16452,6.0577],[-57.16476,6.06558],[-57.16914,6.08593],[-57.17994,6.1131],[-57.18539,6.12008],[-57.20071,6.1435],[-57.20851,6.15426],[-57.22331,6.17016],[-57.25625,6.20124],[-57.26506,6.20855],[-57.27343,6.21809],[-57.27861,6.2208],[-57.29225,6.23251],[-57.31452,6.24955],[-57.34315,6.26957],[-57.36365,6.28295],[-57.36719,6.28673],[-57.39684,6.30492],[-57.41503,6.31531],[-57.44209,6.32871],[-57.45773,6.3345],[-57.48111,6.34027],[-57.49193,6.3384],[-57.49547,6.33382],[-57.50208,6.33027],[-57.50979,6.31731],[-57.51754,6.3117],[-57.51781,6.2928],[-57.52088,6.28108],[-57.53514,6.28112],[-57.53526,6.28865],[-57.53795,6.29469],[-57.54612,6.30263],[-57.56131,6.32575],[-57.56512,6.33538],[-57.56915,6.35275],[-57.57601,6.37561],[-57.58256,6.38661],[-57.59539,6.4048],[-57.6071,6.42317],[-57.61411,6.43001],[-57.63488,6.45482],[-57.65791,6.4736],[-57.67454,6.49029],[-57.69239,6.50963],[-57.70579,6.52062],[-57.71821,6.52772],[-57.73789,6.54427],[-57.74158,6.54613],[-57.74807,6.55522],[-57.76033,6.56692],[-57.77634,6.58378],[-57.7862,6.58752],[-57.78969,6.59189],[-57.79905,6.5978],[-57.80324,6.60974],[-57.81286,6.62081],[-57.82076,6.62604],[-57.8338,6.63807],[-57.85317,6.65767],[-57.85867,6.66005],[-57.88959,6.6878],[-57.89479,6.69753],[-57.9086,6.70883],[-57.91949,6.70794],[-57.9343,6.72647],[-57.95265,6.74358],[-57.96488,6.75266],[-57.98381,6.76831],[-57.99078,6.77286],[-58.00971,6.78989],[-58.02117,6.7986],[-58.02924,6.8026],[-58.03419,6.80216],[-58.0474,6.80659],[-58.05313,6.81225],[-58.07064,6.81879],[-58.09168,6.82351],[-58.10159,6.8228],[-58.12352,6.82657],[-58.15617,6.82487],[-58.1653,6.82695],[-58.16893,6.80743],[-58.17704,6.80782],[-58.1773,6.81263],[-58.19867,6.8194],[-58.22276,6.8407],[-58.23772,6.85016],[-58.2536,6.85896],[-58.26077,6.86428],[-58.27703,6.87127],[-58.28178,6.8752],[-58.28568,6.87322],[-58.31222,6.88281],[-58.32622,6.88232],[-58.33163,6.8835],[-58.33173,6.9554],[-58.47642,7.11335],[-58.47386,7.14131],[-58.47435,7.1495],[-58.48009,7.16299],[-58.48824,7.18796],[-58.48827,7.20342],[-58.48545,7.20832],[-58.48258,7.23978],[-58.47866,7.2617],[-58.47635,7.26763],[-58.47543,7.28343],[-58.47619,7.30955],[-58.47801,7.32203],[-58.4836,7.34278],[-58.49074,7.35597],[-58.50032,7.36775],[-58.517,7.38285],[-58.51703,7.38928],[-58.52532,7.39624],[-58.53492,7.41124],[-58.54004,7.41496],[-58.54308,7.42164],[-58.55337,7.43349],[-58.57128,7.45963],[-58.5754,7.47102],[-58.57968,7.47592],[-58.59193,7.48077],[-58.6006,7.49194],[-58.60043,7.49441],[-58.61002,7.5029],[-58.61233,7.50735],[-58.62547,7.52103],[-58.62949,7.52777],[-58.63826,7.53641],[-58.64191,7.54409],[-58.65158,7.55617],[-58.65231,7.56298],[-58.65799,7.56614],[-58.66472,7.58139],[-58.67149,7.59252],[-58.6786,7.60112],[-58.68636,7.60383],[-58.69305,7.6103],[-58.71062,7.61311],[-58.73465,7.62861],[-58.74284,7.63124],[-58.74551,7.62616],[-58.75146,7.62226],[-58.76776,7.62738],[-58.78514,7.64918],[-58.78517,7.65485],[-58.78959,7.66385],[-58.79503,7.6655],[-58.80223,7.6864],[-58.81241,7.70146],[-58.82159,7.71705],[-58.82472,7.72451],[-58.83468,7.73532],[-58.837,7.73539],[-58.85065,7.74604],[-58.85374,7.74469],[-58.86928,7.75318],[-58.87682,7.76397],[-58.88201,7.76807],[-58.88539,7.77501],[-58.89057,7.77756],[-58.89266,7.78271],[-58.9077,7.79359],[-58.91339,7.79498],[-58.92405,7.81117],[-58.93441,7.81691]]]},"properties":{"Region":"1","name":"Guyana","Area_km":null,"Pop1980":759567,"Pop1991":723673,"Pop2002":751223,"Pop2012":746955}}
]}