{"type":"FeatureCollection", "features": [
{"type":"Feature","geometry":{"type":"Polygon","coordinates":[[[-59.80199,3.37402],[-59.80228,3.37493],[-59.80302,3.37629],[-59.80342,3.37712],[-59.80383,3.37912],[-59.80436,3.3808],[-59.80456,3.38142],[-59.80457,3.38142],[-59.8046,3.38142],[-59.80534,3.38134],[-59.80572,3.38125],[-59.80635,3.38129],[-59.81041,3.38073],[-59.81148,3.38065],[-59.81144,3.37997],[-59.81141,3.37973],[-59.80959,3.3757],[-59.80513,3.37158],[-59.80408,3.36938],[-59.80429,3.3641],[-59.80212,3.36566],[-59.79983,3.36817],[-59.79887,3.36901],[-59.7984,3.36954],[-59.79841,3.36955],[-59.80192,3.37096],[-59.80199,3.37402]]]},"properties":{"id":6,"Constiuenc":"Constituency #6","Name":"Moco Moco / Lethem/Takutu River"}},
{"type":"Feature","geometry":{"type":"Polygon","coordinates":[[[-59.79588,3.37244],[-59.79645,3.37182],[-59.79762,3.37032],[-59.79796,3.36997],[-59.7984,3.36954],[-59.79887,3.36901],[-59.79983,3.36817],[-59.80212,3.36566],[-59.80429,3.3641],[-59.80222,3.36316],[-59.80177,3.36321],[-59.79706,3.3645],[-59.79079,3.36191],[-59.78605,3.35212],[-59.77986,3.34688],[-59.77853,3.34327],[-59.77539,3.33984],[-59.76968,3.33867],[-59.76892,3.33394],[-59.76206,3.33213],[-59.75778,3.3288],[-59.75359,3.32737],[-59.7476,3.32337],[-59.74112,3.32157],[-59.73732,3.31928],[-59.72989,3.31938],[-59.72371,3.31861],[-59.71781,3.31576],[-59.71074,3.31543],[-59.71029,3.3205],[-59.7089,3.32083],[-59.70934,3.3278],[-59.70935,3.3278],[-59.70936,3.32777],[-59.71592,3.32982],[-59.71725,3.33105],[-59.72087,3.33182],[-59.72629,3.33467],[-59.73343,3.34029],[-59.73419,3.34324],[-59.73686,3.34819],[-59.73691,3.34828],[-59.73836,3.34955],[-59.73914,3.35063],[-59.74132,3.35013],[-59.74349,3.3503],[-59.74432,3.35033],[-59.7451,3.35033],[-59.74766,3.35251],[-59.74941,3.35664],[-59.75798,3.35677],[-59.76019,3.35941],[-59.76107,3.35993],[-59.76193,3.36048],[-59.76269,3.36099],[-59.76281,3.36107],[-59.76513,3.36452],[-59.76939,3.36735],[-59.77092,3.37096],[-59.77393,3.37256],[-59.77654,3.37659],[-59.77911,3.37797],[-59.77924,3.37843],[-59.77936,3.37883],[-59.77941,3.37901],[-59.77953,3.3794],[-59.77979,3.38018],[-59.77999,3.3808],[-59.78033,3.38125],[-59.78076,3.3818],[-59.78171,3.3818],[-59.78173,3.3818],[-59.78213,3.38177],[-59.78235,3.38174],[-59.78235,3.38175],[-59.78258,3.38184],[-59.7834,3.38212],[-59.78414,3.38234],[-59.78741,3.38282],[-59.78742,3.38281],[-59.78854,3.38258],[-59.79121,3.38265],[-59.79238,3.38185],[-59.79275,3.38171],[-59.79341,3.38146],[-59.79288,3.38084],[-59.79247,3.38036],[-59.79232,3.37979],[-59.79225,3.37873],[-59.7922,3.37507],[-59.79339,3.37414],[-59.79443,3.37341],[-59.79555,3.37275],[-59.79588,3.37244]]]},"properties":{"id":2,"Constiuenc":"Constituency #2","Name":"Moco Moco / Manar1 (Culvert City)"}},
{"type":"Feature","geometry":{"type":"Polygon","coordinates":[[[-59.81148,3.38065],[-59.81041,3.38073],[-59.80635,3.38129],[-59.80572,3.38125],[-59.80534,3.38134],[-59.8046,3.38142],[-59.80457,3.38142],[-59.80456,3.38142],[-59.80368,3.38149],[-59.8028,3.38004],[-59.80036,3.37937],[-59.80027,3.37941],[-59.79974,3.37962],[-59.79949,3.37972],[-59.79854,3.37998],[-59.79735,3.38017],[-59.79528,3.38093],[-59.79397,3.38125],[-59.79341,3.38146],[-59.79275,3.38171],[-59.79238,3.38185],[-59.79121,3.38265],[-59.78854,3.38258],[-59.78742,3.38281],[-59.78741,3.38282],[-59.78414,3.38234],[-59.7834,3.38212],[-59.78258,3.38184],[-59.78235,3.38175],[-59.78235,3.38174],[-59.78213,3.38177],[-59.78173,3.3818],[-59.78171,3.3818],[-59.78076,3.3818],[-59.78033,3.38125],[-59.77999,3.3808],[-59.77979,3.38018],[-59.77953,3.3794],[-59.77941,3.37901],[-59.77936,3.37883],[-59.77924,3.37843],[-59.77911,3.37797],[-59.77654,3.37659],[-59.77393,3.37256],[-59.77092,3.37096],[-59.76939,3.36735],[-59.76513,3.36452],[-59.76281,3.36107],[-59.76269,3.36099],[-59.76193,3.36048],[-59.76107,3.35993],[-59.76019,3.35941],[-59.75798,3.35677],[-59.74941,3.35664],[-59.74766,3.35251],[-59.7451,3.35033],[-59.74432,3.35033],[-59.74349,3.3503],[-59.74132,3.35013],[-59.73914,3.35063],[-59.73836,3.34955],[-59.73691,3.34828],[-59.73686,3.34819],[-59.73419,3.34324],[-59.73343,3.34029],[-59.72629,3.33467],[-59.72087,3.33182],[-59.71725,3.33105],[-59.71592,3.32982],[-59.70936,3.32777],[-59.70935,3.3278],[-59.70878,3.33172],[-59.70772,3.33589],[-59.69812,3.33745],[-59.69003,3.33507],[-59.68385,3.36553],[-59.67035,3.46077],[-59.68291,3.46242],[-59.68824,3.45957],[-59.69091,3.46261],[-59.7048,3.46071],[-59.71185,3.45728],[-59.71794,3.45709],[-59.72327,3.46566],[-59.72841,3.46889],[-59.74421,3.47518],[-59.74801,3.48051],[-59.74935,3.48431],[-59.75354,3.48945],[-59.75925,3.48888],[-59.76286,3.49307],[-59.76477,3.4984],[-59.76481,3.50515],[-59.76942,3.5092],[-59.77421,3.51132],[-59.77119,3.51309],[-59.7725,3.51577],[-59.77695,3.51703],[-59.78107,3.51948],[-59.78957,3.52862],[-59.79631,3.53062],[-59.79711,3.53405],[-59.79945,3.53759],[-59.80888,3.54118],[-59.81335,3.54398],[-59.81882,3.54565],[-59.82664,3.54678],[-59.83188,3.54949],[-59.83592,3.54973],[-59.84011,3.55268],[-59.84387,3.55387],[-59.84192,3.55077],[-59.84301,3.5444],[-59.84235,3.54068],[-59.83626,3.5254],[-59.83187,3.52224],[-59.82734,3.52385],[-59.8222,3.52338],[-59.8162,3.52043],[-59.80869,3.513],[-59.80537,3.51077],[-59.80263,3.50381],[-59.80155,3.49627],[-59.80178,3.4917],[-59.80634,3.4897],[-59.81086,3.48587],[-59.82182,3.48433],[-59.82673,3.48108],[-59.82736,3.47902],[-59.82422,3.47617],[-59.81811,3.47931],[-59.81508,3.47954],[-59.81177,3.47714],[-59.80949,3.47171],[-59.812,3.46863],[-59.81868,3.47268],[-59.82331,3.4716],[-59.82416,3.46697],[-59.82666,3.45955],[-59.83084,3.45136],[-59.83808,3.4448],[-59.83979,3.44042],[-59.84141,3.42585],[-59.83806,3.42342],[-59.83057,3.42213],[-59.8215,3.42884],[-59.81544,3.42977],[-59.81294,3.42841],[-59.81265,3.42299],[-59.81465,3.41985],[-59.82072,3.41749],[-59.82193,3.41499],[-59.81829,3.40101],[-59.81315,3.39088],[-59.81154,3.38064],[-59.81148,3.38065]]]},"properties":{"id":3,"Constiuenc":"Constituency #3","Name":"Moco Moco / Lethem (Over-the-Creek)"}},
{"type":"Feature","geometry":{"type":"Polygon","coordinates":[[[-59.80429,3.3641],[-59.80418,3.36065],[-59.80565,3.35409],[-59.81099,3.3517],[-59.81993,3.35566],[-59.8261,3.35675],[-59.82993,3.35592],[-59.83414,3.35274],[-59.83376,3.34807],[-59.82767,3.33354],[-59.82572,3.33329],[-59.81827,3.33601],[-59.81717,3.33066],[-59.81285,3.33239],[-59.80718,3.33218],[-59.8035,3.33459],[-59.79758,3.33462],[-59.79347,3.33233],[-59.79326,3.32817],[-59.78922,3.32674],[-59.78687,3.32725],[-59.78027,3.31817],[-59.77836,3.3185],[-59.77554,3.31505],[-59.7709,3.31249],[-59.76391,3.31505],[-59.75799,3.31307],[-59.75576,3.30989],[-59.75608,3.30469],[-59.75725,3.30193],[-59.7442,3.29928],[-59.73794,3.29981],[-59.7267,3.30543],[-59.72373,3.31158],[-59.71504,3.31286],[-59.71079,3.3154],[-59.71786,3.31573],[-59.72376,3.31859],[-59.72995,3.31935],[-59.73737,3.31925],[-59.74118,3.32154],[-59.74765,3.32335],[-59.75365,3.32734],[-59.75784,3.32877],[-59.76212,3.3321],[-59.76897,3.33391],[-59.76973,3.33865],[-59.77545,3.33981],[-59.77859,3.34324],[-59.77992,3.34685],[-59.78611,3.35209],[-59.79085,3.36188],[-59.79706,3.3645],[-59.80177,3.36321],[-59.80222,3.36316],[-59.80429,3.3641]]]},"properties":{"id":1,"Constiuenc":"Constituency #1","Name":"St Ignatius"}},
{"type":"Feature","geometry":{"type":"Polygon","coordinates":[[[-59.7984,3.36954],[-59.79796,3.36997],[-59.79762,3.37032],[-59.79645,3.37182],[-59.79746,3.37661],[-59.79927,3.37812],[-59.79952,3.37857],[-59.79967,3.37926],[-59.79974,3.37962],[-59.80027,3.37941],[-59.80036,3.37937],[-59.8028,3.38004],[-59.80368,3.38149],[-59.80456,3.38142],[-59.80436,3.3808],[-59.80383,3.37912],[-59.80342,3.37712],[-59.80302,3.37629],[-59.80228,3.37493],[-59.80199,3.37402],[-59.80192,3.37096],[-59.79841,3.36955],[-59.7984,3.36954]]]},"properties":{"id":5,"Constiuenc":"Constituency #5","Name":"Moco Moco / Lethem/Takutu / Wind Milll Rd"}},
{"type":"Feature","geometry":{"type":"Polygon","coordinates":[[[-59.79588,3.37244],[-59.79555,3.37275],[-59.79443,3.37341],[-59.79339,3.37414],[-59.7922,3.37507],[-59.79225,3.37873],[-59.79232,3.37979],[-59.79247,3.38036],[-59.79288,3.38084],[-59.79341,3.38146],[-59.79397,3.38125],[-59.79528,3.38093],[-59.79735,3.38017],[-59.79854,3.37998],[-59.79949,3.37972],[-59.79974,3.37962],[-59.79967,3.37926],[-59.79952,3.37857],[-59.79927,3.37812],[-59.79746,3.37661],[-59.79645,3.37182],[-59.79588,3.37244]]]},"properties":{"id":4,"Constiuenc":"Constituency #4","Name":"Lethem/Tabatinga Bridge/Third Street"}}
]}