{"type":"FeatureCollection", "features": [
{"type":"Feature","geometry":{"type":"Polygon","coordinates":[[[-58.2564,6.01141],[-58.2689,6.01442],[-58.2728,6.01465],[-58.27429,6.01679],[-58.27434,6.01677],[-58.28029,6.01312],[-58.2885,6.00831],[-58.2908,6.00775],[-58.29186,6.00783],[-58.29226,6.00787],[-58.29364,6.00799],[-58.29379,6.00801],[-58.29402,6.00673],[-58.29509,6.00695],[-58.29705,6.00606],[-58.29802,6.00446],[-58.30056,6.00347],[-58.30349,6.00171],[-58.30419,6.00329],[-58.30492,6.00326],[-58.30548,6.00323],[-58.30586,6.00323],[-58.30611,6.00324],[-58.30736,6.0032],[-58.30732,6.00223],[-58.30584,5.99915],[-58.30458,5.99697],[-58.30209,5.99347],[-58.29859,5.99065],[-58.29625,5.98954],[-58.29184,5.98581],[-58.28836,5.98316],[-58.28669,5.98145],[-58.28316,5.97561],[-58.28057,5.97274],[-58.2804,5.97068],[-58.28125,5.96748],[-58.28275,5.96526],[-58.2856,5.96348],[-58.2878,5.96027],[-58.29012,5.95957],[-58.2926,5.95997],[-58.29813,5.96242],[-58.30591,5.96613],[-58.30782,5.96677],[-58.31278,5.96834],[-58.25037,5.91786],[-58.22752,5.9833],[-58.22361,5.99525],[-58.22621,6.00284],[-58.22843,6.01052],[-58.23113,6.01851],[-58.23204,6.02153],[-58.23243,6.02611],[-58.23375,6.02578],[-58.23529,6.02202],[-58.23812,6.01819],[-58.2416,6.0131],[-58.24299,6.01275],[-58.24701,6.01153],[-58.25236,6.01082],[-58.25437,6.01111],[-58.2564,6.01141]]]},"properties":{"Id":0,"Name":"Washer Pond to Siberen","Constituen":"Constituency #4","Field":0,"Winner2023":"APNU","Votes_APNU":338,"Votes_PPP":221,"Votes_ICP":0,"Field1":0}},
{"type":"Feature","geometry":{"type":"Polygon","coordinates":[[[-58.31457,6.04102],[-58.31608,6.0408],[-58.33477,6.04062],[-58.33473,6.02956],[-58.33899,6.02851],[-58.34222,6.02809],[-58.3502,6.02659],[-58.36154,6.02468],[-58.36314,6.01813],[-58.35315,6.01532],[-58.3544,5.99776],[-58.35464,5.99703],[-58.35362,5.99705],[-58.35232,5.99715],[-58.3511,5.9975],[-58.35022,5.99782],[-58.34847,5.99847],[-58.3312,6.00489],[-58.32901,6.00498],[-58.3247,6.00415],[-58.32466,6.00415],[-58.32203,6.00784],[-58.32173,6.00729],[-58.31922,6.00848],[-58.31767,6.00975],[-58.31502,6.00838],[-58.31125,6.00801],[-58.31094,6.00822],[-58.31073,6.00831],[-58.31008,6.00886],[-58.30875,6.0142],[-58.30835,6.01561],[-58.30707,6.01643],[-58.30648,6.01839],[-58.30758,6.02216],[-58.30735,6.02289],[-58.30715,6.02316],[-58.30709,6.02375],[-58.30676,6.02441],[-58.30692,6.02524],[-58.30616,6.02549],[-58.30581,6.02579],[-58.30527,6.02666],[-58.30634,6.0278],[-58.30666,6.02886],[-58.30726,6.03055],[-58.30806,6.03018],[-58.30854,6.03031],[-58.30913,6.03159],[-58.30938,6.03254],[-58.31037,6.03434],[-58.31151,6.03634],[-58.312,6.037],[-58.3122,6.03821],[-58.31457,6.04102]]]},"properties":{"Id":0,"Name":"Blue Berry Hill, One Mile (N) W. Housing Scheme","Constituen":"Constituency #7","Field":0,"Winner2023":"APNU","Votes_APNU":1399,"Votes_PPP":194,"Votes_ICP":0,"Field1":0}},
{"type":"Feature","geometry":{"type":"Polygon","coordinates":[[[-58.29379,6.00801],[-58.29377,6.00847],[-58.29377,6.01036],[-58.29452,6.01135],[-58.30086,6.01425],[-58.30124,6.01445],[-58.30257,6.01517],[-58.30373,6.0136],[-58.30502,6.01159],[-58.30698,6.00591],[-58.30726,6.00418],[-58.30733,6.00351],[-58.30736,6.0032],[-58.30611,6.00324],[-58.30586,6.00323],[-58.30548,6.00323],[-58.30492,6.00326],[-58.30419,6.00329],[-58.30349,6.00171],[-58.30056,6.00347],[-58.29802,6.00446],[-58.29705,6.00606],[-58.29509,6.00695],[-58.29402,6.00673],[-58.29379,6.00801]]]},"properties":{"Id":0,"Name":"Central Mackenzie","Constituen":"Constituency #3","Field":0,"Winner2023":"APNU","Votes_APNU":301,"Votes_PPP":97,"Votes_ICP":0,"Field1":0}},
{"type":"Feature","geometry":{"type":"Polygon","coordinates":[[[-58.29379,6.00801],[-58.29364,6.00799],[-58.29226,6.00787],[-58.29186,6.00783],[-58.2908,6.00775],[-58.2885,6.00831],[-58.28029,6.01312],[-58.27434,6.01677],[-58.27429,6.01679],[-58.27597,6.01962],[-58.27869,6.02022],[-58.28119,6.01869],[-58.28173,6.02005],[-58.28137,6.0213],[-58.28176,6.02343],[-58.28125,6.02498],[-58.28655,6.02737],[-58.28658,6.02862],[-58.28761,6.03003],[-58.28918,6.03089],[-58.29058,6.03323],[-58.29115,6.03207],[-58.29186,6.03108],[-58.29575,6.02745],[-58.29933,6.02287],[-58.30241,6.01538],[-58.30257,6.01517],[-58.30124,6.01445],[-58.30086,6.01425],[-58.29452,6.01135],[-58.29377,6.01036],[-58.29377,6.00847],[-58.29379,6.00801]]]},"properties":{"Id":0,"Name":"Retrieve–Kara Kara","Constituen":"Constituency #2","Field":0,"Winner2023":"APNU","Votes_APNU":462,"Votes_PPP":382,"Votes_ICP":0,"Field1":0}},
{"type":"Feature","geometry":{"type":"Polygon","coordinates":[[[-58.2564,6.01141],[-58.25437,6.01111],[-58.25236,6.01082],[-58.24701,6.01153],[-58.24299,6.01275],[-58.2416,6.0131],[-58.23812,6.01819],[-58.23529,6.02202],[-58.23375,6.02578],[-58.23243,6.02611],[-58.23293,6.03116],[-58.23438,6.04305],[-58.23898,6.0506],[-58.24024,6.05212],[-58.24203,6.05343],[-58.24454,6.05383],[-58.24817,6.05385],[-58.25128,6.05345],[-58.25344,6.05355],[-58.25974,6.05652],[-58.26307,6.0568],[-58.26373,6.0562],[-58.26563,6.05588],[-58.26713,6.05672],[-58.26973,6.0561],[-58.27149,6.05658],[-58.27355,6.05485],[-58.27538,6.05491],[-58.27861,6.0565],[-58.28241,6.05764],[-58.28465,6.05907],[-58.28608,6.06101],[-58.28649,6.0685],[-58.2878,6.06959],[-58.28776,6.07097],[-58.29085,6.07119],[-58.29081,6.07292],[-58.29246,6.07248],[-58.29236,6.07326],[-58.2949,6.07473],[-58.29743,6.07475],[-58.29926,6.07274],[-58.30127,6.07209],[-58.30189,6.06764],[-58.30167,6.06423],[-58.29902,6.05883],[-58.29815,6.05684],[-58.29753,6.05483],[-58.29698,6.05264],[-58.29686,6.05118],[-58.29563,6.04809],[-58.29414,6.04546],[-58.29133,6.04243],[-58.29006,6.03951],[-58.28982,6.0352],[-58.29046,6.03347],[-58.29058,6.03323],[-58.28918,6.03089],[-58.28761,6.03003],[-58.28658,6.02862],[-58.28655,6.02737],[-58.28125,6.02498],[-58.28176,6.02343],[-58.28137,6.0213],[-58.28173,6.02005],[-58.28119,6.01869],[-58.27869,6.02022],[-58.27597,6.01962],[-58.27429,6.01679],[-58.2728,6.01465],[-58.2689,6.01442],[-58.2564,6.01141]]]},"properties":{"Id":0,"Name":"Bamia / Amelia’s Ward","Constituen":"Constituency #1","Field":0,"Winner2023":"APNU","Votes_APNU":1980,"Votes_PPP":624,"Votes_ICP":0,"Field1":0}},
{"type":"Feature","geometry":{"type":"Polygon","coordinates":[[[-58.30736,6.0032],[-58.30733,6.00351],[-58.30814,6.00351],[-58.30953,6.0036],[-58.31039,6.00421],[-58.31048,6.00525],[-58.31133,6.00525],[-58.3122,6.00497],[-58.31242,6.00479],[-58.31278,6.00455],[-58.31306,6.00433],[-58.31429,6.00547],[-58.31808,6.00573],[-58.32313,6.0042],[-58.32394,6.00411],[-58.32466,6.00415],[-58.3247,6.00415],[-58.32581,6.00182],[-58.32591,5.99982],[-58.32484,5.99711],[-58.32177,5.99216],[-58.32079,5.99089],[-58.3188,5.98994],[-58.31726,5.98875],[-58.31485,5.98625],[-58.30802,5.97728],[-58.30652,5.97501],[-58.3065,5.97277],[-58.30791,5.96934],[-58.31278,5.96834],[-58.30782,5.96677],[-58.30591,5.96613],[-58.29813,5.96242],[-58.2926,5.95997],[-58.29012,5.95957],[-58.2878,5.96027],[-58.2856,5.96348],[-58.28275,5.96526],[-58.28125,5.96748],[-58.2804,5.97068],[-58.28057,5.97274],[-58.28316,5.97561],[-58.28669,5.98145],[-58.28836,5.98316],[-58.29184,5.98581],[-58.29625,5.98954],[-58.29859,5.99065],[-58.30209,5.99347],[-58.30458,5.99697],[-58.30584,5.99915],[-58.30732,6.00223],[-58.30736,6.0032]]]},"properties":{"Id":0,"Name":"Silvertown, Green Valley, Half Mile, etc.","Constituen":"Constituency #5","Field":0,"Winner2023":"APNU","Votes_APNU":1040,"Votes_PPP":370,"Votes_ICP":0,"Field1":0}},
{"type":"Feature","geometry":{"type":"Polygon","coordinates":[[[-58.35464,5.99703],[-58.35529,5.98669],[-58.36096,5.98352],[-58.35629,5.97555],[-58.35234,5.97573],[-58.3484,5.97503],[-58.3458,5.97609],[-58.34366,5.97649],[-58.34281,5.97722],[-58.3413,5.98041],[-58.34079,5.98083],[-58.33615,5.98165],[-58.33441,5.98141],[-58.32942,5.98342],[-58.32626,5.98229],[-58.32269,5.98257],[-58.32164,5.98184],[-58.32076,5.98021],[-58.31918,5.97868],[-58.31802,5.97661],[-58.31513,5.97521],[-58.31334,5.97374],[-58.31139,5.97076],[-58.31147,5.96932],[-58.31278,5.96834],[-58.30791,5.96934],[-58.3065,5.97277],[-58.30652,5.97501],[-58.30802,5.97728],[-58.31485,5.98625],[-58.31726,5.98875],[-58.3188,5.98994],[-58.32079,5.99089],[-58.32177,5.99216],[-58.32484,5.99711],[-58.32591,5.99982],[-58.32581,6.00182],[-58.3247,6.00415],[-58.32901,6.00498],[-58.3312,6.00489],[-58.34847,5.99847],[-58.35022,5.99782],[-58.3511,5.9975],[-58.35232,5.99715],[-58.35362,5.99705],[-58.35464,5.99703]]]},"properties":{"Id":0,"Name":"One Mile (South)","Constituen":"Constituency #8","Field":0,"Winner2023":"APNU","Votes_APNU":1347,"Votes_PPP":345,"Votes_ICP":0,"Field1":0}},
{"type":"Feature","geometry":{"type":"Polygon","coordinates":[[[-58.32466,6.00415],[-58.32394,6.00411],[-58.32313,6.0042],[-58.31808,6.00573],[-58.31429,6.00547],[-58.31306,6.00433],[-58.31278,6.00455],[-58.31242,6.00479],[-58.3122,6.00497],[-58.31133,6.00525],[-58.31048,6.00525],[-58.31039,6.00421],[-58.30953,6.0036],[-58.30814,6.00351],[-58.30733,6.00351],[-58.30726,6.00418],[-58.30698,6.00591],[-58.30502,6.01159],[-58.30373,6.0136],[-58.30257,6.01517],[-58.30241,6.01538],[-58.29933,6.02287],[-58.29575,6.02745],[-58.29186,6.03108],[-58.29115,6.03207],[-58.29058,6.03323],[-58.29046,6.03347],[-58.28982,6.0352],[-58.29006,6.03951],[-58.29133,6.04243],[-58.29414,6.04546],[-58.29563,6.04809],[-58.29686,6.05118],[-58.29698,6.05264],[-58.29753,6.05483],[-58.29791,6.05606],[-58.29886,6.05615],[-58.29956,6.05627],[-58.31065,6.05871],[-58.31457,6.04102],[-58.3122,6.03821],[-58.312,6.037],[-58.31151,6.03634],[-58.31037,6.03434],[-58.30938,6.03254],[-58.30913,6.03159],[-58.30854,6.03031],[-58.30806,6.03018],[-58.30726,6.03055],[-58.30666,6.02886],[-58.30634,6.0278],[-58.30527,6.02666],[-58.30581,6.02579],[-58.30616,6.02549],[-58.30692,6.02524],[-58.30676,6.02441],[-58.30709,6.02375],[-58.30715,6.02316],[-58.30735,6.02289],[-58.30758,6.02216],[-58.30648,6.01839],[-58.30707,6.01643],[-58.30835,6.01561],[-58.30875,6.0142],[-58.31008,6.00886],[-58.31073,6.00831],[-58.31094,6.00822],[-58.31125,6.00801],[-58.31502,6.00838],[-58.31767,6.00975],[-58.31922,6.00848],[-58.32173,6.00729],[-58.32203,6.00784],[-58.32466,6.00415]]]},"properties":{"Id":0,"Name":"Christianburg, Victory Valley, Wismar, Hill,","Constituen":"Constituency #6","Field":0,"Winner2023":"APNU","Votes_APNU":1070,"Votes_PPP":230,"Votes_ICP":0,"Field1":0}}
]}