{"type":"FeatureCollection", "features": [
{"type":"Feature","geometry":{"type":"Polygon","coordinates":[[[-59.76627,8.25132],[-59.76353,8.25728],[-59.76311,8.26102],[-59.76273,8.26158],[-59.761,8.26284],[-59.75966,8.26339],[-59.75911,8.26443],[-59.7575,8.26528],[-59.75733,8.26531],[-59.75596,8.26549],[-59.75607,8.2657],[-59.75616,8.26588],[-59.75719,8.26843],[-59.75937,8.27224],[-59.76138,8.27492],[-59.76779,8.27872],[-59.77601,8.28252],[-59.78128,8.28578],[-59.80156,8.30148],[-59.81146,8.30745],[-59.81711,8.3092],[-59.81555,8.30113],[-59.81312,8.29836],[-59.80737,8.29571],[-59.80508,8.29297],[-59.80142,8.27527],[-59.8052,8.27025],[-59.80692,8.26961],[-59.81835,8.25984],[-59.81556,8.25677],[-59.80808,8.24536],[-59.80231,8.23795],[-59.79705,8.23264],[-59.79098,8.23024],[-59.7867,8.23238],[-59.78249,8.23805],[-59.77409,8.25336],[-59.76944,8.25416],[-59.76627,8.25132]]]},"properties":{"ObjectID":2,"Consit_id":10101,"Consitut_":"Thomas Hill / Smith Creek","NDC":"Town of Mabaruma","NDC_ID":"101"}},
{"type":"Feature","geometry":{"type":"Polygon","coordinates":[[[-59.80157,8.18886],[-59.80631,8.19108],[-59.80665,8.19143],[-59.81134,8.19524],[-59.8132,8.19603],[-59.81385,8.19626],[-59.81723,8.19709],[-59.81755,8.19742],[-59.81927,8.19968],[-59.8196,8.20008],[-59.82039,8.20067],[-59.82355,8.20376],[-59.82922,8.20727],[-59.83276,8.21491],[-59.83569,8.20897],[-59.83781,8.19971],[-59.83788,8.19036],[-59.8363,8.17558],[-59.83621,8.16534],[-59.83986,8.16002],[-59.83994,8.1511],[-59.82958,8.14711],[-59.82558,8.14834],[-59.82207,8.14789],[-59.81366,8.13809],[-59.81695,8.1329],[-59.81695,8.13079],[-59.81211,8.12815],[-59.80817,8.13023],[-59.80734,8.14104],[-59.80411,8.15716],[-59.79969,8.17067],[-59.79825,8.18812],[-59.80014,8.18801],[-59.80095,8.18849],[-59.80157,8.18886]]]},"properties":{"ObjectID":3,"Consit_id":10106,"Consitut_":"Hosororo Hill","NDC":"Town of Mabaruma","NDC_ID":"101"}},
{"type":"Feature","geometry":{"type":"Polygon","coordinates":[[[-59.7867,8.23238],[-59.78825,8.22368],[-59.78967,8.22088],[-59.79382,8.21958],[-59.79715,8.21598],[-59.79695,8.2136],[-59.79439,8.21001],[-59.79018,8.20587],[-59.78782,8.20438],[-59.7878,8.2026],[-59.78773,8.20124],[-59.78652,8.20177],[-59.78374,8.2029],[-59.78145,8.20368],[-59.78024,8.20468],[-59.77922,8.2059],[-59.77811,8.20721],[-59.77498,8.20873],[-59.77496,8.21078],[-59.77127,8.21583],[-59.7725,8.21705],[-59.76986,8.23673],[-59.76797,8.24561],[-59.76627,8.25132],[-59.76944,8.25416],[-59.77409,8.25336],[-59.78249,8.23805],[-59.7867,8.23238]]]},"properties":{"ObjectID":1,"Consit_id":10103,"Consitut_":"Mabaruma Township/ Mabaruma Compound/Broomes Estat","NDC":"Town of Mabaruma","NDC_ID":"101"}},
{"type":"Feature","geometry":{"type":"Polygon","coordinates":[[[-59.76627,8.25132],[-59.76797,8.24561],[-59.76986,8.23673],[-59.7725,8.21705],[-59.77127,8.21583],[-59.77496,8.21078],[-59.77498,8.20873],[-59.77391,8.20625],[-59.77135,8.19594],[-59.77075,8.19166],[-59.77084,8.19087],[-59.76915,8.18957],[-59.76901,8.18946],[-59.7692,8.18483],[-59.76902,8.18364],[-59.76557,8.18444],[-59.76325,8.18686],[-59.75515,8.20069],[-59.74863,8.20724],[-59.74131,8.2124],[-59.74303,8.22496],[-59.74497,8.23497],[-59.74691,8.24178],[-59.75314,8.25945],[-59.75596,8.2655],[-59.75596,8.26549],[-59.75733,8.26531],[-59.7575,8.26528],[-59.75911,8.26443],[-59.75966,8.26339],[-59.761,8.26284],[-59.76273,8.26158],[-59.76311,8.26102],[-59.76353,8.25728],[-59.76627,8.25132]]]},"properties":{"ObjectID":4,"Consit_id":10102,"Consitut_":"Mabarum Settlement /Barimanobo","NDC":"Town of Mabaruma","NDC_ID":"101"}},
{"type":"Feature","geometry":{"type":"Polygon","coordinates":[[[-59.81835,8.25984],[-59.82,8.25727],[-59.82327,8.24684],[-59.82547,8.23645],[-59.82942,8.23138],[-59.83291,8.22886],[-59.83183,8.21851],[-59.83276,8.21491],[-59.82922,8.20727],[-59.82355,8.20376],[-59.82039,8.20067],[-59.8196,8.20008],[-59.81927,8.19968],[-59.81755,8.19742],[-59.81723,8.19709],[-59.81385,8.19626],[-59.8132,8.19603],[-59.81134,8.19524],[-59.80665,8.19143],[-59.80631,8.19108],[-59.80157,8.18886],[-59.80095,8.18849],[-59.80014,8.18801],[-59.79825,8.18812],[-59.79578,8.19175],[-59.79604,8.19394],[-59.79604,8.19581],[-59.79577,8.19644],[-59.79624,8.19918],[-59.79657,8.20171],[-59.79708,8.20542],[-59.79508,8.20811],[-59.79457,8.20955],[-59.79439,8.21001],[-59.79695,8.2136],[-59.79715,8.21598],[-59.79382,8.21958],[-59.78967,8.22088],[-59.78825,8.22368],[-59.7867,8.23238],[-59.79098,8.23024],[-59.79705,8.23264],[-59.80231,8.23795],[-59.80808,8.24536],[-59.81556,8.25677],[-59.81835,8.25984]]]},"properties":{"ObjectID":6,"Consit_id":10104,"Consitut_":"Barabina Koberino Hill","NDC":"Town of Mabaruma","NDC_ID":"101"}},
{"type":"Feature","geometry":{"type":"Polygon","coordinates":[[[-59.79439,8.21001],[-59.79457,8.20955],[-59.79508,8.20811],[-59.79708,8.20542],[-59.79657,8.20171],[-59.79624,8.19918],[-59.79577,8.19644],[-59.79604,8.19581],[-59.79604,8.19394],[-59.79578,8.19175],[-59.79232,8.19169],[-59.78825,8.19006],[-59.78113,8.18566],[-59.77241,8.18283],[-59.76902,8.18364],[-59.7692,8.18483],[-59.76901,8.18946],[-59.76915,8.18957],[-59.77084,8.19087],[-59.77075,8.19166],[-59.77135,8.19594],[-59.77391,8.20625],[-59.77498,8.20873],[-59.77811,8.20721],[-59.77922,8.2059],[-59.78024,8.20468],[-59.78145,8.20368],[-59.78374,8.2029],[-59.78652,8.20177],[-59.78773,8.20124],[-59.7878,8.2026],[-59.78782,8.20438],[-59.79018,8.20587],[-59.79439,8.21001]]]},"properties":{"ObjectID":5,"Consit_id":10105,"Consitut_":"Kumaka","NDC":"Town of Mabaruma","NDC_ID":"101"}}
]}