{"type":"FeatureCollection", "features": [
{"type":"Feature","geometry":{"type":"Polygon","coordinates":[[[-59.21617,5.43528],[-59.29214,5.39652],[-59.31914,5.41278],[-59.39134,5.36465],[-59.45727,5.34089],[-59.41206,5.2815],[-59.36259,5.31224],[-59.29151,5.284],[-59.2664,5.2071],[-59.21115,5.19334],[-59.22685,5.13269],[-59.28273,5.12519],[-59.27394,5.04201],[-59.30596,4.9876],[-59.27331,4.97509],[-59.14585,5.03451],[-59.11069,5.02137],[-59.06109,5.08204],[-59.00333,5.07015],[-58.94557,5.07703],[-58.96943,5.04576],[-58.90602,4.9951],[-58.86395,5.00261],[-58.83005,5.10893],[-58.84637,5.2096],[-58.83695,5.24962],[-58.89911,5.30838],[-58.88718,5.38527],[-58.91225,5.45078],[-58.94315,5.44424],[-58.99122,5.47223],[-59.0071,5.41465],[-58.96629,5.4184],[-58.9205,5.3637],[-58.99126,5.34805],[-59.01903,5.3934],[-59.12247,5.41537],[-59.21806,5.39652],[-59.21617,5.43528]]]},"properties":{"Id":0}}
]}