{"type":"FeatureCollection", "features": [
{"type":"Feature","geometry":{"type":"Polygon","coordinates":[[[-58.15926,6.74343],[-58.15109,6.74137],[-58.13065,6.7357],[-58.125,6.75656],[-58.12249,6.76528],[-58.12198,6.76713],[-58.1549,6.77546],[-58.15849,6.77622],[-58.17423,6.78027],[-58.18191,6.78277],[-58.18199,6.78249],[-58.18358,6.77812],[-58.18463,6.77503],[-58.18683,6.769],[-58.19109,6.75768],[-58.19294,6.75314],[-58.18671,6.75058],[-58.18172,6.74918],[-58.17777,6.74838],[-58.17456,6.74735],[-58.15926,6.74343]]]},"properties":{"ID":"410","NAME":"Eccles / Ramsburg","STATUS":"Neighbourhood Democratic Council","Males_2012":4147,"Fem_2012":4317,"Tot_2012":8464}},
{"type":"Feature","geometry":{"type":"Polygon","coordinates":[[[-58.19294,6.75314],[-58.19556,6.74544],[-58.19658,6.74135],[-58.19944,6.73061],[-58.19366,6.72973],[-58.16413,6.7218],[-58.15926,6.74343],[-58.17456,6.74735],[-58.17777,6.74838],[-58.18172,6.74918],[-58.18671,6.75058],[-58.19294,6.75314]]]},"properties":{"ID":"412","NAME":"Little Diamond / Herstelling","STATUS":"Neighbourhood Democratic Council","Males_2012":3528,"Fem_2012":3584,"Tot_2012":7112}},
{"type":"Feature","geometry":{"type":"Polygon","coordinates":[[[-57.92264,6.66258],[-57.95935,6.67244],[-57.96313,6.65759],[-57.96511,6.65057],[-57.96628,6.64462],[-57.94903,6.63497],[-57.94173,6.63064],[-57.93163,6.62517],[-57.93614,6.62054],[-57.93877,6.61761],[-57.94075,6.61566],[-57.91333,6.60745],[-57.91331,6.60745],[-57.898,6.60286],[-57.89163,6.60106],[-57.89159,6.60105],[-57.89131,6.60226],[-57.89143,6.60492],[-57.89259,6.60919],[-57.89601,6.61389],[-57.8979,6.61934],[-57.89829,6.62394],[-57.89915,6.62743],[-57.89899,6.62899],[-57.89999,6.6315],[-57.90196,6.63402],[-57.90632,6.6377],[-57.90736,6.64071],[-57.90744,6.64473],[-57.90813,6.64676],[-57.90993,6.64962],[-57.91271,6.6518],[-57.91722,6.65309],[-57.91879,6.65422],[-57.92009,6.65628],[-57.92139,6.65915],[-57.92264,6.66258]]]},"properties":{"ID":"401","NAME":"Cane Grove Land Development Scheme","STATUS":"Neighbourhood Democratic Council","Males_2012":1663,"Fem_2012":1596,"Tot_2012":3259}},
{"type":"Feature","geometry":{"type":"Polygon","coordinates":[[[-58.19944,6.73061],[-58.19945,6.73062],[-58.19951,6.73039],[-58.19883,6.71579],[-58.19633,6.70624],[-58.19332,6.70022],[-58.18949,6.69982],[-58.18943,6.69957],[-58.18587,6.69879],[-58.16354,6.69329],[-58.15833,6.69107],[-58.13389,6.68484],[-58.13327,6.69328],[-58.13214,6.71035],[-58.13237,6.71014],[-58.13193,6.71547],[-58.16413,6.7218],[-58.19366,6.72973],[-58.19944,6.73061]]]},"properties":{"ID":"413","NAME":"Diamond / Golden Grove","STATUS":"Neighbourhood Democratic Council","Males_2012":6273,"Fem_2012":6233,"Tot_2012":12506}},
{"type":"Feature","geometry":{"type":"Polygon","coordinates":[[[-58.18943,6.69957],[-58.19322,6.70002],[-58.1905,6.69457],[-58.18899,6.68572],[-58.19174,6.67089],[-58.20118,6.64616],[-58.20667,6.63491],[-58.21474,6.61598],[-58.21817,6.60848],[-58.22057,6.59961],[-58.22246,6.58802],[-58.22291,6.58358],[-58.21833,6.58247],[-58.18883,6.57335],[-58.19204,6.5797],[-58.19078,6.58473],[-58.18228,6.61282],[-58.17639,6.62082],[-58.17334,6.6248],[-58.16732,6.64435],[-58.16543,6.64702],[-58.1567,6.65802],[-58.15116,6.66462],[-58.13885,6.67597],[-58.13703,6.67847],[-58.13428,6.67835],[-58.13382,6.68139],[-58.13389,6.68484],[-58.15833,6.69107],[-58.16354,6.69329],[-58.18587,6.69879],[-58.18943,6.69957]]]},"properties":{"ID":"414","NAME":"Caledonia / Good Success","STATUS":"Neighbourhood Democratic Council","Males_2012":5043,"Fem_2012":4830,"Tot_2012":9873}},
{"type":"Feature","geometry":{"type":"Polygon","coordinates":[[[-58.15926,6.74343],[-58.16413,6.7218],[-58.13193,6.71547],[-58.13154,6.72018],[-58.13105,6.72571],[-58.13138,6.72831],[-58.131,6.72978],[-58.13065,6.7357],[-58.15109,6.74137],[-58.15926,6.74343]]]},"properties":{"ID":"411","NAME":"Mocha / Arcadia","STATUS":"Neighbourhood Democratic Council","Males_2012":1504,"Fem_2012":1624,"Tot_2012":3128}},
{"type":"Feature","geometry":{"type":"Polygon","coordinates":[[[-58.13065,6.7357],[-58.131,6.72978],[-58.13138,6.72831],[-58.13105,6.72571],[-58.13154,6.72018],[-58.13193,6.71547],[-58.13237,6.71014],[-58.13214,6.71035],[-58.1279,6.71427],[-58.11697,6.72452],[-58.11515,6.72545],[-58.11049,6.7246],[-58.10955,6.72865],[-58.10456,6.74825],[-58.09741,6.77678],[-58.09127,6.80203],[-58.08794,6.8147],[-58.08634,6.8224],[-58.09168,6.82351],[-58.09591,6.82334],[-58.10159,6.8228],[-58.10526,6.82383],[-58.10524,6.82383],[-58.10579,6.82207],[-58.10765,6.8155],[-58.10974,6.80867],[-58.11157,6.80224],[-58.11796,6.78054],[-58.12012,6.77392],[-58.12032,6.7732],[-58.12191,6.76711],[-58.12198,6.76713],[-58.12249,6.76528],[-58.125,6.75656],[-58.13065,6.7357]]]},"properties":{"ID":"409","NAME":"Industry / Plaisance","STATUS":"Neighbourhood Democratic Council","Males_2012":5251,"Fem_2012":5720,"Tot_2012":10971}},
{"type":"Feature","geometry":{"type":"Polygon","coordinates":[[[-58.22291,6.58358],[-58.22332,6.57949],[-58.2259,6.57182],[-58.23122,6.56056],[-58.24225,6.54062],[-58.24737,6.53554],[-58.2467,6.53488],[-58.22905,6.51645],[-58.22823,6.51737],[-58.22654,6.51928],[-58.22047,6.52753],[-58.2165,6.53308],[-58.21586,6.5347],[-58.21531,6.53441],[-58.21526,6.53439],[-58.21202,6.53937],[-58.20536,6.54853],[-58.20053,6.55521],[-58.17653,6.55018],[-58.1762,6.55845],[-58.18221,6.56028],[-58.18295,6.56176],[-58.18883,6.57335],[-58.21833,6.58247],[-58.22291,6.58358]]]},"properties":{"ID":"415","NAME":"Soesdyke / Huist’ Coverden","STATUS":"Neighbourhood Democratic Council","Males_2012":2525,"Fem_2012":2458,"Tot_2012":4983}},
{"type":"Feature","geometry":{"type":"Polygon","coordinates":[[[-57.94075,6.61566],[-57.94081,6.61568],[-57.94135,6.61507],[-57.96341,6.59258],[-57.9719,6.58426],[-58.0043,6.55121],[-58.00965,6.54561],[-58.01414,6.54453],[-58.01927,6.53686],[-58.02034,6.53361],[-58.02058,6.53195],[-58.02309,6.53432],[-58.02523,6.53454],[-58.02555,6.53726],[-58.0264,6.53938],[-58.02756,6.5396],[-58.03071,6.54176],[-58.03248,6.54213],[-58.03569,6.54365],[-58.03885,6.54423],[-58.04118,6.54554],[-58.04434,6.54578],[-58.04643,6.54528],[-58.04796,6.54729],[-58.05039,6.54876],[-58.05308,6.54889],[-58.05371,6.55009],[-58.05346,6.55372],[-58.05352,6.55545],[-58.05532,6.55791],[-58.05752,6.55907],[-58.0579,6.55978],[-58.05793,6.55983],[-58.05809,6.56004],[-58.05846,6.56051],[-58.05874,6.56077],[-58.05902,6.56104],[-58.05974,6.56127],[-58.0599,6.56133],[-58.06032,6.56179],[-58.06052,6.56304],[-58.06053,6.56308],[-58.06093,6.56413],[-58.06312,6.56549],[-58.06313,6.5655],[-58.06409,6.56565],[-58.06494,6.56577],[-58.06564,6.56581],[-58.0662,6.56585],[-58.06683,6.56586],[-58.06822,6.56604],[-58.069,6.56598],[-58.06909,6.56593],[-58.0699,6.56561],[-58.07053,6.56545],[-58.07059,6.56544],[-58.07072,6.56541],[-58.07123,6.56536],[-58.07156,6.56533],[-58.07329,6.56536],[-58.0743,6.5651],[-58.07434,6.56509],[-58.07485,6.56495],[-58.07532,6.56475],[-58.07597,6.56435],[-58.07656,6.56423],[-58.07773,6.56398],[-58.08119,6.56296],[-58.08329,6.56138],[-58.08525,6.56073],[-58.08586,6.56091],[-58.08662,6.56114],[-58.08743,6.56172],[-58.08668,6.56647],[-58.08598,6.56769],[-58.08612,6.56814],[-58.08613,6.56815],[-58.08618,6.56825],[-58.0862,6.56827],[-58.08621,6.56828],[-58.08641,6.56853],[-58.08652,6.56864],[-58.08663,6.56879],[-58.08666,6.56882],[-58.08697,6.56913],[-58.087,6.56917],[-58.08729,6.56958],[-58.09259,6.5733],[-58.09402,6.5743],[-58.09587,6.57488],[-58.0965,6.57531],[-58.09732,6.57614],[-58.09752,6.57634],[-58.09756,6.57638],[-58.09905,6.57654],[-58.09915,6.57653],[-58.10065,6.57635],[-58.1035,6.57701],[-58.10624,6.57655],[-58.10706,6.57713],[-58.11091,6.57561],[-58.11268,6.57555],[-58.11368,6.57676],[-58.116,6.57749],[-58.11634,6.57745],[-58.11695,6.57736],[-58.11708,6.57735],[-58.11709,6.57732],[-58.11721,6.57663],[-58.11732,6.57583],[-58.1174,6.57471],[-58.11817,6.57012],[-58.11713,6.56569],[-58.11726,6.56484],[-58.11989,6.56081],[-58.12094,6.55983],[-58.12322,6.55675],[-58.12457,6.55349],[-58.12388,6.55108],[-58.12405,6.54855],[-58.12316,6.54651],[-58.12172,6.54458],[-58.12057,6.54193],[-58.12011,6.53973],[-58.12033,6.53749],[-58.12122,6.53621],[-58.12304,6.53612],[-58.12669,6.53845],[-58.12984,6.53979],[-58.13176,6.53988],[-58.13351,6.53911],[-58.13438,6.53777],[-58.13398,6.53058],[-58.13659,6.52612],[-58.13941,6.5243],[-58.1429,6.52312],[-58.1464,6.52292],[-58.15038,6.52464],[-58.15268,6.52441],[-58.1556,6.52288],[-58.16121,6.51899],[-58.16275,6.51858],[-58.16389,6.51756],[-58.1635,6.51539],[-58.16435,6.51421],[-58.16702,6.51174],[-58.1679,6.50821],[-58.16788,6.50456],[-58.16932,6.49632],[-58.17608,6.48939],[-58.17722,6.48909],[-58.18034,6.48662],[-58.18176,6.48457],[-58.18352,6.48289],[-58.18378,6.48133],[-58.18474,6.47928],[-58.18812,6.47802],[-58.18999,6.47607],[-58.1899,6.47497],[-58.18842,6.47116],[-58.18738,6.4676],[-58.1874,6.46489],[-58.18829,6.46362],[-58.19042,6.46267],[-58.19109,6.46178],[-58.19162,6.45923],[-58.19146,6.45624],[-58.19265,6.45317],[-58.19291,6.44998],[-58.19186,6.4473],[-58.19077,6.44596],[-58.18776,6.44395],[-58.18603,6.44144],[-58.1857,6.43917],[-58.18493,6.43754],[-58.18288,6.43529],[-58.18225,6.43274],[-58.18252,6.43059],[-58.18385,6.42777],[-58.18506,6.42688],[-58.18767,6.42334],[-58.18819,6.42187],[-58.18951,6.42058],[-58.1921,6.41931],[-58.19489,6.41542],[-58.19804,6.41312],[-58.20323,6.40985],[-58.20545,6.40787],[-58.20668,6.40627],[-58.20743,6.40398],[-58.20941,6.40156],[-58.21008,6.4003],[-58.21075,6.39766],[-58.20984,6.39479],[-58.20776,6.39346],[-58.20441,6.39246],[-58.20031,6.39085],[-58.19846,6.38977],[-58.1964,6.38789],[-58.19459,6.38723],[-58.19173,6.3873],[-58.18948,6.38668],[-58.18842,6.38599],[-58.18774,6.38452],[-58.18793,6.38107],[-58.18856,6.3776],[-58.18854,6.37566],[-58.18745,6.37364],[-58.18495,6.37201],[-58.18259,6.36894],[-58.17978,6.36802],[-58.1789,6.36839],[-58.17763,6.36791],[-58.17764,6.36494],[-58.17932,6.36294],[-58.17936,6.36001],[-58.18061,6.35777],[-58.18073,6.35206],[-58.1838,6.34898],[-58.19305,6.34022],[-58.19813,6.33303],[-58.19916,6.33236],[-58.20455,6.31538],[-58.2056,6.31145],[-58.20563,6.30896],[-58.20966,6.30434],[-58.21167,6.30258],[-58.21318,6.30034],[-58.21437,6.29918],[-58.21269,6.29601],[-58.21269,6.29482],[-58.2116,6.29112],[-58.20944,6.28741],[-58.20691,6.28207],[-58.20678,6.28088],[-58.2084,6.27374],[-58.2086,6.27209],[-58.20781,6.2647],[-58.20727,6.2633],[-58.20516,6.26065],[-58.20371,6.25948],[-58.20264,6.26001],[-58.20149,6.25924],[-58.20084,6.26023],[-58.19903,6.26034],[-58.19735,6.25836],[-58.19484,6.25116],[-58.19571,6.24689],[-58.19555,6.24507],[-58.19478,6.24381],[-58.19331,6.24271],[-58.19293,6.24111],[-58.19438,6.23914],[-58.19429,6.23698],[-58.19239,6.2346],[-58.19243,6.23017],[-58.19108,6.22648],[-58.1915,6.22248],[-58.19306,6.21867],[-58.19339,6.21295],[-58.19304,6.20958],[-58.19144,6.20317],[-58.1916,6.20004],[-58.19356,6.19664],[-58.19349,6.19431],[-58.19279,6.19273],[-58.18914,6.18982],[-58.18712,6.18641],[-58.18649,6.18208],[-58.18718,6.1794],[-58.18985,6.17648],[-58.19074,6.17335],[-58.19016,6.17198],[-58.18894,6.17079],[-58.18681,6.16738],[-58.18617,6.16534],[-58.18619,6.16376],[-58.18501,6.15828],[-58.18269,6.15452],[-58.18387,6.15017],[-58.18411,6.14628],[-58.18232,6.14453],[-58.17979,6.14101],[-58.17795,6.1369],[-58.1755,6.13285],[-58.17407,6.12977],[-58.17185,6.1273],[-58.17088,6.12668],[-58.16884,6.1229],[-58.16839,6.11901],[-58.16719,6.11628],[-58.16387,6.11236],[-58.15887,6.10613],[-58.15759,6.10512],[-58.1582,6.10097],[-58.15814,6.09785],[-58.15853,6.0957],[-58.15804,6.09508],[-58.1476,6.10708],[-58.13648,6.1302],[-58.13951,6.14829],[-58.13698,6.1694],[-58.1385,6.19201],[-58.14659,6.21311],[-58.13193,6.22718],[-58.12637,6.24527],[-58.12233,6.26537],[-58.11879,6.28245],[-58.11575,6.30858],[-58.11525,6.32314],[-58.10261,6.34073],[-58.09655,6.35077],[-58.09453,6.3563],[-58.07936,6.38443],[-58.05257,6.40452],[-58.02056,6.43837],[-58.01922,6.43916],[-58.0165,6.43908],[-58.01302,6.43959],[-58.01066,6.43797],[-58.01057,6.43636],[-58.01197,6.43551],[-58.01189,6.43446],[-58.01083,6.43308],[-58.00987,6.42993],[-58.00755,6.42899],[-58.00689,6.42716],[-58.00534,6.42741],[-58.00403,6.42989],[-58.00448,6.43291],[-58.00302,6.43358],[-58.00223,6.43522],[-58.00242,6.43771],[-58.00469,6.44144],[-58.00397,6.44941],[-58.00365,6.45052],[-58.00247,6.4506],[-57.99783,6.44681],[-57.99616,6.44678],[-57.99165,6.4461],[-57.99054,6.44482],[-57.98852,6.44444],[-57.98798,6.44177],[-57.98725,6.44146],[-57.98397,6.44276],[-57.98285,6.44274],[-57.98133,6.44112],[-57.9803,6.44078],[-57.97906,6.44272],[-57.97763,6.44682],[-57.97616,6.44777],[-57.97349,6.44511],[-57.97107,6.44414],[-57.97002,6.44215],[-57.96897,6.44151],[-57.96732,6.44218],[-57.9647,6.44492],[-57.96365,6.44556],[-57.95756,6.446],[-57.95545,6.44823],[-57.95371,6.44845],[-57.9512,6.44791],[-57.94693,6.44597],[-57.94393,6.44555],[-57.94256,6.44614],[-57.9414,6.45182],[-57.94161,6.45614],[-57.94318,6.459],[-57.9486,6.46052],[-57.95199,6.45955],[-57.95344,6.45785],[-57.955,6.4573],[-57.95654,6.45778],[-57.9568,6.4597],[-57.95626,6.46102],[-57.95544,6.46612],[-57.95492,6.47057],[-57.95427,6.47189],[-57.95231,6.47206],[-57.95046,6.47154],[-57.94803,6.46995],[-57.94639,6.46981],[-57.94339,6.47302],[-57.94252,6.47442],[-57.94217,6.47614],[-57.94265,6.4779],[-57.94387,6.47943],[-57.9483,6.48271],[-57.94932,6.48439],[-57.94948,6.48594],[-57.94466,6.49252],[-57.94155,6.49627],[-57.94056,6.50112],[-57.94096,6.50456],[-57.94197,6.5079],[-57.94334,6.51381],[-57.94471,6.51813],[-57.94678,6.52021],[-57.95255,6.52361],[-57.95408,6.52406],[-57.9577,6.52803],[-57.95798,6.52984],[-57.95672,6.53157],[-57.95162,6.53685],[-57.94809,6.53784],[-57.93719,6.53716],[-57.93386,6.53476],[-57.93225,6.52363],[-57.93065,6.5226],[-57.92709,6.52213],[-57.92476,6.52335],[-57.92311,6.52614],[-57.92206,6.53094],[-57.92119,6.53392],[-57.92006,6.53617],[-57.91825,6.53693],[-57.91448,6.53641],[-57.91043,6.53375],[-57.90767,6.53103],[-57.90538,6.52833],[-57.90335,6.52688],[-57.90183,6.52664],[-57.89893,6.52795],[-57.89557,6.52978],[-57.89287,6.52999],[-57.88881,6.52964],[-57.88229,6.52867],[-57.88057,6.5293],[-57.87941,6.53298],[-57.87747,6.54002],[-57.87734,6.54155],[-57.87934,6.54491],[-57.88077,6.54606],[-57.88314,6.54857],[-57.88486,6.55199],[-57.88776,6.55648],[-57.88905,6.56136],[-57.89013,6.56912],[-57.89053,6.57434],[-57.893,6.58242],[-57.89403,6.58466],[-57.89461,6.58683],[-57.8944,6.58903],[-57.89297,6.59334],[-57.8929,6.59524],[-57.8924,6.597],[-57.89184,6.59995],[-57.89163,6.60106],[-57.898,6.60286],[-57.91331,6.60745],[-57.91333,6.60745],[-57.94075,6.61566]]]},"properties":{"ID":"419","NAME":"St. Cuthberts / Orange Nassau (Mahaica River)","STATUS":"Not Classified","Males_2012":609,"Fem_2012":516,"Tot_2012":1125}},
{"type":"Feature","geometry":{"type":"Polygon","coordinates":[[[-58.24737,6.53554],[-58.2493,6.53363],[-58.26074,6.5239],[-58.28151,6.50377],[-58.29199,6.49303],[-58.30194,6.48484],[-58.30555,6.48296],[-58.30932,6.48074],[-58.31173,6.47802],[-58.31293,6.47409],[-58.31413,6.46829],[-58.31413,6.45959],[-58.31344,6.45635],[-58.31138,6.45226],[-58.3064,6.44697],[-58.30246,6.44493],[-58.29611,6.43844],[-58.29336,6.43384],[-58.29267,6.42974],[-58.29199,6.4219],[-58.29199,6.40689],[-58.29233,6.40279],[-58.29559,6.39767],[-58.30314,6.39017],[-58.31087,6.37865],[-58.31284,6.37541],[-58.31422,6.37242],[-58.3143,6.36756],[-58.3131,6.36227],[-58.31073,6.35631],[-58.31037,6.35078],[-58.3107,6.34769],[-58.31258,6.33806],[-58.31231,6.33411],[-58.31014,6.32908],[-58.30667,6.32545],[-58.30159,6.32086],[-58.29367,6.3158],[-58.28102,6.30575],[-58.27413,6.29983],[-58.26919,6.29637],[-58.26748,6.29344],[-58.26698,6.2895],[-58.26751,6.28379],[-58.2689,6.28029],[-58.27238,6.27407],[-58.27274,6.27245],[-58.27265,6.27023],[-58.27104,6.26594],[-58.27101,6.26317],[-58.27269,6.25778],[-58.27491,6.25451],[-58.28689,6.24247],[-58.28879,6.23907],[-58.28992,6.23617],[-58.29298,6.22716],[-58.29614,6.21903],[-58.2996,6.21252],[-58.29994,6.21015],[-58.29956,6.20787],[-58.29849,6.20645],[-58.29407,6.20344],[-58.28946,6.20217],[-58.28332,6.20134],[-58.28157,6.20026],[-58.28008,6.19742],[-58.27884,6.19218],[-58.27773,6.18362],[-58.2776,6.17517],[-58.27877,6.16842],[-58.27878,6.16614],[-58.27769,6.16381],[-58.27294,6.15872],[-58.26991,6.15466],[-58.26741,6.1504],[-58.26517,6.14821],[-58.25957,6.14405],[-58.25868,6.14107],[-58.25876,6.13644],[-58.25962,6.13322],[-58.26321,6.12503],[-58.26666,6.11497],[-58.26822,6.11243],[-58.27363,6.10641],[-58.28089,6.0991],[-58.28566,6.09518],[-58.27733,6.09051],[-58.26114,6.09548],[-58.23552,6.1148],[-58.21668,6.12592],[-58.19902,6.12066],[-58.1899,6.10983],[-58.18224,6.09929],[-58.17577,6.08436],[-58.16973,6.08407],[-58.15972,6.09314],[-58.15804,6.09508],[-58.15853,6.0957],[-58.15814,6.09785],[-58.1582,6.10097],[-58.15759,6.10512],[-58.15887,6.10613],[-58.16387,6.11236],[-58.16719,6.11628],[-58.16839,6.11901],[-58.16884,6.1229],[-58.17088,6.12668],[-58.17185,6.1273],[-58.17407,6.12977],[-58.1755,6.13285],[-58.17795,6.1369],[-58.17979,6.14101],[-58.18232,6.14453],[-58.18411,6.14628],[-58.18387,6.15017],[-58.18269,6.15452],[-58.18501,6.15828],[-58.18619,6.16376],[-58.18617,6.16534],[-58.18681,6.16738],[-58.18894,6.17079],[-58.19016,6.17198],[-58.19074,6.17335],[-58.18985,6.17648],[-58.18718,6.1794],[-58.18649,6.18208],[-58.18712,6.18641],[-58.18914,6.18982],[-58.19279,6.19273],[-58.19349,6.19431],[-58.19356,6.19664],[-58.1916,6.20004],[-58.19144,6.20317],[-58.19304,6.20958],[-58.19339,6.21295],[-58.19306,6.21867],[-58.1915,6.22248],[-58.19108,6.22648],[-58.19243,6.23017],[-58.19239,6.2346],[-58.19429,6.23698],[-58.19438,6.23914],[-58.19293,6.24111],[-58.19331,6.24271],[-58.19478,6.24381],[-58.19555,6.24507],[-58.19571,6.24689],[-58.19484,6.25116],[-58.19735,6.25836],[-58.19903,6.26034],[-58.20084,6.26023],[-58.20149,6.25924],[-58.20264,6.26001],[-58.20371,6.25948],[-58.20516,6.26065],[-58.20727,6.2633],[-58.20781,6.2647],[-58.2086,6.27209],[-58.2084,6.27374],[-58.20678,6.28088],[-58.20691,6.28207],[-58.20944,6.28741],[-58.2116,6.29112],[-58.21269,6.29482],[-58.21269,6.29601],[-58.21437,6.29918],[-58.21318,6.30034],[-58.21167,6.30258],[-58.20966,6.30434],[-58.20563,6.30896],[-58.2056,6.31145],[-58.20455,6.31538],[-58.19916,6.33236],[-58.19813,6.33303],[-58.19305,6.34022],[-58.1838,6.34898],[-58.18073,6.35206],[-58.18061,6.35777],[-58.17936,6.36001],[-58.17932,6.36294],[-58.17764,6.36494],[-58.17763,6.36791],[-58.1789,6.36839],[-58.17978,6.36802],[-58.18259,6.36894],[-58.18495,6.37201],[-58.18745,6.37364],[-58.18854,6.37566],[-58.18856,6.3776],[-58.18793,6.38107],[-58.18774,6.38452],[-58.18842,6.38599],[-58.18948,6.38668],[-58.19173,6.3873],[-58.19459,6.38723],[-58.1964,6.38789],[-58.19846,6.38977],[-58.20031,6.39085],[-58.20441,6.39246],[-58.20776,6.39346],[-58.20984,6.39479],[-58.21075,6.39766],[-58.21008,6.4003],[-58.20941,6.40156],[-58.20743,6.40398],[-58.20668,6.40627],[-58.20545,6.40787],[-58.20323,6.40985],[-58.19804,6.41312],[-58.19489,6.41542],[-58.1921,6.41931],[-58.18951,6.42058],[-58.18819,6.42187],[-58.18767,6.42334],[-58.18506,6.42688],[-58.18385,6.42777],[-58.18252,6.43059],[-58.18225,6.43274],[-58.18288,6.43529],[-58.18493,6.43754],[-58.1857,6.43917],[-58.18603,6.44144],[-58.18776,6.44395],[-58.19077,6.44596],[-58.19186,6.4473],[-58.19291,6.44998],[-58.19265,6.45317],[-58.19146,6.45624],[-58.19162,6.45923],[-58.19109,6.46178],[-58.19042,6.46267],[-58.18829,6.46362],[-58.1874,6.46489],[-58.18738,6.4676],[-58.18842,6.47116],[-58.1899,6.47497],[-58.18999,6.47607],[-58.18812,6.47802],[-58.18474,6.47928],[-58.18378,6.48133],[-58.18352,6.48289],[-58.18176,6.48457],[-58.18034,6.48662],[-58.17722,6.48909],[-58.17608,6.48939],[-58.16932,6.49632],[-58.16788,6.50456],[-58.1679,6.50821],[-58.16702,6.51174],[-58.16435,6.51421],[-58.1635,6.51539],[-58.16389,6.51756],[-58.16275,6.51858],[-58.16121,6.51899],[-58.1556,6.52288],[-58.15268,6.52441],[-58.15038,6.52464],[-58.1464,6.52292],[-58.1429,6.52312],[-58.13941,6.5243],[-58.13659,6.52612],[-58.13398,6.53058],[-58.13438,6.53777],[-58.13351,6.53911],[-58.13176,6.53988],[-58.12984,6.53979],[-58.12669,6.53845],[-58.12304,6.53612],[-58.12122,6.53621],[-58.12033,6.53749],[-58.12011,6.53973],[-58.12057,6.54193],[-58.12172,6.54458],[-58.12316,6.54651],[-58.12405,6.54855],[-58.12388,6.55108],[-58.12457,6.55349],[-58.12322,6.55675],[-58.12094,6.55983],[-58.11989,6.56081],[-58.11726,6.56484],[-58.11713,6.56569],[-58.11817,6.57012],[-58.1174,6.57471],[-58.11732,6.57583],[-58.11721,6.57663],[-58.11709,6.57732],[-58.11708,6.57735],[-58.11729,6.57727],[-58.11771,6.5771],[-58.11883,6.57667],[-58.11984,6.57631],[-58.11995,6.57623],[-58.12064,6.57569],[-58.1225,6.57583],[-58.12288,6.57609],[-58.12352,6.57652],[-58.12384,6.57674],[-58.12421,6.57671],[-58.12516,6.57677],[-58.12536,6.57744],[-58.12592,6.57816],[-58.12618,6.57815],[-58.12669,6.57817],[-58.12768,6.57834],[-58.12774,6.57835],[-58.12781,6.57965],[-58.12806,6.5803],[-58.12814,6.58035],[-58.12818,6.58037],[-58.12874,6.58074],[-58.12888,6.58114],[-58.12891,6.5814],[-58.12725,6.58344],[-58.12797,6.58597],[-58.12932,6.58738],[-58.12954,6.58937],[-58.12839,6.58888],[-58.12844,6.59195],[-58.12761,6.59238],[-58.1306,6.59536],[-58.13324,6.5983],[-58.1373,6.60229],[-58.13832,6.60383],[-58.13944,6.60422],[-58.1419,6.604],[-58.14389,6.6042],[-58.14501,6.60335],[-58.14705,6.60297],[-58.15206,6.60278],[-58.1528,6.60222],[-58.15521,6.60191],[-58.15822,6.6006],[-58.16571,6.60151],[-58.16775,6.60056],[-58.16939,6.59904],[-58.17069,6.59969],[-58.1714,6.59857],[-58.1729,6.59809],[-58.17296,6.59738],[-58.17649,6.59466],[-58.17801,6.59412],[-58.17733,6.5925],[-58.178,6.59139],[-58.17682,6.59044],[-58.17609,6.58683],[-58.17441,6.58541],[-58.17578,6.5826],[-58.17622,6.58106],[-58.17524,6.57941],[-58.17597,6.57818],[-58.175,6.57619],[-58.17694,6.57471],[-58.17859,6.57274],[-58.17994,6.57047],[-58.1814,6.56703],[-58.18295,6.56176],[-58.18221,6.56028],[-58.1762,6.55845],[-58.17653,6.55018],[-58.20053,6.55521],[-58.20536,6.54853],[-58.21202,6.53937],[-58.21526,6.53439],[-58.21531,6.53441],[-58.21586,6.5347],[-58.2165,6.53308],[-58.22047,6.52753],[-58.22654,6.51928],[-58.22823,6.51737],[-58.22905,6.51645],[-58.2467,6.53488],[-58.24737,6.53554]]]},"properties":{"ID":"418","NAME":"Soesdyke-Linden highway (including Timehri)","STATUS":"Neighbourhood Democratic Council","Males_2012":5222,"Fem_2012":4830,"Tot_2012":10052}},
{"type":"Feature","geometry":{"type":"Polygon","coordinates":[[[-58.10526,6.82383],[-58.10573,6.82392],[-58.10802,6.82455],[-58.11138,6.82524],[-58.1187,6.82615],[-58.12043,6.82687],[-58.12242,6.82713],[-58.12352,6.82657],[-58.13442,6.82556],[-58.13981,6.82646],[-58.1423,6.8278],[-58.14631,6.82712],[-58.14874,6.82693],[-58.15098,6.82633],[-58.15731,6.82597],[-58.16497,6.82834],[-58.16892,6.83055],[-58.17033,6.81782],[-58.1726,6.80894],[-58.17283,6.80763],[-58.18199,6.7828],[-58.18191,6.78277],[-58.17423,6.78027],[-58.15849,6.77622],[-58.1549,6.77546],[-58.12198,6.76713],[-58.12191,6.76711],[-58.12032,6.7732],[-58.12012,6.77392],[-58.11796,6.78054],[-58.11157,6.80224],[-58.10974,6.80867],[-58.10765,6.8155],[-58.10579,6.82207],[-58.10524,6.82383],[-58.10526,6.82383]]]},"properties":{"ID":"416","NAME":"City of Georgetown","STATUS":"Municipality","Males_2012":64455,"Fem_2012":70991,"Tot_2012":135446}},
{"type":"Feature","geometry":{"type":"Polygon","coordinates":[[[-58.11049,6.7246],[-58.08385,6.71771],[-58.08298,6.72142],[-58.08069,6.72969],[-58.07184,6.76596],[-58.0648,6.79429],[-58.06267,6.80235],[-58.05948,6.81501],[-58.06121,6.81589],[-58.07064,6.81879],[-58.07494,6.81989],[-58.07583,6.81972],[-58.08634,6.8224],[-58.08794,6.8147],[-58.09127,6.80203],[-58.09741,6.77678],[-58.10456,6.74825],[-58.10955,6.72865],[-58.11049,6.7246]]]},"properties":{"ID":"408","NAME":"Better Hope/ LBI","STATUS":"Neighbourhood Democratic Council","Males_2012":8550,"Fem_2012":8676,"Tot_2012":17226}},
{"type":"Feature","geometry":{"type":"Polygon","coordinates":[[[-58.08385,6.71771],[-58.08005,6.71641],[-58.07879,6.72027],[-58.07607,6.72977],[-58.06741,6.76127],[-58.06601,6.76612],[-58.06094,6.78467],[-58.05628,6.80219],[-58.05315,6.81206],[-58.05665,6.81416],[-58.05948,6.81501],[-58.06267,6.80235],[-58.0648,6.79429],[-58.07184,6.76596],[-58.08069,6.72969],[-58.08298,6.72142],[-58.08385,6.71771]]]},"properties":{"ID":"407","NAME":"Beterverwagting/Triumph","STATUS":"Neighbourhood Democratic Council","Males_2012":3530,"Fem_2012":3603,"Tot_2012":7133}},
{"type":"Feature","geometry":{"type":"Polygon","coordinates":[[[-58.08005,6.71641],[-58.07305,6.71481],[-58.05198,6.70933],[-58.04918,6.71687],[-58.0454,6.72977],[-58.03565,6.76603],[-58.02849,6.7923],[-58.02631,6.80075],[-58.02924,6.8026],[-58.03035,6.80162],[-58.03235,6.80235],[-58.03419,6.80216],[-58.04399,6.805],[-58.0474,6.80659],[-58.04738,6.80862],[-58.05073,6.80933],[-58.05111,6.81039],[-58.05315,6.81206],[-58.05628,6.80219],[-58.06094,6.78467],[-58.06601,6.76612],[-58.06741,6.76127],[-58.07607,6.72977],[-58.07879,6.72027],[-58.08005,6.71641]]]},"properties":{"ID":"406","NAME":"Man Repos/ La Reconnaissance","STATUS":"Neighbourhood Democratic Council","Males_2012":8769,"Fem_2012":8546,"Tot_2012":17315}},
{"type":"Feature","geometry":{"type":"Polygon","coordinates":[[[-58.05198,6.70933],[-58.05171,6.70926],[-58.05786,6.69252],[-58.05851,6.69172],[-58.05083,6.68973],[-58.04723,6.6866],[-58.01869,6.67371],[-58.01283,6.69365],[-58.00271,6.72986],[-57.99739,6.74917],[-57.99668,6.75099],[-57.99264,6.7659],[-57.991,6.7721],[-57.99084,6.77263],[-57.99077,6.77285],[-57.99196,6.77406],[-57.99603,6.77774],[-58.0009,6.78165],[-58.00707,6.78764],[-58.00971,6.78989],[-58.01731,6.79525],[-58.02117,6.7986],[-58.02447,6.7995],[-58.02623,6.8005],[-58.02849,6.7923],[-58.03565,6.76603],[-58.0454,6.72977],[-58.04918,6.71687],[-58.05198,6.70933]]]},"properties":{"ID":"405","NAME":"Buxton / Foulis","STATUS":"Neighbourhood Democratic Council","Males_2012":12009,"Fem_2012":12633,"Tot_2012":24642}},
{"type":"Feature","geometry":{"type":"Polygon","coordinates":[[[-58.01869,6.67371],[-58.0133,6.67042],[-58.01043,6.66772],[-58.0037,6.6937],[-57.9935,6.73165],[-57.9921,6.73141],[-57.98499,6.76105],[-57.98494,6.76287],[-57.98378,6.76606],[-57.98344,6.76746],[-57.98352,6.768],[-57.9835,6.76802],[-57.98381,6.76831],[-57.98459,6.76879],[-57.98719,6.77016],[-57.98931,6.77171],[-57.99077,6.77285],[-57.99084,6.77263],[-57.991,6.7721],[-57.99264,6.7659],[-57.99668,6.75099],[-57.99739,6.74917],[-58.00271,6.72986],[-58.01283,6.69365],[-58.01869,6.67371]]]},"properties":{"ID":"404","NAME":"Enmore / Hope","STATUS":"Neighbourhood Democratic Council","Males_2012":2925,"Fem_2012":2888,"Tot_2012":5813}},
{"type":"Feature","geometry":{"type":"Polygon","coordinates":[[[-57.9314,6.72208],[-57.9343,6.72647],[-57.93699,6.72837],[-57.94498,6.736],[-57.94537,6.73834],[-57.95076,6.7437],[-57.95265,6.74358],[-57.95491,6.7456],[-57.95649,6.7464],[-57.96488,6.75266],[-57.9679,6.75524],[-57.96981,6.7563],[-57.97009,6.75707],[-57.97355,6.76],[-57.97435,6.76025],[-57.97822,6.7636],[-57.98006,6.76496],[-57.98066,6.76548],[-57.98248,6.76713],[-57.98333,6.76788],[-57.98338,6.76792],[-57.98347,6.768],[-57.9835,6.76802],[-57.98352,6.768],[-57.98344,6.76746],[-57.98378,6.76606],[-57.98494,6.76287],[-57.98499,6.76105],[-57.9921,6.73141],[-57.9935,6.73165],[-58.0037,6.6937],[-58.01043,6.66772],[-58.00611,6.66522],[-58.00267,6.66406],[-57.99943,6.66142],[-57.99299,6.6583],[-57.98912,6.65574],[-57.96628,6.64462],[-57.96511,6.65057],[-57.96313,6.65759],[-57.95935,6.67244],[-57.95884,6.67384],[-57.95644,6.68307],[-57.94948,6.68117],[-57.94671,6.69135],[-57.94564,6.69471],[-57.93882,6.6929],[-57.93711,6.69961],[-57.9314,6.72208]]]},"properties":{"ID":"403","NAME":"Haslington / Grove","STATUS":"Neighbourhood Democratic Council","Males_2012":8650,"Fem_2012":8888,"Tot_2012":17538}},
{"type":"Feature","geometry":{"type":"Polygon","coordinates":[[[-57.92264,6.66258],[-57.92312,6.66437],[-57.92509,6.66779],[-57.92383,6.66981],[-57.92072,6.67318],[-57.91911,6.67434],[-57.91804,6.67574],[-57.91677,6.67867],[-57.91597,6.68195],[-57.91564,6.68705],[-57.9141,6.68932],[-57.91404,6.69096],[-57.91904,6.69641],[-57.91896,6.70127],[-57.91839,6.70269],[-57.91879,6.70387],[-57.92063,6.70637],[-57.92134,6.70642],[-57.92354,6.71232],[-57.92823,6.71774],[-57.92886,6.71859],[-57.93069,6.72112],[-57.9314,6.72208],[-57.93711,6.69961],[-57.93882,6.6929],[-57.94564,6.69471],[-57.94671,6.69135],[-57.94948,6.68117],[-57.95644,6.68307],[-57.95884,6.67384],[-57.95935,6.67244],[-57.92264,6.66258]]]},"properties":{"ID":"402","NAME":"Unity / Vereeniging","STATUS":"Neighbourhood Democratic Council","Males_2012":4551,"Fem_2012":4482,"Tot_2012":9033}},
{"type":"Feature","geometry":{"type":"Polygon","coordinates":[[[-57.94075,6.61566],[-57.93877,6.61761],[-57.93614,6.62054],[-57.93163,6.62517],[-57.94173,6.63064],[-57.94903,6.63497],[-57.96628,6.64462],[-57.98912,6.65574],[-57.99299,6.6583],[-57.99943,6.66142],[-58.00267,6.66406],[-58.00611,6.66522],[-58.01043,6.66772],[-58.0133,6.67042],[-58.01869,6.67371],[-58.04723,6.6866],[-58.05083,6.68973],[-58.05851,6.69172],[-58.05786,6.69252],[-58.05171,6.70926],[-58.05198,6.70933],[-58.07305,6.71481],[-58.08005,6.71641],[-58.08385,6.71771],[-58.11049,6.7246],[-58.11515,6.72545],[-58.11697,6.72452],[-58.1279,6.71427],[-58.13214,6.71035],[-58.13327,6.69328],[-58.13389,6.68484],[-58.13382,6.68139],[-58.13428,6.67835],[-58.13703,6.67847],[-58.13885,6.67597],[-58.15116,6.66462],[-58.1567,6.65802],[-58.16543,6.64702],[-58.16732,6.64435],[-58.17334,6.6248],[-58.17639,6.62082],[-58.18228,6.61282],[-58.19078,6.58473],[-58.19204,6.5797],[-58.18883,6.57335],[-58.18295,6.56176],[-58.1814,6.56703],[-58.17994,6.57047],[-58.17859,6.57274],[-58.17694,6.57471],[-58.175,6.57619],[-58.17597,6.57818],[-58.17524,6.57941],[-58.17622,6.58106],[-58.17578,6.5826],[-58.17441,6.58541],[-58.17609,6.58683],[-58.17682,6.59044],[-58.178,6.59139],[-58.17733,6.5925],[-58.17801,6.59412],[-58.17649,6.59466],[-58.17296,6.59738],[-58.1729,6.59809],[-58.1714,6.59857],[-58.17069,6.59969],[-58.16939,6.59904],[-58.16775,6.60056],[-58.16571,6.60151],[-58.15822,6.6006],[-58.15521,6.60191],[-58.1528,6.60222],[-58.15206,6.60278],[-58.14705,6.60297],[-58.14501,6.60335],[-58.14389,6.6042],[-58.1419,6.604],[-58.13944,6.60422],[-58.13832,6.60383],[-58.1373,6.60229],[-58.13324,6.5983],[-58.1306,6.59536],[-58.12761,6.59238],[-58.12844,6.59195],[-58.12839,6.58888],[-58.12954,6.58937],[-58.12932,6.58738],[-58.12797,6.58597],[-58.12725,6.58344],[-58.12891,6.5814],[-58.12888,6.58114],[-58.12874,6.58074],[-58.12818,6.58037],[-58.12814,6.58035],[-58.12806,6.5803],[-58.12781,6.57965],[-58.12774,6.57835],[-58.12768,6.57834],[-58.12669,6.57817],[-58.12618,6.57815],[-58.12592,6.57816],[-58.12536,6.57744],[-58.12516,6.57677],[-58.12421,6.57671],[-58.12384,6.57674],[-58.12352,6.57652],[-58.12288,6.57609],[-58.1225,6.57583],[-58.12064,6.57569],[-58.11995,6.57623],[-58.11984,6.57631],[-58.11883,6.57667],[-58.11771,6.5771],[-58.11729,6.57727],[-58.11708,6.57735],[-58.11695,6.57736],[-58.11634,6.57745],[-58.116,6.57749],[-58.11368,6.57676],[-58.11268,6.57555],[-58.11091,6.57561],[-58.10706,6.57713],[-58.10624,6.57655],[-58.1035,6.57701],[-58.10065,6.57635],[-58.09915,6.57653],[-58.09905,6.57654],[-58.09756,6.57638],[-58.09752,6.57634],[-58.09732,6.57614],[-58.0965,6.57531],[-58.09587,6.57488],[-58.09402,6.5743],[-58.09259,6.5733],[-58.08729,6.56958],[-58.087,6.56917],[-58.08697,6.56913],[-58.08666,6.56882],[-58.08663,6.56879],[-58.08652,6.56864],[-58.08641,6.56853],[-58.08621,6.56828],[-58.0862,6.56827],[-58.08618,6.56825],[-58.08613,6.56815],[-58.08612,6.56814],[-58.08598,6.56769],[-58.08668,6.56647],[-58.08743,6.56172],[-58.08662,6.56114],[-58.08586,6.56091],[-58.08525,6.56073],[-58.08329,6.56138],[-58.08119,6.56296],[-58.07773,6.56398],[-58.07656,6.56423],[-58.07597,6.56435],[-58.07532,6.56475],[-58.07485,6.56495],[-58.07434,6.56509],[-58.0743,6.5651],[-58.07329,6.56536],[-58.07156,6.56533],[-58.07123,6.56536],[-58.07072,6.56541],[-58.07059,6.56544],[-58.07053,6.56545],[-58.0699,6.56561],[-58.06909,6.56593],[-58.069,6.56598],[-58.06822,6.56604],[-58.06683,6.56586],[-58.0662,6.56585],[-58.06564,6.56581],[-58.06494,6.56577],[-58.06409,6.56565],[-58.06313,6.5655],[-58.06312,6.56549],[-58.06093,6.56413],[-58.06053,6.56308],[-58.06052,6.56304],[-58.06032,6.56179],[-58.0599,6.56133],[-58.05974,6.56127],[-58.05902,6.56104],[-58.05874,6.56077],[-58.05846,6.56051],[-58.05809,6.56004],[-58.05793,6.55983],[-58.0579,6.55978],[-58.05752,6.55907],[-58.05532,6.55791],[-58.05352,6.55545],[-58.05346,6.55372],[-58.05371,6.55009],[-58.05308,6.54889],[-58.05039,6.54876],[-58.04796,6.54729],[-58.04643,6.54528],[-58.04434,6.54578],[-58.04118,6.54554],[-58.03885,6.54423],[-58.03569,6.54365],[-58.03248,6.54213],[-58.03071,6.54176],[-58.02756,6.5396],[-58.0264,6.53938],[-58.02555,6.53726],[-58.02523,6.53454],[-58.02309,6.53432],[-58.02058,6.53195],[-58.02034,6.53361],[-58.01927,6.53686],[-58.01414,6.54453],[-58.00965,6.54561],[-58.0043,6.55121],[-57.9719,6.58426],[-57.96341,6.59258],[-57.94135,6.61507],[-57.94081,6.61568],[-57.94075,6.61566]]]},"properties":{"ID":"420","NAME":"Demerara Conservancy","STATUS":"Conservancy","Males_2012":0,"Fem_2012":0,"Tot_2012":0}}
]}