{"type":"FeatureCollection", "features": [
{"type":"Feature","geometry":{"type":"Polygon","coordinates":[[[-58.55751,7.33727],[-58.54506,7.30132],[-58.54471,7.29917],[-58.54447,7.29777],[-58.54426,7.2967],[-58.54368,7.29342],[-58.54236,7.28822],[-58.54198,7.28742],[-58.5418,7.28709],[-58.54165,7.28678],[-58.54162,7.28672],[-58.5413,7.28612],[-58.53841,7.27715],[-58.53838,7.27671],[-58.53834,7.27586],[-58.53783,7.27406],[-58.53677,7.27164],[-58.53529,7.26791],[-58.53529,7.2679],[-58.53505,7.26629],[-58.5351,7.26495],[-58.53179,7.2544],[-58.53092,7.25259],[-58.53072,7.25219],[-58.52972,7.25056],[-58.52882,7.24899],[-58.5283,7.24697],[-58.52811,7.24634],[-58.52776,7.24528],[-58.52727,7.24424],[-58.52629,7.24181],[-58.52605,7.24126],[-58.52481,7.24119],[-58.52411,7.24115],[-58.52234,7.23524],[-58.5223,7.23509],[-58.52145,7.23191],[-58.52141,7.23178],[-58.52138,7.23165],[-58.52126,7.23126],[-58.51781,7.23115],[-58.51156,7.23086],[-58.51,7.23076],[-58.50563,7.23045],[-58.50443,7.23035],[-58.5015,7.23017],[-58.498,7.22994],[-58.49196,7.22953],[-58.48784,7.22923],[-58.48675,7.22914],[-58.48363,7.22892],[-58.48358,7.22892],[-58.48258,7.23978],[-58.48207,7.23978],[-58.47866,7.2617],[-58.4775,7.26221],[-58.47635,7.26763],[-58.47543,7.28343],[-58.4762,7.28975],[-58.47619,7.30955],[-58.47751,7.31264],[-58.47801,7.3221],[-58.47994,7.32385],[-58.47995,7.32957],[-58.48108,7.33258],[-58.4955,7.33324],[-58.52192,7.33564],[-58.55751,7.33727]]]},"properties":{"qc_id":0,"ndc_id":206,"ndc":"Anna Regina","reg_name":"Pomeroon-Supenaam","region":2,"status":"Neighborhood Democratic Councils","tot_males":2736,"tot_female":2715,"total":5451}},
{"type":"Feature","geometry":{"type":"Polygon","coordinates":[[[-58.5141,6.97001],[-58.50258,6.97768],[-58.50045,6.98019],[-58.49535,6.98909],[-58.49123,7.00033],[-58.49085,7.00393],[-58.48711,7.0129],[-58.48489,7.02143],[-58.48114,7.05067],[-58.48049,7.05269],[-58.48567,7.05425],[-58.48873,7.05512],[-58.49538,7.05725],[-58.50467,7.06011],[-58.50469,7.06012],[-58.50519,7.06024],[-58.50611,7.06023],[-58.50599,7.05935],[-58.50752,7.05405],[-58.50298,7.05205],[-58.50121,7.04866],[-58.50585,7.02316],[-58.50764,7.00635],[-58.50975,7.00276],[-58.52564,6.99645],[-58.52568,6.99643],[-58.52617,6.99171],[-58.52267,6.98667],[-58.5225,6.98151],[-58.52065,6.97768],[-58.51578,6.97291],[-58.51489,6.97133],[-58.5141,6.97001]]]},"properties":{"qc_id":1,"ndc_id":201,"ndc":"Good Hope / Pomona","reg_name":"Pomeroon-Supenaam","region":2,"status":"Neighborhood Democratic Councils","tot_males":1153,"tot_female":1150,"total":2303}},
{"type":"Feature","geometry":{"type":"Polygon","coordinates":[[[-58.48108,7.33258],[-58.4836,7.34278],[-58.48708,7.34748],[-58.49074,7.35597],[-58.50032,7.36775],[-58.50846,7.3748],[-58.51677,7.38337],[-58.51859,7.38934],[-58.52975,7.40184],[-58.53537,7.41085],[-58.53818,7.41314],[-58.53942,7.4141],[-58.53943,7.4141],[-58.54069,7.41317],[-58.54071,7.41315],[-58.54118,7.41272],[-58.54358,7.40979],[-58.54627,7.40717],[-58.5508,7.40324],[-58.55549,7.39926],[-58.55618,7.39869],[-58.56532,7.39061],[-58.57449,7.38237],[-58.58297,7.37475],[-58.58643,7.37138],[-58.58646,7.37135],[-58.5867,7.37111],[-58.58669,7.3711],[-58.5819,7.3677],[-58.58156,7.3675],[-58.57325,7.36251],[-58.57258,7.36216],[-58.56736,7.35944],[-58.56331,7.35729],[-58.5633,7.35728],[-58.5627,7.35508],[-58.55996,7.34508],[-58.55965,7.34406],[-58.55946,7.34307],[-58.55824,7.33952],[-58.55824,7.3395],[-58.5578,7.33814],[-58.55751,7.33727],[-58.52192,7.33564],[-58.4955,7.33324],[-58.48108,7.33258]]]},"properties":{"qc_id":2,"ndc_id":204,"ndc":"Evergreen / Paradise","reg_name":"Pomeroon-Supenaam","region":2,"status":"Neighborhood Democratic Councils","tot_males":1021,"tot_female":1032,"total":2053}},
{"type":"Feature","geometry":{"type":"Polygon","coordinates":[[[-58.52138,7.23165],[-58.52135,7.23156],[-58.52102,7.23039],[-58.5187,7.22211],[-58.51804,7.21998],[-58.51613,7.21379],[-58.51441,7.20835],[-58.51424,7.20775],[-58.51408,7.20724],[-58.51371,7.20629],[-58.50751,7.19206],[-58.50758,7.19067],[-58.50758,7.19066],[-58.50763,7.18929],[-58.50763,7.18926],[-58.50764,7.18826],[-58.50744,7.18802],[-58.50729,7.18761],[-58.50724,7.18748],[-58.50616,7.18403],[-58.50486,7.17973],[-58.50363,7.1762],[-58.50389,7.17621],[-58.50467,7.17622],[-58.50459,7.17385],[-58.50421,7.17314],[-58.50413,7.17298],[-58.50184,7.1729],[-58.49163,7.17196],[-58.49125,7.17193],[-58.48551,7.17152],[-58.48329,7.17137],[-58.48806,7.18651],[-58.48841,7.18979],[-58.48818,7.204],[-58.48574,7.20853],[-58.48552,7.21809],[-58.48436,7.22113],[-58.48393,7.22586],[-58.48376,7.22814],[-58.48363,7.22892],[-58.48675,7.22914],[-58.48784,7.22923],[-58.49196,7.22953],[-58.498,7.22994],[-58.5015,7.23017],[-58.50443,7.23035],[-58.50563,7.23045],[-58.51,7.23076],[-58.51156,7.23086],[-58.51781,7.23115],[-58.52126,7.23126],[-58.52138,7.23165]]]},"properties":{"qc_id":3,"ndc_id":203,"ndc":"Aberdeen / Zorg-en-Vlygt","reg_name":"Pomeroon-Supenaam","region":2,"status":"Neighborhood Democratic Councils","tot_males":837,"tot_female":844,"total":1681}},
{"type":"Feature","geometry":{"type":"Polygon","coordinates":[[[-58.53942,7.4141],[-58.5394,7.41412],[-58.55127,7.42907],[-58.56699,7.45359],[-58.59183,7.43264],[-58.61103,7.41608],[-58.61623,7.41223],[-58.6183,7.40672],[-58.61636,7.40192],[-58.61344,7.39751],[-58.60862,7.3928],[-58.59973,7.388],[-58.59994,7.3856],[-58.60964,7.38098],[-58.61196,7.38091],[-58.61861,7.37401],[-58.61287,7.36881],[-58.60879,7.37425],[-58.59726,7.37795],[-58.58671,7.37112],[-58.5867,7.37111],[-58.58646,7.37135],[-58.58643,7.37138],[-58.58297,7.37475],[-58.57449,7.38237],[-58.56532,7.39061],[-58.55618,7.39869],[-58.55549,7.39926],[-58.5508,7.40324],[-58.54627,7.40717],[-58.54358,7.40979],[-58.54118,7.41272],[-58.54071,7.41315],[-58.54069,7.41317],[-58.53943,7.4141],[-58.53942,7.4141]]]},"properties":{"qc_id":4,"ndc_id":205,"ndc":"Charity / Urasara","reg_name":"Pomeroon-Supenaam","region":2,"status":"Neighborhood Democratic Councils","tot_males":3301,"tot_female":3130,"total":6431}},
{"type":"Feature","geometry":{"type":"Polygon","coordinates":[[[-58.50611,7.06023],[-58.50519,7.06024],[-58.50469,7.06012],[-58.50467,7.06011],[-58.49538,7.05725],[-58.48873,7.05512],[-58.48567,7.05425],[-58.4805,7.0527],[-58.47781,7.08103],[-58.47774,7.09907],[-58.47698,7.10114],[-58.47629,7.11614],[-58.47582,7.11729],[-58.47386,7.14131],[-58.47435,7.1495],[-58.47904,7.16304],[-58.48009,7.16299],[-58.48318,7.17128],[-58.49125,7.17193],[-58.49163,7.17196],[-58.50184,7.1729],[-58.50413,7.17298],[-58.50413,7.17297],[-58.50412,7.17296],[-58.50414,7.17297],[-58.50415,7.17298],[-58.50204,7.16844],[-58.49842,7.16886],[-58.4986,7.16378],[-58.49836,7.15936],[-58.49788,7.15063],[-58.49776,7.14925],[-58.4974,7.14722],[-58.49565,7.13728],[-58.49414,7.12903],[-58.49227,7.12084],[-58.49107,7.11449],[-58.48673,7.09566],[-58.49059,7.09581],[-58.4924,7.09037],[-58.49294,7.08953],[-58.49481,7.07285],[-58.49432,7.06708],[-58.49481,7.06618],[-58.49578,7.06745],[-58.4967,7.06757],[-58.49699,7.06758],[-58.49707,7.06759],[-58.49734,7.06759],[-58.49775,7.06763],[-58.49806,7.06753],[-58.49923,7.06785],[-58.49998,7.06687],[-58.50155,7.06691],[-58.50199,7.06723],[-58.50173,7.06848],[-58.50194,7.06861],[-58.50235,7.06883],[-58.50282,7.06882],[-58.50322,7.06883],[-58.50336,7.06884],[-58.50356,7.06885],[-58.5037,7.06886],[-58.50392,7.06889],[-58.50496,7.06886],[-58.50543,7.06664],[-58.5059,7.06518],[-58.50591,7.06515],[-58.50592,7.06511],[-58.50633,7.06398],[-58.50628,7.06327],[-58.50625,7.06291],[-58.50622,7.0622],[-58.50627,7.06173],[-58.50612,7.06032],[-58.50611,7.06023]]]},"properties":{"qc_id":5,"ndc_id":202,"ndc":"Riverston - Annandale","reg_name":"Pomeroon-Supenaam","region":2,"status":"Neighborhood Democratic Councils","tot_males":1925,"tot_female":1928,"total":3853}},
{"type":"Feature","geometry":{"type":"Polygon","coordinates":[[[-58.52138,7.23165],[-58.52141,7.23178],[-58.52145,7.23191],[-58.5223,7.23509],[-58.52234,7.23524],[-58.52411,7.24115],[-58.52481,7.24119],[-58.52605,7.24126],[-58.52629,7.24181],[-58.52727,7.24424],[-58.52776,7.24528],[-58.52811,7.24634],[-58.5283,7.24697],[-58.52882,7.24899],[-58.52972,7.25056],[-58.53072,7.25219],[-58.53092,7.25259],[-58.53179,7.2544],[-58.5351,7.26495],[-58.53505,7.26629],[-58.53529,7.2679],[-58.53529,7.26791],[-58.53677,7.27164],[-58.53783,7.27406],[-58.53834,7.27586],[-58.53838,7.27671],[-58.53841,7.27715],[-58.5413,7.28612],[-58.54162,7.28672],[-58.54165,7.28678],[-58.5418,7.28709],[-58.54198,7.28742],[-58.54236,7.28822],[-58.54368,7.29342],[-58.54426,7.2967],[-58.54447,7.29777],[-58.54471,7.29917],[-58.54506,7.30132],[-58.55751,7.33727],[-58.5578,7.33814],[-58.55824,7.3395],[-58.55824,7.33952],[-58.55946,7.34307],[-58.55965,7.34406],[-58.55996,7.34508],[-58.5627,7.35508],[-58.5633,7.35728],[-58.56331,7.35729],[-58.56736,7.35944],[-58.57258,7.36216],[-58.57325,7.36251],[-58.58156,7.3675],[-58.5819,7.3677],[-58.58669,7.3711],[-58.5867,7.37111],[-58.58671,7.37112],[-58.59726,7.37795],[-58.60879,7.37425],[-58.61287,7.36881],[-58.61861,7.37401],[-58.61196,7.38091],[-58.60964,7.38098],[-58.59994,7.3856],[-58.59973,7.388],[-58.60862,7.3928],[-58.61344,7.39751],[-58.61636,7.40192],[-58.6183,7.40672],[-58.61623,7.41223],[-58.61103,7.41608],[-58.59183,7.43264],[-58.56699,7.45359],[-58.57128,7.45963],[-58.57549,7.47047],[-58.57973,7.4756],[-58.58979,7.48308],[-58.5961,7.48961],[-58.59651,7.48745],[-58.599,7.49152],[-58.61165,7.50491],[-58.61233,7.50735],[-58.61659,7.50872],[-58.6179,7.51222],[-58.62547,7.52103],[-58.62949,7.52777],[-58.63282,7.52995],[-58.63826,7.53641],[-58.63983,7.54023],[-58.64138,7.54048],[-58.64191,7.54409],[-58.64657,7.54871],[-58.65158,7.55617],[-58.65291,7.56024],[-58.65231,7.56298],[-58.65799,7.56614],[-58.66272,7.57542],[-58.66427,7.57713],[-58.66713,7.58642],[-58.67139,7.59022],[-58.67149,7.59252],[-58.6786,7.60112],[-58.68365,7.60407],[-58.68636,7.60383],[-58.68786,7.60752],[-58.69305,7.6103],[-58.69859,7.61062],[-58.71062,7.61311],[-58.71336,7.61476],[-58.71372,7.61728],[-58.71913,7.61926],[-58.73014,7.62589],[-58.73107,7.62522],[-58.73465,7.62861],[-58.74284,7.63124],[-58.74551,7.62616],[-58.75146,7.62226],[-58.75644,7.62336],[-58.76776,7.62738],[-58.77615,7.638],[-58.77905,7.64328],[-58.78203,7.64584],[-58.78127,7.64816],[-58.78514,7.64918],[-58.78517,7.65485],[-58.78699,7.65896],[-58.78958,7.65998],[-58.78959,7.66385],[-58.79503,7.6655],[-58.79415,7.67182],[-58.7966,7.67181],[-58.79934,7.67901],[-58.81123,7.67006],[-58.86069,7.62542],[-58.8863,7.60266],[-58.9046,7.5977],[-58.90602,7.58049],[-58.944,7.55773],[-59.03236,7.53],[-59.09972,7.47105],[-59.11827,7.45499],[-59.12592,7.41792],[-59.10855,7.39048],[-59.10119,7.35195],[-59.1377,7.28917],[-59.18156,7.18229],[-59.19274,7.09729],[-59.19392,7.05259],[-59.18097,7.02513],[-59.17874,7.00237],[-59.17807,6.97944],[-59.18329,6.96525],[-59.1964,6.94217],[-59.20772,6.91348],[-59.2104,6.88745],[-59.19685,6.87487],[-59.17301,6.87118],[-59.14306,6.86008],[-59.1377,6.85505],[-59.11937,6.84869],[-59.1003,6.8444],[-59.07959,6.8447],[-59.06305,6.84632],[-59.04979,6.85564],[-59.0401,6.86526],[-59.03474,6.87221],[-59.01984,6.8762],[-59.00017,6.87532],[-58.98721,6.86984],[-58.97768,6.85979],[-58.97231,6.85032],[-58.96546,6.79884],[-58.95443,6.78641],[-58.94683,6.78138],[-58.92866,6.77472],[-58.91674,6.77931],[-58.89722,6.78315],[-58.87755,6.77812],[-58.87651,6.76762],[-58.87725,6.75445],[-58.87144,6.74616],[-58.86161,6.74039],[-58.85297,6.73743],[-58.84626,6.73418],[-58.84112,6.73085],[-58.829,6.74503],[-58.80051,6.75764],[-58.76617,6.77264],[-58.74729,6.79548],[-58.74454,6.81423],[-58.73802,6.84355],[-58.71948,6.86025],[-58.71502,6.86128],[-58.67657,6.85275],[-58.657,6.8773],[-58.55587,6.92615],[-58.54919,6.93814],[-58.54175,6.94913],[-58.53687,6.95456],[-58.52915,6.96116],[-58.5141,6.97001],[-58.51489,6.97133],[-58.51578,6.97291],[-58.52065,6.97768],[-58.5225,6.98151],[-58.52267,6.98667],[-58.52617,6.99171],[-58.52568,6.99643],[-58.52564,6.99645],[-58.50975,7.00276],[-58.50764,7.00635],[-58.50585,7.02316],[-58.50121,7.04866],[-58.50298,7.05205],[-58.50752,7.05405],[-58.50599,7.05935],[-58.50611,7.06023],[-58.50612,7.06032],[-58.50627,7.06173],[-58.50622,7.0622],[-58.50625,7.06291],[-58.50628,7.06327],[-58.50633,7.06398],[-58.50592,7.06511],[-58.50591,7.06515],[-58.5059,7.06518],[-58.50543,7.06664],[-58.50496,7.06886],[-58.50392,7.06889],[-58.5037,7.06886],[-58.50356,7.06885],[-58.50336,7.06884],[-58.50322,7.06883],[-58.50282,7.06882],[-58.50235,7.06883],[-58.50194,7.06861],[-58.50173,7.06848],[-58.50199,7.06723],[-58.50155,7.06691],[-58.49998,7.06687],[-58.49923,7.06785],[-58.49806,7.06753],[-58.49775,7.06763],[-58.49734,7.06759],[-58.49707,7.06759],[-58.49699,7.06758],[-58.4967,7.06757],[-58.49578,7.06745],[-58.49481,7.06618],[-58.49432,7.06708],[-58.49481,7.07285],[-58.49294,7.08953],[-58.4924,7.09037],[-58.49059,7.09581],[-58.48673,7.09566],[-58.49107,7.11449],[-58.49227,7.12084],[-58.49414,7.12903],[-58.49565,7.13728],[-58.4974,7.14722],[-58.49776,7.14925],[-58.49788,7.15063],[-58.49836,7.15936],[-58.4986,7.16378],[-58.49842,7.16886],[-58.50204,7.16844],[-58.50415,7.17298],[-58.50414,7.17297],[-58.50412,7.17296],[-58.50413,7.17297],[-58.50413,7.17298],[-58.50421,7.17314],[-58.50459,7.17385],[-58.50467,7.17622],[-58.50389,7.17621],[-58.50363,7.1762],[-58.50486,7.17973],[-58.50616,7.18403],[-58.50724,7.18748],[-58.50729,7.18761],[-58.50744,7.18802],[-58.50764,7.18826],[-58.50763,7.18926],[-58.50763,7.18929],[-58.50758,7.19066],[-58.50758,7.19067],[-58.50751,7.19206],[-58.51371,7.20629],[-58.51408,7.20724],[-58.51424,7.20775],[-58.51441,7.20835],[-58.51613,7.21379],[-58.51804,7.21998],[-58.5187,7.22211],[-58.52102,7.23039],[-58.52135,7.23156],[-58.52138,7.23165]]]},"properties":{"qc_id":6,"ndc_id":207,"ndc":"Rest of Region 2","reg_name":"Pomeroon-Supenaam","region":2,"status":"Not Classified","tot_males":290,"tot_female":281,"total":571}}
]}