{"type":"FeatureCollection", "features": [
{"type":"Feature","geometry":{"type":"Polygon","coordinates":[[[-59.32464,2.50164],[-59.26926,2.56334],[-59.24775,2.63363],[-59.20632,2.88654],[-59.26185,3.07618],[-59.27272,3.09512],[-59.26605,3.11267],[-59.2701,3.12345],[-59.32779,3.13276],[-59.34523,3.13137],[-59.36536,3.13537],[-59.39624,3.15148],[-59.4137,3.15683],[-59.43255,3.15374],[-59.43968,3.14571],[-59.45892,3.14208],[-59.47017,3.13431],[-59.48748,3.13289],[-59.50891,3.12427],[-59.57157,3.11804],[-59.58793,3.10984],[-59.60655,3.06112],[-59.61954,3.0433],[-59.62624,3.02521],[-59.62621,2.97195],[-59.61745,2.91992],[-59.59724,2.88671],[-59.57708,2.87229],[-59.56391,2.85385],[-59.58178,2.85618],[-59.58117,2.83667],[-59.59084,2.81885],[-59.59421,2.79588],[-59.59358,2.76775],[-59.58898,2.75341],[-59.6055,2.73328],[-59.62181,2.72982],[-59.6465,2.71024],[-59.65306,2.67494],[-59.67318,2.62998],[-59.67709,2.59548],[-59.63987,2.59743],[-59.62979,2.60601],[-59.61703,2.63326],[-59.57452,2.66834],[-59.51952,2.69195],[-59.49222,2.67573],[-59.47148,2.64138],[-59.4691,2.63153],[-59.4731,2.6016],[-59.48054,2.58376],[-59.47781,2.55779],[-59.45866,2.55885],[-59.44931,2.55398],[-59.43281,2.5292],[-59.40773,2.50894],[-59.37407,2.50149],[-59.32464,2.50164]]]},"properties":{"ID":"1","NAME":"Sand Creek - Dadanawa, Catunarib, Sawariwau","REGION":"Upper Takutu-Upper Essequibo","STATUS":"Not Classified","NCID":"905"}},
{"type":"Feature","geometry":{"type":"Polygon","coordinates":[[[-59.40034,4.15183],[-59.41834,4.11796],[-59.42068,4.09536],[-59.41178,4.07521],[-59.38597,4.04301],[-59.36659,4.01239],[-59.35804,3.98847],[-59.33912,3.99455],[-59.27968,3.99153],[-59.26876,3.98017],[-59.25412,3.93601],[-59.27941,3.93616],[-59.28621,3.91121],[-59.29377,3.899],[-59.29138,3.8594],[-59.30818,3.82658],[-59.29929,3.8177],[-59.30065,3.77316],[-59.29543,3.75314],[-59.31018,3.74419],[-59.31454,3.71947],[-59.43937,3.71873],[-59.43922,3.66678],[-59.22829,3.6646],[-59.15248,3.65805],[-59.1206,3.65395],[-59.08592,3.64428],[-59.06788,3.63458],[-59.03601,3.64022],[-59.02076,3.63886],[-59.00275,3.64447],[-58.98478,3.66262],[-58.96966,3.72254],[-58.94898,3.7769],[-58.93378,3.80061],[-58.88887,3.85431],[-58.89317,3.87058],[-58.90322,3.88256],[-58.9064,3.87272],[-58.93464,3.87425],[-58.92876,3.86177],[-58.94202,3.85967],[-58.94701,3.86827],[-58.96093,3.86357],[-58.9794,3.86642],[-58.97498,3.8846],[-58.96484,3.89995],[-58.95063,3.91224],[-58.94663,3.94392],[-58.93956,3.96334],[-58.91114,3.99303],[-58.90977,4.01246],[-58.92838,3.99911],[-58.94839,3.99911],[-58.9888,4.01305],[-59.01042,4.04017],[-59.01391,4.05382],[-59.05375,4.0962],[-59.06017,4.10778],[-59.07049,4.14859],[-59.06998,4.16504],[-59.10554,4.18406],[-59.1277,4.18508],[-59.13904,4.1712],[-59.15656,4.16349],[-59.1612,4.15219],[-59.17666,4.14653],[-59.19161,4.15167],[-59.2684,4.15527],[-59.27716,4.14602],[-59.31994,4.15424],[-59.33437,4.14602],[-59.40034,4.15183]]]},"properties":{"ID":"2","NAME":"Yakarinta - Wowetta, Surama","REGION":"Upper Takutu-Upper Essequibo","STATUS":"Not Classified","NCID":"904"}},
{"type":"Feature","geometry":{"type":"Polygon","coordinates":[[[-59.40034,4.15183],[-59.4493,4.15887],[-59.47868,4.17532],[-59.50239,4.19485],[-59.50806,4.21849],[-59.4993,4.23648],[-59.4828,4.25601],[-59.47868,4.27143],[-59.48074,4.29764],[-59.48641,4.32385],[-59.50187,4.36445],[-59.46064,4.40248],[-59.45446,4.42509],[-59.46683,4.43948],[-59.49466,4.45027],[-59.49569,4.47442],[-59.48435,4.49754],[-59.48744,4.51244],[-59.50548,4.52015],[-59.54001,4.50833],[-59.59619,4.45592],[-59.60598,4.4292],[-59.62711,4.38552],[-59.66179,4.36818],[-59.66965,4.37181],[-59.68325,4.36103],[-59.67551,4.34639],[-59.68998,4.33496],[-59.71119,4.30701],[-59.73189,4.28587],[-59.72865,4.26798],[-59.7123,4.27176],[-59.73949,4.2339],[-59.73738,4.20985],[-59.72657,4.19037],[-59.73069,4.18076],[-59.70613,4.16071],[-59.68477,4.14722],[-59.65949,4.14625],[-59.63417,4.14132],[-59.61818,4.13166],[-59.62435,4.12613],[-59.63842,4.09434],[-59.65406,4.06943],[-59.6425,4.0674],[-59.62852,4.05207],[-59.61705,4.0504],[-59.61942,4.03812],[-59.60193,4.03021],[-59.60055,4.01719],[-59.61285,4.01545],[-59.60656,4.0068],[-59.59558,4.01793],[-59.59617,4.00293],[-59.58616,3.99343],[-59.58084,4.00226],[-59.57144,3.9869],[-59.5864,3.97549],[-59.58417,3.96851],[-59.56949,3.96886],[-59.55535,3.97937],[-59.52665,3.96887],[-59.5153,3.94492],[-59.50639,3.9421],[-59.35917,3.94382],[-59.35804,3.98847],[-59.36659,4.01239],[-59.38597,4.04301],[-59.41178,4.07521],[-59.42068,4.09536],[-59.41834,4.11796],[-59.40034,4.15183]]]},"properties":{"ID":"3","NAME":"Karasabai (Yarong Paru - Good Hope)","REGION":"Upper Takutu-Upper Essequibo","STATUS":"Not Classified","NCID":"902"}},
{"type":"Feature","geometry":{"type":"Polygon","coordinates":[[[-59.35804,3.98847],[-59.35917,3.94382],[-59.51356,3.94202],[-59.52749,3.92365],[-59.5383,3.93189],[-59.5497,3.91841],[-59.56474,3.91733],[-59.5688,3.88972],[-59.59279,3.88538],[-59.59324,3.86078],[-59.58575,3.83446],[-59.57749,3.83208],[-59.59727,3.81497],[-59.59525,3.79557],[-59.61151,3.8035],[-59.62903,3.78407],[-59.62966,3.79859],[-59.63985,3.78433],[-59.65546,3.78611],[-59.66555,3.78126],[-59.66847,3.76719],[-59.67978,3.75649],[-59.66374,3.7345],[-59.67146,3.72827],[-59.66271,3.71406],[-59.66841,3.70278],[-59.68582,3.69934],[-59.6917,3.68892],[-59.70517,3.68854],[-59.72376,3.6637],[-59.74235,3.66001],[-59.75644,3.64558],[-59.7637,3.62683],[-59.78787,3.61653],[-59.81719,3.619],[-59.83547,3.60661],[-59.85064,3.60449],[-59.85893,3.58037],[-59.86729,3.57775],[-59.85524,3.57481],[-59.83518,3.57823],[-59.81001,3.57561],[-59.74289,3.51108],[-59.72274,3.48928],[-59.69681,3.49019],[-59.66589,3.50289],[-59.55627,3.50488],[-59.46196,3.50983],[-59.45705,3.51012],[-59.49075,3.5679],[-59.49152,3.60079],[-59.48882,3.61175],[-59.47659,3.62686],[-59.4487,3.65091],[-59.43922,3.66678],[-59.43937,3.71873],[-59.31454,3.71947],[-59.31018,3.74419],[-59.29543,3.75314],[-59.30065,3.77316],[-59.29929,3.8177],[-59.30818,3.82658],[-59.29138,3.8594],[-59.29377,3.899],[-59.28621,3.91121],[-59.27941,3.93616],[-59.25412,3.93601],[-59.26876,3.98017],[-59.27968,3.99153],[-59.33912,3.99455],[-59.35804,3.98847]]]},"properties":{"ID":"4","NAME":"Toka - Jakaretinga","REGION":"Upper Takutu-Upper Essequibo","STATUS":"Not Classified","NCID":"903"}},
{"type":"Feature","geometry":{"type":"Polygon","coordinates":[[[-59.58793,3.10984],[-59.5667,3.13796],[-59.54998,3.15298],[-59.52398,3.18393],[-59.52078,3.19394],[-59.52734,3.20314],[-59.54541,3.21439],[-59.55879,3.22855],[-59.57153,3.25261],[-59.56865,3.27319],[-59.55993,3.29085],[-59.56327,3.29784],[-59.53787,3.3192],[-59.50768,3.32796],[-59.47032,3.3483],[-59.46173,3.36712],[-59.47334,3.40324],[-59.47337,3.4177],[-59.45613,3.42932],[-59.44757,3.45826],[-59.44619,3.47851],[-59.46196,3.50983],[-59.55627,3.50488],[-59.66589,3.50289],[-59.69681,3.49019],[-59.72274,3.48928],[-59.74289,3.51108],[-59.81001,3.57561],[-59.83518,3.57823],[-59.85524,3.57481],[-59.86729,3.57775],[-59.85906,3.57086],[-59.86989,3.55885],[-59.84599,3.5542],[-59.83892,3.52921],[-59.83313,3.52186],[-59.81734,3.52088],[-59.80591,3.51083],[-59.80193,3.4953],[-59.82719,3.47796],[-59.81178,3.47668],[-59.81118,3.46828],[-59.82336,3.47218],[-59.83133,3.45155],[-59.83944,3.44291],[-59.84042,3.42475],[-59.82937,3.4225],[-59.81313,3.42836],[-59.82133,3.41695],[-59.81147,3.37964],[-59.80419,3.36931],[-59.80564,3.35409],[-59.82611,3.35669],[-59.83431,3.35041],[-59.82749,3.33366],[-59.84947,3.30659],[-59.85822,3.27898],[-59.86799,3.27953],[-59.88127,3.25901],[-59.87885,3.24513],[-59.88697,3.23764],[-59.87447,3.22906],[-59.88616,3.2161],[-59.90328,3.21602],[-59.9126,3.19503],[-59.90918,3.17603],[-59.90126,3.16039],[-59.90232,3.14985],[-59.92091,3.14904],[-59.91563,3.13988],[-59.91823,3.12643],[-59.90861,3.12456],[-59.90821,3.11288],[-59.92164,3.12148],[-59.93905,3.10012],[-59.94104,3.08646],[-59.95533,3.08225],[-59.952,3.03961],[-59.96245,3.01636],[-59.94691,3.00016],[-59.74321,3.00499],[-59.70954,2.97522],[-59.68757,2.96458],[-59.65741,3.00309],[-59.62624,3.02521],[-59.61954,3.0433],[-59.60655,3.06112],[-59.58793,3.10984]]]},"properties":{"ID":"4","NAME":"Ireng / Sawariwau (Including  St. Ignatius)","REGION":"Upper Takutu-Upper Essequibo","STATUS":"Neighbourhood Democratic Council","NCID":"901"}},
{"type":"Feature","geometry":{"type":"Polygon","coordinates":[[[-59.74,1.95119],[-59.73173,1.95353],[-59.71808,1.94032],[-59.68253,1.93401],[-59.65425,1.91593],[-59.63578,1.93654],[-59.6207,1.94636],[-59.61005,1.98165],[-59.59497,1.99784],[-59.57263,2.03364],[-59.57147,2.05541],[-59.56509,2.06399],[-59.5161,2.06943],[-59.48838,2.0534],[-59.46069,2.05451],[-59.42663,2.076],[-59.39787,2.07926],[-59.39686,2.11356],[-59.38412,2.1468],[-59.37568,2.19505],[-59.36294,2.22401],[-59.35229,2.22724],[-59.25188,2.22909],[-59.23679,2.25113],[-59.22225,2.25928],[-59.18755,2.29673],[-59.16657,2.3236],[-59.15852,2.34068],[-59.13349,2.36349],[-59.13435,2.39845],[-59.10472,2.42292],[-59.17599,2.55792],[-59.26926,2.56334],[-59.32464,2.50164],[-59.39064,2.42811],[-59.40357,2.42321],[-59.42051,2.40529],[-59.44958,2.39305],[-59.45515,2.41512],[-59.46748,2.43101],[-59.50223,2.42136],[-59.55888,2.41746],[-59.57548,2.40603],[-59.61241,2.36493],[-59.63331,2.34891],[-59.64417,2.31799],[-59.65822,2.32241],[-59.68614,2.32235],[-59.6966,2.31832],[-59.72598,2.29519],[-59.72697,2.28185],[-59.72864,2.26691],[-59.71976,2.23849],[-59.73012,2.23134],[-59.72894,2.19851],[-59.74045,2.18038],[-59.73956,2.14666],[-59.72539,2.13082],[-59.72313,2.09832],[-59.7344,2.09088],[-59.74231,2.07353],[-59.7372,2.05025],[-59.72219,2.02328],[-59.73255,2.01726],[-59.73359,1.98342],[-59.74088,1.97495],[-59.73923,1.95298],[-59.74,1.95119]]]},"properties":{"ID":"5","NAME":"Aishalton - Karaudanawa, Achiwib","REGION":"Upper Takutu-Upper Essequibo","STATUS":"Not Classified","NCID":"907"}},
{"type":"Feature","geometry":{"type":"Polygon","coordinates":[[[-59.74,1.95119],[-59.745,1.929],[-59.756,1.922],[-59.759,1.901],[-59.746,1.879],[-59.753,1.867],[-59.746,1.852],[-59.72,1.85],[-59.71,1.855],[-59.691,1.854],[-59.677,1.839],[-59.665,1.849],[-59.662,1.863],[-59.649,1.844],[-59.658,1.825],[-59.654,1.817],[-59.678,1.807],[-59.688,1.779],[-59.69,1.757],[-59.666,1.755],[-59.662,1.737],[-59.653,1.743],[-59.632,1.741],[-59.62211,1.75127],[-59.60979,1.76083],[-59.5672,1.8191],[-59.52364,1.86115],[-59.48383,1.88125],[-59.46582,1.89463],[-59.44689,1.91661],[-59.38243,1.95297],[-59.36159,1.97018],[-59.32942,2.02654],[-59.30001,2.03135],[-59.28483,2.02756],[-59.22601,2.02764],[-59.22076,2.03137],[-59.23818,2.03741],[-59.22548,2.04955],[-59.22415,2.06033],[-59.2088,2.08998],[-59.18069,2.09609],[-59.19141,2.10617],[-59.18808,2.1183],[-59.19814,2.12839],[-59.19279,2.13783],[-59.20689,2.15936],[-59.1962,2.17756],[-59.19822,2.18766],[-59.18623,2.22405],[-59.18492,2.24838],[-59.2191,2.23388],[-59.25188,2.22909],[-59.35229,2.22724],[-59.36294,2.22401],[-59.37568,2.19505],[-59.38412,2.1468],[-59.39686,2.11356],[-59.39787,2.07926],[-59.42663,2.076],[-59.46069,2.05451],[-59.48838,2.0534],[-59.5161,2.06943],[-59.56509,2.06399],[-59.57147,2.05541],[-59.57263,2.03364],[-59.59497,1.99784],[-59.61005,1.98165],[-59.6207,1.94636],[-59.63578,1.93654],[-59.65425,1.91593],[-59.68253,1.93401],[-59.71808,1.94032],[-59.73173,1.95353],[-59.74,1.95119]]]},"properties":{"ID":"6","NAME":"Marudi","REGION":"Upper Takutu-Upper Essequibo","STATUS":"Not Classified","NCID":"906"}},
{"type":"Feature","geometry":{"type":"MultiPolygon","coordinates":[[[[-59.72697,2.28185],[-59.72598,2.29519],[-59.6966,2.31832],[-59.68614,2.32235],[-59.65822,2.32241],[-59.64417,2.31799],[-59.63331,2.34891],[-59.61241,2.36493],[-59.57548,2.40603],[-59.55888,2.41746],[-59.50223,2.42136],[-59.46748,2.43101],[-59.45515,2.41512],[-59.44958,2.39305],[-59.42051,2.40529],[-59.40357,2.42321],[-59.39064,2.42811],[-59.32464,2.50164],[-59.37407,2.50149],[-59.40773,2.50894],[-59.43281,2.5292],[-59.44931,2.55398],[-59.45866,2.55885],[-59.47781,2.55779],[-59.48054,2.58376],[-59.4731,2.6016],[-59.4691,2.63153],[-59.47148,2.64138],[-59.49222,2.67573],[-59.51952,2.69195],[-59.57452,2.66834],[-59.61703,2.63326],[-59.62979,2.60601],[-59.63987,2.59743],[-59.67709,2.59548],[-59.67318,2.62998],[-59.65306,2.67494],[-59.6465,2.71024],[-59.62181,2.72982],[-59.6055,2.73328],[-59.58898,2.75341],[-59.59358,2.76775],[-59.59421,2.79588],[-59.59084,2.81885],[-59.58117,2.83667],[-59.58178,2.85618],[-59.56391,2.85385],[-59.57708,2.87229],[-59.59724,2.88671],[-59.61745,2.91992],[-59.62621,2.97195],[-59.62624,3.02521],[-59.65741,3.00309],[-59.68757,2.96458],[-59.70954,2.97522],[-59.74321,3.00499],[-59.94691,3.00016],[-59.95425,2.99141],[-59.96501,2.96256],[-59.95905,2.95513],[-59.98421,2.92959],[-59.98636,2.90818],[-59.97817,2.89628],[-59.99009,2.88198],[-59.98264,2.86777],[-59.9918,2.83464],[-59.98699,2.80279],[-59.99332,2.78266],[-59.98734,2.74436],[-59.99286,2.73509],[-59.98951,2.71825],[-59.99082,2.68321],[-59.97863,2.67384],[-59.97145,2.65676],[-59.9782,2.64196],[-59.96478,2.62638],[-59.95891,2.60781],[-59.97232,2.59871],[-59.94191,2.58382],[-59.92911,2.56911],[-59.93822,2.55553],[-59.91841,2.52593],[-59.92034,2.50737],[-59.89707,2.48061],[-59.89358,2.46427],[-59.90082,2.43731],[-59.89197,2.4274],[-59.89617,2.41249],[-59.90901,2.39067],[-59.905,2.37565],[-59.88961,2.35606],[-59.87498,2.36051],[-59.86966,2.35062],[-59.84392,2.3295],[-59.84338,2.3203],[-59.82871,2.32889],[-59.82416,2.31813],[-59.80472,2.30547],[-59.80474,2.29912],[-59.78027,2.28568],[-59.76969,2.29542],[-59.75057,2.28773],[-59.73934,2.29017],[-59.72697,2.28185]]],[[[-59.26926,2.56334],[-59.17599,2.55792],[-59.10472,2.42292],[-59.13435,2.39845],[-59.13349,2.36349],[-59.15852,2.34068],[-59.16657,2.3236],[-59.18755,2.29673],[-59.22225,2.25928],[-59.23679,2.25113],[-59.25188,2.22909],[-59.2191,2.23388],[-59.18492,2.24838],[-59.18623,2.22405],[-59.19822,2.18766],[-59.1962,2.17756],[-59.20689,2.15936],[-59.19279,2.13783],[-59.19814,2.12839],[-59.18808,2.1183],[-59.19141,2.10617],[-59.18069,2.09609],[-59.2088,2.08998],[-59.22415,2.06033],[-59.22548,2.04955],[-59.23818,2.03741],[-59.22076,2.03137],[-59.22601,2.02764],[-59.28483,2.02756],[-59.30001,2.03135],[-59.32942,2.02654],[-59.36159,1.97018],[-59.38243,1.95297],[-59.44689,1.91661],[-59.46582,1.89463],[-59.48383,1.88125],[-59.52364,1.86115],[-59.5672,1.8191],[-59.60979,1.76083],[-59.62211,1.75127],[-59.632,1.741],[-59.629,1.728],[-59.617,1.716],[-59.607,1.723],[-59.587,1.727],[-59.566,1.736],[-59.556,1.724],[-59.55,1.729],[-59.533,1.717],[-59.526,1.692],[-59.513,1.681],[-59.511,1.669],[-59.493,1.674],[-59.494,1.646],[-59.483,1.627],[-59.465,1.618],[-59.447,1.62],[-59.437,1.594],[-59.427,1.587],[-59.431,1.567],[-59.412,1.552],[-59.396,1.556],[-59.394,1.537],[-59.378,1.521],[-59.381,1.507],[-59.364,1.51],[-59.358,1.518],[-59.339,1.519],[-59.329,1.514],[-59.332,1.506],[-59.321,1.482],[-59.327,1.464],[-59.314,1.461],[-59.302,1.466],[-59.284,1.45],[-59.284,1.437],[-59.274,1.418],[-59.282,1.411],[-59.259,1.397],[-59.253,1.389],[-59.233,1.387],[-59.226,1.378],[-59.207,1.372],[-59.196,1.379],[-59.187,1.375],[-59.171,1.357],[-59.161,1.359],[-59.146,1.347],[-59.131,1.353],[-59.118,1.343],[-59.102,1.349],[-59.089,1.347],[-59.087,1.339],[-59.07,1.33],[-59.057,1.335],[-59.048,1.323],[-59.023,1.331],[-59.013,1.324],[-58.989,1.325],[-58.978,1.302],[-58.966,1.313],[-58.918,1.317],[-58.915,1.306],[-58.923,1.294],[-58.918,1.285],[-58.898,1.28],[-58.886,1.261],[-58.904,1.251],[-58.912,1.239],[-58.89528,1.22722],[-58.87455,1.22323],[-58.86678,1.20317],[-58.85928,1.20407],[-58.85429,1.18346],[-58.83178,1.18791],[-58.80595,1.18123],[-58.7915,1.19046],[-58.76984,1.1865],[-58.75122,1.20848],[-58.73956,1.1999],[-58.71511,1.23763],[-58.72067,1.25544],[-58.71039,1.2899],[-58.69456,1.29732],[-58.68011,1.29625],[-58.67595,1.28513],[-58.66401,1.27935],[-58.65261,1.28822],[-58.62873,1.2885],[-58.60817,1.27378],[-58.58845,1.2699],[-58.58539,1.26212],[-58.57761,1.2832],[-58.56456,1.2946],[-58.54011,1.28792],[-58.53817,1.26767],[-58.52706,1.26957],[-58.52289,1.25791],[-58.51289,1.27763],[-58.49622,1.26796],[-58.49506,1.29492],[-58.4834,1.30035],[-58.47095,1.31935],[-58.47428,1.34838],[-58.45787,1.37145],[-58.47006,1.37081],[-58.48503,1.38473],[-58.47964,1.39016],[-58.50511,1.40317],[-58.50317,1.42488],[-58.49806,1.43012],[-58.50789,1.44486],[-58.51397,1.47861],[-58.48649,1.51238],[-58.41717,1.60259],[-58.39146,1.67994],[-58.36222,1.75074],[-58.30778,1.8296],[-58.29568,1.8558],[-58.27904,1.90266],[-58.26039,1.947],[-58.24905,1.98756],[-58.23191,2.02912],[-58.19989,2.12837],[-58.18502,2.18051],[-58.16158,2.23819],[-58.13562,2.31048],[-58.05495,2.44824],[-58.03907,2.50994],[-58.03958,2.54645],[-58.04437,2.58196],[-58.04638,2.61898],[-58.05369,2.66405],[-58.05168,2.71164],[-58.0426,2.73404],[-58.02647,2.76023],[-58.00378,2.78742],[-57.95791,2.85943],[-57.94934,2.88536],[-57.95337,2.91053],[-57.97152,2.95383],[-57.98034,2.99461],[-57.9937,3.02532],[-58.03882,3.08523],[-58.05647,3.11895],[-58.07209,3.12877],[-58.09705,3.16099],[-58.1215,3.20478],[-58.13284,3.22919],[-58.1404,3.26266],[-58.14267,3.29034],[-58.13814,3.30267],[-58.14015,3.33463],[-58.13612,3.34596],[-58.1394,3.37112],[-58.1457,3.38269],[-58.15402,3.42195],[-58.16586,3.46372],[-58.16712,3.51655],[-58.17771,3.53643],[-58.18956,3.5475],[-58.19183,3.5714],[-58.21451,3.61416],[-58.22258,3.63681],[-58.26619,3.67907],[-58.28509,3.70347],[-58.28963,3.73088],[-58.30047,3.74799],[-58.31988,3.76937],[-58.33702,3.83225],[-58.33803,3.86016],[-58.34534,3.89487],[-58.36071,3.92605],[-58.3655,3.9517],[-58.35214,3.97735],[-58.35265,4.03242],[-58.36021,4.091],[-58.38138,4.13752],[-58.38567,4.15939],[-58.40382,4.17623],[-58.44339,4.22676],[-58.46482,4.25668],[-58.47656,4.25221],[-58.49997,4.26295],[-58.5247,4.28008],[-58.54793,4.27857],[-58.57266,4.28422],[-58.60589,4.2701],[-58.67707,4.25278],[-58.69897,4.21041],[-58.72862,4.17256],[-58.73938,4.15204],[-58.77148,4.13659],[-58.8083,4.10533],[-58.83341,4.07407],[-58.88382,4.03038],[-58.90977,4.01246],[-58.91114,3.99303],[-58.93956,3.96334],[-58.94663,3.94392],[-58.95063,3.91224],[-58.96484,3.89995],[-58.97498,3.8846],[-58.9794,3.86642],[-58.96093,3.86357],[-58.94701,3.86827],[-58.94202,3.85967],[-58.92876,3.86177],[-58.93464,3.87425],[-58.9064,3.87272],[-58.90322,3.88256],[-58.89317,3.87058],[-58.88887,3.85431],[-58.93378,3.80061],[-58.94898,3.7769],[-58.96966,3.72254],[-58.98478,3.66262],[-59.00275,3.64447],[-59.02076,3.63886],[-59.03601,3.64022],[-59.06788,3.63458],[-59.08592,3.64428],[-59.1206,3.65395],[-59.15248,3.65805],[-59.22829,3.6646],[-59.43922,3.66678],[-59.4487,3.65091],[-59.47659,3.62686],[-59.48882,3.61175],[-59.49152,3.60079],[-59.49075,3.5679],[-59.45705,3.51012],[-59.46196,3.50983],[-59.44619,3.47851],[-59.44757,3.45826],[-59.45613,3.42932],[-59.47337,3.4177],[-59.47334,3.40324],[-59.46173,3.36712],[-59.47032,3.3483],[-59.50768,3.32796],[-59.53787,3.3192],[-59.56327,3.29784],[-59.55993,3.29085],[-59.56865,3.27319],[-59.57153,3.25261],[-59.55879,3.22855],[-59.54541,3.21439],[-59.52734,3.20314],[-59.52078,3.19394],[-59.52398,3.18393],[-59.54998,3.15298],[-59.5667,3.13796],[-59.58793,3.10984],[-59.57157,3.11804],[-59.50891,3.12427],[-59.48748,3.13289],[-59.47017,3.13431],[-59.45892,3.14208],[-59.43968,3.14571],[-59.43255,3.15374],[-59.4137,3.15683],[-59.39624,3.15148],[-59.36536,3.13537],[-59.34523,3.13137],[-59.32779,3.13276],[-59.2701,3.12345],[-59.26605,3.11267],[-59.27272,3.09512],[-59.26185,3.07618],[-59.20632,2.88654],[-59.24775,2.63363],[-59.26926,2.56334]]]]},"properties":{"ID":"7","NAME":"Rest of Region 9","REGION":"Upper Takutu-Upper Essequibo","STATUS":"Not Classified","NCID":"908"}}
]}