{"type":"FeatureCollection", "features": [
{"type":"Feature","geometry":{"type":"Polygon","coordinates":[[[-57.93681,5.36198],[-57.86966,5.40479],[-57.84751,5.44271],[-57.83274,5.49216],[-57.88124,5.52566],[-57.89689,5.5515],[-57.9296,5.56758],[-57.90667,5.58473],[-57.92028,5.59889],[-57.96969,5.58121],[-57.99771,5.60853],[-58.07511,5.60774],[-58.11158,5.62658],[-58.14865,5.62455],[-58.15967,5.60693],[-58.18763,5.60166],[-58.20188,5.571],[-58.2227,5.57292],[-58.25375,5.55696],[-58.25417,5.50924],[-58.23557,5.46793],[-58.24682,5.43522],[-58.20577,5.44244],[-58.18671,5.41315],[-58.16235,5.41917],[-58.11478,5.46547],[-58.09685,5.46345],[-58.0682,5.48917],[-58.02108,5.4985],[-58.00667,5.46566],[-57.98616,5.45388],[-57.99258,5.41473],[-57.93681,5.36198]]]},"properties":{"ID":"1","NAME":"Ituni","REGION":"Upper Demerara-Berbice","STATUS":"Not Classified","NCID":"1004"}},
{"type":"Feature","geometry":{"type":"Polygon","coordinates":[[[-58.18671,5.41315],[-58.17561,5.38842],[-58.13045,5.34675],[-58.12085,5.32622],[-58.13167,5.2687],[-58.09134,5.24379],[-58.069,5.18586],[-58.0391,5.16418],[-58.00922,5.23436],[-57.98346,5.26327],[-57.96017,5.33488],[-57.93681,5.36198],[-57.99258,5.41473],[-57.98616,5.45388],[-58.00667,5.46566],[-58.02108,5.4985],[-58.0682,5.48917],[-58.09685,5.46345],[-58.11478,5.46547],[-58.16235,5.41917],[-58.18671,5.41315]]]},"properties":{"ID":"2","NAME":"Kwakwani","REGION":"Upper Demerara-Berbice","STATUS":"Neighbourhood Democratic Council","NCID":"1001"}},
{"type":"Feature","geometry":{"type":"Polygon","coordinates":[[[-58.30833,6.07272],[-58.33014,6.04745],[-58.34407,6.05406],[-58.38948,6.03693],[-58.38237,5.99689],[-58.39991,5.96728],[-58.38162,5.95974],[-58.33463,5.9864],[-58.31804,5.97648],[-58.2476,5.89503],[-58.21002,5.98469],[-58.2042,6.05173],[-58.23334,6.03906],[-58.26256,6.06155],[-58.28907,6.05751],[-58.30833,6.07272]]]},"properties":{"ID":"3","NAME":"Linden","REGION":"Upper Demerara-Berbice","STATUS":"Municipality","NCID":"1002"}},
{"type":"Feature","geometry":{"type":"Polygon","coordinates":[[[-58.23557,5.46793],[-58.26263,5.46906],[-58.27466,5.45176],[-58.37119,5.44579],[-58.39306,5.46071],[-58.41305,5.40653],[-58.46355,5.38395],[-58.4906,5.40231],[-58.56126,5.39523],[-58.56579,5.37046],[-58.55308,5.34343],[-58.59845,5.3364],[-58.63906,5.35464],[-58.69406,5.30667],[-58.71132,5.27654],[-58.73636,5.1695],[-58.72227,5.13745],[-58.73553,5.10867],[-58.73474,5.06254],[-58.72605,5.05254],[-58.70181,4.96235],[-58.66903,4.91362],[-58.70566,4.8788],[-58.67517,4.86104],[-58.61307,4.84894],[-58.56781,4.8613],[-58.55873,4.89552],[-58.50233,4.92984],[-58.49123,4.97478],[-58.52286,5.00788],[-58.53471,5.06757],[-58.45143,5.15402],[-58.41474,5.13726],[-58.39123,5.09341],[-58.37651,5.08537],[-58.35072,5.13898],[-58.29793,5.18044],[-58.28488,5.26742],[-58.27539,5.28175],[-58.28822,5.34429],[-58.26824,5.40636],[-58.24682,5.43522],[-58.23557,5.46793]]]},"properties":{"ID":"4","NAME":"Mabura Hills","REGION":"Upper Demerara-Berbice","STATUS":"Not Classified","NCID":"1005"}},
{"type":"Feature","geometry":{"type":"Polygon","coordinates":[[[-57.93681,5.36198],[-57.96017,5.33488],[-57.98346,5.26327],[-58.00922,5.23436],[-58.0391,5.16418],[-58.04139,5.09959],[-58.07293,5.06462],[-58.10971,5.06406],[-58.12841,5.0774],[-58.13772,5.05911],[-58.19997,5.05632],[-58.20134,5.07549],[-58.23648,5.08122],[-58.29186,5.07368],[-58.30782,5.04554],[-58.35583,5.02737],[-58.3853,4.99152],[-58.37204,4.96875],[-58.36928,4.91149],[-58.38982,4.87752],[-58.39716,4.84516],[-58.35168,4.83094],[-58.3299,4.77319],[-58.32135,4.72815],[-58.3239,4.67671],[-58.29753,4.64864],[-58.21078,4.65],[-58.14219,4.63988],[-58.09936,4.65528],[-58.07846,4.6833],[-58.06286,4.72731],[-58.04534,4.81986],[-57.98853,4.9259],[-57.90492,5.01168],[-57.88476,5.04511],[-57.84686,5.15257],[-57.80093,5.21648],[-57.79387,5.27218],[-57.78003,5.29563],[-57.74265,5.33021],[-57.70585,5.42136],[-57.70467,5.47939],[-57.68436,5.55908],[-57.66611,5.66865],[-57.6311,5.78622],[-57.66825,5.7803],[-57.67088,5.75087],[-57.71254,5.75189],[-57.74306,5.80855],[-57.76172,5.7866],[-57.74829,5.72778],[-57.78833,5.71488],[-57.78344,5.65766],[-57.82189,5.65921],[-57.80909,5.67046],[-57.82727,5.69183],[-57.84757,5.69394],[-57.86783,5.67358],[-57.87735,5.61473],[-57.90667,5.58473],[-57.9296,5.56758],[-57.89689,5.5515],[-57.88124,5.52566],[-57.83274,5.49216],[-57.84751,5.44271],[-57.86966,5.40479],[-57.93681,5.36198]]]},"properties":{"ID":"5","NAME":"Berbice River Settlements","REGION":"Upper Demerara-Berbice","STATUS":"Not Classified","NCID":"1007"}},
{"type":"Feature","geometry":{"type":"Polygon","coordinates":[[[-58.38749,6.13507],[-58.40854,6.11309],[-58.39973,6.06698],[-58.41297,6.01746],[-58.40624,5.99943],[-58.41416,5.9613],[-58.4107,5.9145],[-58.4413,5.86829],[-58.43926,5.85492],[-58.47121,5.7879],[-58.48905,5.74715],[-58.48494,5.70503],[-58.50483,5.65216],[-58.50475,5.62341],[-58.46305,5.64884],[-58.4304,5.69211],[-58.39477,5.69911],[-58.34464,5.65028],[-58.34171,5.62495],[-58.28933,5.61785],[-58.27942,5.68415],[-58.2557,5.72503],[-58.2527,5.80615],[-58.20984,5.81738],[-58.18135,5.86462],[-58.1809,5.90227],[-58.14503,5.98388],[-58.13588,6.02815],[-58.13676,6.08699],[-58.17577,6.08436],[-58.19902,6.12066],[-58.21668,6.12592],[-58.27733,6.09051],[-58.34393,6.12293],[-58.38749,6.13507]],[[-58.30833,6.07272],[-58.28907,6.05751],[-58.26256,6.06155],[-58.23334,6.03906],[-58.2042,6.05173],[-58.21002,5.98469],[-58.2476,5.89503],[-58.31804,5.97648],[-58.33463,5.9864],[-58.38162,5.95974],[-58.39991,5.96728],[-58.38237,5.99689],[-58.38948,6.03693],[-58.34407,6.05406],[-58.33014,6.04745],[-58.30833,6.07272]]]},"properties":{"ID":"6","NAME":"Coomaka Lands","REGION":"Upper Demerara-Berbice","STATUS":"Not Classified","NCID":"1003"}},
{"type":"Feature","geometry":{"type":"Polygon","coordinates":[[[-58.24682,5.43522],[-58.26824,5.40636],[-58.28822,5.34429],[-58.27539,5.28175],[-58.28488,5.26742],[-58.29793,5.18044],[-58.35072,5.13898],[-58.37651,5.08537],[-58.39123,5.09341],[-58.41474,5.13726],[-58.45143,5.15402],[-58.53471,5.06757],[-58.52286,5.00788],[-58.49123,4.97478],[-58.50233,4.92984],[-58.55873,4.89552],[-58.56781,4.8613],[-58.61307,4.84894],[-58.67517,4.86104],[-58.70566,4.8788],[-58.66903,4.91362],[-58.70181,4.96235],[-58.72605,5.05254],[-58.73474,5.06254],[-58.73553,5.10867],[-58.72227,5.13745],[-58.73636,5.1695],[-58.71132,5.27654],[-58.69406,5.30667],[-58.63906,5.35464],[-58.59845,5.3364],[-58.55308,5.34343],[-58.56579,5.37046],[-58.56126,5.39523],[-58.4906,5.40231],[-58.46355,5.38395],[-58.41305,5.40653],[-58.39306,5.46071],[-58.37119,5.44579],[-58.27466,5.45176],[-58.26263,5.46906],[-58.23557,5.46793],[-58.25417,5.50924],[-58.25375,5.55696],[-58.2227,5.57292],[-58.20188,5.571],[-58.18763,5.60166],[-58.15967,5.60693],[-58.14865,5.62455],[-58.11158,5.62658],[-58.07511,5.60774],[-57.99771,5.60853],[-57.96969,5.58121],[-57.92028,5.59889],[-57.90667,5.58473],[-57.87735,5.61473],[-57.86783,5.67358],[-57.84757,5.69394],[-57.82727,5.69183],[-57.80909,5.67046],[-57.82189,5.65921],[-57.78344,5.65766],[-57.78833,5.71488],[-57.74829,5.72778],[-57.76172,5.7866],[-57.74306,5.80855],[-57.71254,5.75189],[-57.67088,5.75087],[-57.66825,5.7803],[-57.6311,5.78622],[-57.67909,5.84399],[-57.67016,5.86269],[-57.73317,5.87795],[-57.77026,5.86829],[-57.82149,5.87239],[-57.85652,5.84428],[-57.87447,5.84516],[-57.88272,5.868],[-57.91922,5.86946],[-57.95866,5.92685],[-57.9831,5.93212],[-58.00194,5.95438],[-58.05228,5.96287],[-58.072,5.97721],[-58.14503,5.98388],[-58.1809,5.90227],[-58.18135,5.86462],[-58.20984,5.81738],[-58.2527,5.80615],[-58.2557,5.72503],[-58.27942,5.68415],[-58.28933,5.61785],[-58.34171,5.62495],[-58.34464,5.65028],[-58.39477,5.69911],[-58.4304,5.69211],[-58.46305,5.64884],[-58.50475,5.62341],[-58.50483,5.65216],[-58.48494,5.70503],[-58.48905,5.74715],[-58.47121,5.7879],[-58.49906,5.81648],[-58.50077,5.84521],[-58.55907,5.87953],[-58.57614,5.89662],[-58.59188,5.87358],[-58.59262,5.84137],[-58.61106,5.80968],[-58.60205,5.77195],[-58.60968,5.72927],[-58.60472,5.70031],[-58.61384,5.67589],[-58.59885,5.64807],[-58.62526,5.55915],[-58.62636,5.519],[-58.66869,5.44628],[-58.71333,5.42237],[-58.73728,5.42506],[-58.78621,5.40589],[-58.81551,5.41041],[-58.88177,5.39352],[-58.90585,5.34299],[-58.90232,5.3118],[-58.87805,5.29768],[-58.86216,5.26918],[-58.84108,5.25695],[-58.84876,5.16979],[-58.82197,5.15061],[-58.82071,5.12309],[-58.84856,5.09868],[-58.88143,4.97394],[-58.85252,4.92757],[-58.84932,4.90071],[-58.82045,4.83645],[-58.82341,4.80319],[-58.80007,4.78472],[-58.79972,4.76163],[-58.7381,4.76214],[-58.70943,4.74264],[-58.71132,4.69764],[-58.68814,4.68669],[-58.67527,4.6523],[-58.66446,4.65624],[-58.60396,4.62836],[-58.54775,4.61655],[-58.44894,4.61731],[-58.37634,4.62836],[-58.29753,4.64864],[-58.3239,4.67671],[-58.32135,4.72815],[-58.3299,4.77319],[-58.35168,4.83094],[-58.39716,4.84516],[-58.38982,4.87752],[-58.36928,4.91149],[-58.37204,4.96875],[-58.3853,4.99152],[-58.35583,5.02737],[-58.30782,5.04554],[-58.29186,5.07368],[-58.23648,5.08122],[-58.20134,5.07549],[-58.19997,5.05632],[-58.13772,5.05911],[-58.12841,5.0774],[-58.10971,5.06406],[-58.07293,5.06462],[-58.04139,5.09959],[-58.0391,5.16418],[-58.069,5.18586],[-58.09134,5.24379],[-58.13167,5.2687],[-58.12085,5.32622],[-58.13045,5.34675],[-58.17561,5.38842],[-58.18671,5.41315],[-58.20577,5.44244],[-58.24682,5.43522]]]},"properties":{"ID":"7","NAME":"Rest of Region 10","REGION":"Upper Demerara-Berbice","STATUS":"Not Classified","NCID":"1009"}},
{"type":"Feature","geometry":{"type":"Polygon","coordinates":[[[-58.38749,6.13507],[-58.39727,6.16144],[-58.41992,6.27609],[-58.4445,6.31963],[-58.53032,6.37308],[-58.54373,6.39885],[-58.55923,6.46429],[-58.61648,6.50178],[-58.62321,6.44733],[-58.60459,6.44466],[-58.60429,6.36599],[-58.5987,6.3373],[-58.57886,6.31],[-58.57022,6.25692],[-58.5751,6.24161],[-58.57214,6.14694],[-58.59303,6.09005],[-58.59378,6.05971],[-58.57865,6.01251],[-58.58492,5.94742],[-58.57614,5.89662],[-58.55907,5.87953],[-58.50077,5.84521],[-58.49906,5.81648],[-58.47121,5.7879],[-58.43926,5.85492],[-58.4413,5.86829],[-58.4107,5.9145],[-58.41416,5.9613],[-58.40624,5.99943],[-58.41297,6.01746],[-58.39973,6.06698],[-58.40854,6.11309],[-58.38749,6.13507]]]},"properties":{"ID":"8","NAME":"Makouria River","REGION":"Upper Demerara-Berbice","STATUS":"Not Classified","NCID":"1006"}}
]}