{"type":"FeatureCollection", "features": [
{"type":"Feature","geometry":{"type":"Polygon","coordinates":[[[-57.5648,6.18269],[-57.60248,6.18216],[-57.62246,6.17828],[-57.63725,6.15746],[-57.62544,6.1255],[-57.62853,6.10216],[-57.61987,6.09038],[-57.60409,6.08827],[-57.59066,6.08076],[-57.58828,6.07139],[-57.60916,6.04502],[-57.61628,6.02404],[-57.63401,5.99167],[-57.64778,5.9884],[-57.66388,6.01124],[-57.69164,6.01994],[-57.71055,5.99444],[-57.70821,5.98337],[-57.69782,5.98064],[-57.68211,5.96538],[-57.67806,5.94109],[-57.67872,5.91798],[-57.65441,5.88511],[-57.65572,5.86423],[-57.67016,5.86269],[-57.67909,5.84399],[-57.6613,5.82954],[-57.64731,5.80312],[-57.63351,5.79389],[-57.63128,5.77608],[-57.66611,5.66865],[-57.68436,5.55908],[-57.70467,5.47939],[-57.70585,5.42136],[-57.74265,5.33021],[-57.78003,5.29563],[-57.79387,5.27218],[-57.80093,5.21648],[-57.84686,5.15257],[-57.86871,5.09525],[-57.88476,5.04511],[-57.90492,5.01168],[-57.98853,4.9259],[-58.01531,4.88263],[-58.04534,4.81986],[-58.05564,4.77219],[-58.06286,4.72731],[-58.0738,4.69587],[-58.07346,4.69677],[-58.06263,4.66444],[-58.05603,4.6629],[-58.05464,4.66217],[-58.0491,4.65927],[-58.04656,4.65794],[-58.03731,4.65436],[-58.02529,4.651],[-57.99637,4.64293],[-57.92906,4.61904],[-57.91259,4.6108],[-57.88235,4.60459],[-57.85419,4.61513],[-57.84472,4.63361],[-57.83778,4.66083],[-57.84389,4.68222],[-57.85389,4.69306],[-57.87194,4.7225],[-57.87833,4.75028],[-57.89056,4.77222],[-57.9175,4.77972],[-57.92639,4.805],[-57.91806,4.83167],[-57.90417,4.85222],[-57.86389,4.89639],[-57.84389,4.92444],[-57.82611,4.93139],[-57.80556,4.92444],[-57.77611,4.92111],[-57.75833,4.93056],[-57.75306,4.93889],[-57.755,4.95583],[-57.74611,4.9675],[-57.68778,5.01056],[-57.67,5.01194],[-57.60778,4.99194],[-57.54999,5.00405],[-57.54558,5.00901],[-57.52111,5.00786],[-57.51292,4.99605],[-57.47333,4.98944],[-57.44194,4.99472],[-57.42611,4.99],[-57.40889,4.99194],[-57.37886,5.01399],[-57.35361,5.01194],[-57.34265,5.01518],[-57.33041,5.03517],[-57.31995,5.03291],[-57.30134,5.01282],[-57.28717,5.01541],[-57.28596,5.03815],[-57.29417,5.04945],[-57.32194,5.06389],[-57.32234,5.08946],[-57.30139,5.11778],[-57.29778,5.12778],[-57.29598,5.16806],[-57.28833,5.17779],[-57.26359,5.18219],[-57.23545,5.16183],[-57.22982,5.13066],[-57.21325,5.13641],[-57.20624,5.15176],[-57.1865,5.15623],[-57.17628,5.16942],[-57.18029,5.19577],[-57.20697,5.22434],[-57.21441,5.25156],[-57.22207,5.26325],[-57.2525,5.27905],[-57.26387,5.27368],[-57.26917,5.25472],[-57.25611,5.23361],[-57.25766,5.22409],[-57.27688,5.22507],[-57.29111,5.25083],[-57.28917,5.28278],[-57.285,5.30611],[-57.28672,5.32016],[-57.29769,5.32699],[-57.32513,5.31397],[-57.33778,5.32574],[-57.32667,5.34301],[-57.27806,5.37306],[-57.26737,5.38402],[-57.26306,5.41917],[-57.2661,5.456],[-57.25911,5.48227],[-57.22281,5.5103],[-57.18937,5.55996],[-57.16601,5.60462],[-57.15772,5.63164],[-57.14564,5.65752],[-57.13943,5.69256],[-57.1392,5.71889],[-57.14449,5.75141],[-57.13602,5.80759],[-57.13609,5.8076],[-57.18351,5.81005],[-57.29207,5.83763],[-57.29615,5.88301],[-57.28887,5.90264],[-57.28938,5.90603],[-57.28944,5.90646],[-57.25393,5.89774],[-57.24886,5.89776],[-57.24844,5.90406],[-57.24831,5.91413],[-57.21684,5.91257],[-57.20038,5.91192],[-57.20033,5.91191],[-57.2015,5.9174],[-57.20191,5.91873],[-57.20385,5.92744],[-57.20437,5.93006],[-57.20537,5.93467],[-57.20679,5.94079],[-57.20895,5.95091],[-57.20902,5.95162],[-57.2092,5.95261],[-57.21379,5.97471],[-57.2148,5.97946],[-57.21921,6.00026],[-57.22071,6.0073],[-57.22167,6.01052],[-57.22572,6.02822],[-57.22613,6.03022],[-57.22614,6.03023],[-57.22614,6.03024],[-57.22616,6.03023],[-57.22618,6.03022],[-57.22868,6.0294],[-57.23186,6.02837],[-57.2333,6.02788],[-57.23609,6.02699],[-57.27778,6.01378],[-57.2799,6.01748],[-57.29211,6.03963],[-57.29476,6.04448],[-57.30088,6.05568],[-57.30581,6.0651],[-57.30916,6.07151],[-57.31201,6.07702],[-57.33371,6.11764],[-57.34175,6.11884],[-57.34987,6.10886],[-57.36466,6.0993],[-57.39733,6.15666],[-57.38944,6.15926],[-57.35617,6.27834],[-57.37979,6.29427],[-57.39441,6.23971],[-57.40328,6.25623],[-57.40567,6.28379],[-57.42336,6.28334],[-57.4218,6.26566],[-57.43491,6.2695],[-57.4322,6.23654],[-57.41524,6.22005],[-57.41341,6.20875],[-57.42661,6.20939],[-57.45254,6.20594],[-57.46446,6.20979],[-57.48487,6.24507],[-57.48057,6.25005],[-57.49048,6.2531],[-57.50453,6.24389],[-57.50851,6.25037],[-57.51116,6.21126],[-57.50466,6.18898],[-57.49575,6.18834],[-57.47474,6.157],[-57.48594,6.14554],[-57.48367,6.13941],[-57.48635,6.07773],[-57.53317,6.08303],[-57.5648,6.18269]]]},"properties":{"ID":"1","REGION":"East Berbice-Corentyne","NCD":"Corentyne River","STATUS":"Not Classified","NCID":"620"}},
{"type":"Feature","geometry":{"type":"Polygon","coordinates":[[[-57.24844,5.90406],[-57.24879,5.89791],[-57.23403,5.89805],[-57.23364,5.89807],[-57.23179,5.89807],[-57.21095,5.89803],[-57.19969,5.89813],[-57.19958,5.89813],[-57.20905,5.87859],[-57.18335,5.86694],[-57.13059,5.84808],[-57.11911,5.89903],[-57.12733,5.91435],[-57.1358,5.91902],[-57.1392,5.91805],[-57.13922,5.91803],[-57.15823,5.91256],[-57.1596,5.91222],[-57.16446,5.91103],[-57.1649,5.91092],[-57.16797,5.91009],[-57.20036,5.91179],[-57.20036,5.91182],[-57.20038,5.91192],[-57.21684,5.91257],[-57.24831,5.91413],[-57.24844,5.90406]]]},"properties":{"ID":"2","REGION":"East Berbice-Corentyne","NCD":"Corriverton","STATUS":"Municipality","NCID":"617"}},
{"type":"Feature","geometry":{"type":"Polygon","coordinates":[[[-58.0738,4.69587],[-58.07846,4.6833],[-58.09112,4.66218],[-58.09936,4.65528],[-58.12703,4.64795],[-58.14219,4.63988],[-58.18414,4.64091],[-58.21078,4.65],[-58.23919,4.64736],[-58.30572,4.64853],[-58.31572,4.64472],[-58.31887,4.61882],[-58.3282,4.58741],[-58.38037,4.50147],[-58.40331,4.46956],[-58.41062,4.45498],[-58.40936,4.39014],[-58.44616,4.32756],[-58.46809,4.27628],[-58.46482,4.25668],[-58.44339,4.22676],[-58.40382,4.17623],[-58.38567,4.15939],[-58.38138,4.13752],[-58.36021,4.091],[-58.35265,4.03242],[-58.35214,3.97735],[-58.3655,3.9517],[-58.36071,3.92605],[-58.34534,3.89487],[-58.34206,3.86695],[-58.33803,3.86016],[-58.33702,3.83225],[-58.31988,3.76937],[-58.30047,3.74799],[-58.28963,3.73088],[-58.28509,3.70347],[-58.26619,3.67907],[-58.22258,3.63681],[-58.21451,3.61416],[-58.19183,3.5714],[-58.18956,3.5475],[-58.17771,3.53643],[-58.16712,3.51655],[-58.16586,3.46372],[-58.15402,3.42195],[-58.1457,3.38269],[-58.1394,3.37112],[-58.13612,3.34596],[-58.14015,3.33463],[-58.13814,3.30267],[-58.14267,3.29034],[-58.1404,3.26266],[-58.13284,3.22919],[-58.1215,3.20478],[-58.09705,3.16099],[-58.07209,3.12877],[-58.05647,3.11895],[-58.03882,3.08523],[-57.9937,3.02532],[-57.98034,2.99461],[-57.97152,2.95383],[-57.95337,2.91053],[-57.94934,2.88536],[-57.95791,2.85943],[-58.00378,2.78742],[-58.02647,2.76023],[-58.0426,2.73404],[-58.05168,2.71164],[-58.05369,2.66405],[-58.04638,2.61898],[-58.04437,2.58196],[-58.03958,2.54645],[-58.03907,2.50994],[-58.05495,2.44824],[-58.11167,2.35027],[-58.13562,2.31048],[-58.16158,2.23819],[-58.18502,2.18051],[-58.19989,2.12837],[-58.23191,2.02912],[-58.24905,1.98756],[-58.26039,1.947],[-58.27904,1.90266],[-58.29568,1.8558],[-58.30778,1.8296],[-58.36222,1.75074],[-58.39146,1.67994],[-58.40382,1.63937],[-58.41717,1.60259],[-58.48649,1.51238],[-58.51397,1.47861],[-58.50873,1.46295],[-58.49342,1.4682],[-58.48833,1.46205],[-58.47277,1.46107],[-58.46192,1.46605],[-58.44844,1.45602],[-58.43939,1.46444],[-58.41277,1.47268],[-58.38559,1.46999],[-58.37175,1.48157],[-58.38517,1.48862],[-58.39153,1.50634],[-58.38358,1.51087],[-58.39373,1.51991],[-58.38954,1.53538],[-58.36309,1.53802],[-58.36039,1.56018],[-58.34345,1.56652],[-58.34453,1.57574],[-58.32237,1.59701],[-58.31433,1.59394],[-58.31714,1.56844],[-58.29281,1.56429],[-58.28816,1.57243],[-58.27173,1.56738],[-58.26226,1.57073],[-58.236,1.54669],[-58.21286,1.56479],[-58.19303,1.57222],[-58.18381,1.56526],[-58.16064,1.56011],[-58.1552,1.53],[-58.14606,1.51535],[-58.14956,1.51001],[-58.12943,1.49889],[-58.11131,1.50117],[-58.09759,1.51393],[-58.0855,1.51484],[-58.08495,1.50796],[-58.06945,1.50734],[-58.06093,1.52534],[-58.04056,1.52092],[-58.02717,1.50862],[-58.00423,1.50303],[-58.0055,1.51677],[-57.98937,1.54763],[-57.99431,1.55314],[-57.97856,1.57278],[-57.98387,1.58626],[-57.98136,1.5963],[-57.98528,1.61674],[-57.98031,1.63321],[-58.00261,1.64568],[-57.9902,1.65147],[-57.99009,1.65844],[-57.97042,1.65438],[-57.96186,1.6571],[-57.9502,1.6476],[-57.92676,1.64481],[-57.90472,1.65568],[-57.89498,1.67431],[-57.87715,1.67179],[-57.87712,1.68029],[-57.85206,1.66782],[-57.85306,1.67786],[-57.84417,1.6889],[-57.8195,1.68384],[-57.79637,1.691],[-57.80365,1.70185],[-57.79689,1.70321],[-57.79226,1.72664],[-57.78037,1.71923],[-57.77431,1.72973],[-57.75823,1.7187],[-57.74497,1.72286],[-57.73115,1.71889],[-57.70817,1.72071],[-57.70509,1.73093],[-57.69804,1.71374],[-57.67506,1.70597],[-57.65042,1.68237],[-57.63292,1.69142],[-57.62934,1.69848],[-57.60476,1.69297],[-57.59783,1.70048],[-57.57604,1.70266],[-57.57709,1.69035],[-57.5645,1.69587],[-57.55323,1.69244],[-57.55034,1.70067],[-57.5376,1.7005],[-57.53418,1.70819],[-57.54129,1.7204],[-57.52609,1.728],[-57.51887,1.72113],[-57.51451,1.74727],[-57.49729,1.76682],[-57.50187,1.78609],[-57.4509,1.80636],[-57.44476,1.82229],[-57.43776,1.82681],[-57.44499,1.84111],[-57.43192,1.85848],[-57.42923,1.87386],[-57.43612,1.88055],[-57.43343,1.90598],[-57.40287,1.91268],[-57.39842,1.92182],[-57.38503,1.92743],[-57.36768,1.92372],[-57.35704,1.94716],[-57.36912,1.95638],[-57.35423,1.96109],[-57.35623,1.97041],[-57.34562,1.98027],[-57.3132,1.9772],[-57.30712,1.99665],[-57.27723,1.983],[-57.25542,1.95034],[-57.22923,1.93759],[-57.22912,1.95351],[-57.21473,1.96129],[-57.1999,1.97866],[-57.18334,1.97957],[-57.17909,1.99016],[-57.16395,1.99477],[-57.14746,1.98907],[-57.14084,2.00102],[-57.11997,2.01015],[-57.11163,2.02952],[-57.09629,2.01785],[-57.08668,2.02644],[-57.08254,2.00753],[-57.07112,1.99659],[-57.07121,1.96872],[-57.06393,1.95597],[-57.05645,1.95678],[-57.03195,1.94692],[-57.0244,1.92783],[-57.01421,1.91489],[-57.0007,1.90729],[-56.97148,1.90557],[-56.95917,1.92439],[-56.94982,1.91941],[-56.91971,1.93036],[-56.89348,1.89933],[-56.85626,1.88919],[-56.84582,1.89326],[-56.83095,1.88883],[-56.82862,1.88159],[-56.79885,1.87254],[-56.79793,1.85336],[-56.78804,1.85435],[-56.78865,1.86412],[-56.77385,1.86883],[-56.7649,1.88837],[-56.75354,1.89262],[-56.74976,1.90284],[-56.7376,1.90863],[-56.73473,1.91722],[-56.72096,1.92581],[-56.70465,1.92391],[-56.68235,1.91233],[-56.65104,1.91712],[-56.64915,1.93114],[-56.64102,1.93132],[-56.62145,1.94588],[-56.60784,1.93429],[-56.5984,1.93646],[-56.59643,1.92588],[-56.57976,1.90588],[-56.54665,1.91537],[-56.52491,1.92468],[-56.51799,1.93228],[-56.49557,1.93797],[-56.48285,1.95407],[-56.46895,1.94918],[-56.48112,1.96861],[-56.51945,1.985],[-56.53723,2.00833],[-56.56278,2.02389],[-56.58584,2.02806],[-56.64612,2.02806],[-56.69084,2.02611],[-56.72667,2.08639],[-56.77167,2.13694],[-56.82112,2.21083],[-56.82167,2.23611],[-56.8264,2.26556],[-56.84973,2.28361],[-56.87723,2.29028],[-56.88612,2.30194],[-56.88334,2.33222],[-56.88556,2.3575],[-56.89028,2.36639],[-56.90612,2.37806],[-56.92528,2.38611],[-56.93473,2.39722],[-56.93556,2.40889],[-56.93001,2.43611],[-56.94667,2.44722],[-56.95806,2.47667],[-56.95001,2.5025],[-56.95001,2.515],[-56.96445,2.51694],[-56.97917,2.50472],[-56.98945,2.5025],[-56.99862,2.51417],[-56.99695,2.55528],[-57.0039,2.56778],[-57.02306,2.58278],[-57.02862,2.60444],[-57.01778,2.63472],[-57.02473,2.64167],[-57.03695,2.64167],[-57.05056,2.63472],[-57.06028,2.6375],[-57.06362,2.64778],[-57.06028,2.67167],[-57.06501,2.6875],[-57.08195,2.71417],[-57.10278,2.73472],[-57.10278,2.74556],[-57.08917,2.76611],[-57.09862,2.77694],[-57.11778,2.77833],[-57.1314,2.77167],[-57.14195,2.77361],[-57.1464,2.7825],[-57.13778,2.80778],[-57.12612,2.81667],[-57.1314,2.82917],[-57.14917,2.83056],[-57.17667,2.81667],[-57.18778,2.81806],[-57.19112,2.83528],[-57.20834,2.8525],[-57.20751,2.875],[-57.21862,2.88806],[-57.2239,2.90306],[-57.21917,2.91194],[-57.19445,2.92833],[-57.18362,2.95167],[-57.19723,2.95833],[-57.22612,2.95583],[-57.23028,2.9775],[-57.22001,2.99417],[-57.22723,3.00694],[-57.22473,3.02083],[-57.20473,3.02556],[-57.21084,3.04667],[-57.21084,3.06056],[-57.22112,3.07611],[-57.24667,3.08778],[-57.2489,3.10889],[-57.2364,3.13639],[-57.24306,3.14333],[-57.26362,3.12944],[-57.27473,3.12944],[-57.28501,3.13972],[-57.27473,3.16306],[-57.28973,3.17528],[-57.29056,3.18167],[-57.28306,3.23556],[-57.28417,3.24778],[-57.29473,3.27861],[-57.28417,3.28889],[-57.28723,3.30528],[-57.2789,3.32444],[-57.29862,3.35944],[-57.30001,3.38417],[-57.30834,3.38944],[-57.31723,3.38472],[-57.3289,3.36889],[-57.35778,3.35806],[-57.38778,3.36222],[-57.41167,3.37917],[-57.42195,3.38278],[-57.42751,3.36083],[-57.43501,3.35472],[-57.45751,3.34972],[-57.47334,3.33833],[-57.50001,3.35111],[-57.52056,3.36472],[-57.53723,3.36083],[-57.55001,3.34639],[-57.59751,3.34167],[-57.61944,3.34722],[-57.64667,3.36083],[-57.65972,3.375],[-57.66611,3.38944],[-57.66528,3.40111],[-57.63722,3.45528],[-57.63806,3.46694],[-57.65028,3.49556],[-57.65639,3.52361],[-57.66861,3.53861],[-57.70639,3.55583],[-57.71472,3.56806],[-57.72278,3.59472],[-57.73444,3.61028],[-57.755,3.62278],[-57.82083,3.65278],[-57.83861,3.66917],[-57.84556,3.68972],[-57.84889,3.74111],[-57.86111,3.77667],[-57.87611,3.80944],[-57.89,3.83],[-57.90917,3.85194],[-57.92889,3.88667],[-57.95694,3.92028],[-58.01611,3.96389],[-58.04333,3.99806],[-58.04917,4.02694],[-58.04917,4.07889],[-58.06472,4.12472],[-58.07083,4.15944],[-58.06556,4.17444],[-58.04694,4.2025],[-58.03389,4.21694],[-58.01278,4.22972],[-57.99417,4.2525],[-57.97639,4.26889],[-57.95917,4.27972],[-57.95361,4.28806],[-57.94889,4.31722],[-57.94833,4.34944],[-57.95917,4.37944],[-57.95861,4.40333],[-57.94139,4.42722],[-57.92778,4.44083],[-57.91806,4.45861],[-57.91056,4.48472],[-57.89556,4.5175],[-57.87694,4.57417],[-57.85419,4.61513],[-57.88235,4.60459],[-57.91259,4.6108],[-57.92906,4.61904],[-57.99637,4.64293],[-58.02529,4.651],[-58.03731,4.65436],[-58.04656,4.65794],[-58.0491,4.65927],[-58.05464,4.66217],[-58.05603,4.6629],[-58.06263,4.66444],[-58.07346,4.69677],[-58.0738,4.69587]]]},"properties":{"ID":"3","REGION":"East Berbice-Corentyne","NCD":"East Bank Berbice","STATUS":"Not Classified","NCID":"622"}},
{"type":"Feature","geometry":{"type":"Polygon","coordinates":[[[-57.50466,6.18898],[-57.53234,6.18497],[-57.53336,6.18745],[-57.53052,6.19147],[-57.52964,6.19425],[-57.53065,6.19131],[-57.53341,6.1876],[-57.5379,6.18509],[-57.5648,6.18269],[-57.53317,6.08303],[-57.48635,6.07773],[-57.48367,6.13941],[-57.48594,6.14554],[-57.47474,6.157],[-57.49575,6.18834],[-57.50466,6.18898]]]},"properties":{"ID":"4","REGION":"East Berbice-Corentyne","NCD":"Enfield / New Doe Park","STATUS":"Neighbourhood Democratic Council","NCID":"616"}},
{"type":"Feature","geometry":{"type":"Polygon","coordinates":[[[-57.37979,6.29427],[-57.40772,6.31084],[-57.40567,6.28379],[-57.40328,6.25623],[-57.39441,6.23971],[-57.37979,6.29427]]]},"properties":{"ID":"5","REGION":"East Berbice-Corentyne","NCD":"Fyrish / Gibraltar","STATUS":"Neighbourhood Democratic Council","NCID":"611"}},
{"type":"Feature","geometry":{"type":"Polygon","coordinates":[[[-57.38944,6.15926],[-57.38514,6.15828],[-57.35441,6.2691],[-57.35481,6.26932],[-57.35479,6.26934],[-57.35412,6.27125],[-57.35617,6.27834],[-57.38944,6.15926]]]},"properties":{"ID":"6","REGION":"East Berbice-Corentyne","NCD":"Hampshire / Kilcoy","STATUS":"Neighbourhood Democratic Council","NCID":"610"}},
{"type":"Feature","geometry":{"type":"Polygon","coordinates":[[[-57.30663,6.24334],[-57.32514,6.17892],[-57.30084,6.15418],[-57.29484,6.15932],[-57.27802,6.22056],[-57.30663,6.24334]]]},"properties":{"ID":"7","REGION":"East Berbice-Corentyne","NCD":"Hogstye / Lancaster","STATUS":"Neighbourhood Democratic Council","NCID":"607"}},
{"type":"Feature","geometry":{"type":"Polygon","coordinates":[[[-57.32092,6.25326],[-57.32103,6.25331],[-57.32191,6.25445],[-57.32458,6.25665],[-57.33147,6.26108],[-57.34669,6.2729],[-57.349,6.27311],[-57.3801,6.15686],[-57.38514,6.15828],[-57.38944,6.15926],[-57.39733,6.15666],[-57.36466,6.0993],[-57.36255,6.10081],[-57.32909,6.22442],[-57.32091,6.25325],[-57.32092,6.25326]]]},"properties":{"ID":"8","REGION":"East Berbice-Corentyne","NCD":"John / Port Mourant","STATUS":"Neighbourhood Democratic Council","NCID":"609"}},
{"type":"Feature","geometry":{"type":"Polygon","coordinates":[[[-57.18604,6.12183],[-57.20958,6.15514],[-57.229,6.17531],[-57.24748,6.10688],[-57.22366,6.10338],[-57.21012,6.09013],[-57.18604,6.12183]]]},"properties":{"ID":"9","REGION":"East Berbice-Corentyne","NCD":"Joppa / Macedonia","STATUS":"Neighbourhood Democratic Council","NCID":"604"}},
{"type":"Feature","geometry":{"type":"Polygon","coordinates":[[[-57.50851,6.25037],[-57.50956,6.25998],[-57.51888,6.26021],[-57.52223,6.25854],[-57.52645,6.22343],[-57.5317,6.22422],[-57.52868,6.19732],[-57.52964,6.19425],[-57.53052,6.19147],[-57.53336,6.18745],[-57.53234,6.18497],[-57.50466,6.18898],[-57.51116,6.21126],[-57.50851,6.25037]]]},"properties":{"ID":"10","REGION":"East Berbice-Corentyne","NCD":"New Amsterdam","STATUS":"Municipality","NCID":"619"}},
{"type":"Feature","geometry":{"type":"Polygon","coordinates":[[[-57.48057,6.25005],[-57.44154,6.23909],[-57.42661,6.20939],[-57.41341,6.20875],[-57.41524,6.22005],[-57.4322,6.23654],[-57.43491,6.2695],[-57.51818,6.29323],[-57.52225,6.25854],[-57.51888,6.26021],[-57.50956,6.25998],[-57.50851,6.25037],[-57.50453,6.24389],[-57.49048,6.2531],[-57.48057,6.25005]]]},"properties":{"ID":"11","REGION":"East Berbice-Corentyne","NCD":"Ordnance / Fortlands","STATUS":"Neighbourhood Democratic Council","NCID":"613"}},
{"type":"Feature","geometry":{"type":"Polygon","coordinates":[[[-57.22614,6.03023],[-57.21827,6.0327],[-57.21531,6.03362],[-57.18496,6.04313],[-57.16932,6.04804],[-57.16515,6.04952],[-57.16219,6.0506],[-57.16914,6.08593],[-57.18604,6.12183],[-57.21012,6.09013],[-57.22709,6.06734],[-57.22972,6.05398],[-57.23074,6.05079],[-57.22908,6.0435],[-57.22842,6.04043],[-57.22669,6.03256],[-57.22616,6.03023],[-57.22614,6.03024],[-57.22614,6.03023]]]},"properties":{"ID":"12","REGION":"East Berbice-Corentyne","NCD":"No.51 Village / Good Hope","STATUS":"Neighbourhood Democratic Council","NCID":"603"}},
{"type":"Feature","geometry":{"type":"Polygon","coordinates":[[[-57.38514,6.15828],[-57.3801,6.15686],[-57.349,6.27311],[-57.35412,6.27125],[-57.35479,6.26934],[-57.35481,6.26932],[-57.35441,6.2691],[-57.38514,6.15828]]]},"properties":{"ID":"14","REGION":"East Berbice-Corentyne","NCD":"Rose Hall","STATUS":"Municipality","NCID":"618"}},
{"type":"Feature","geometry":{"type":"Polygon","coordinates":[[[-57.229,6.17531],[-57.25486,6.19931],[-57.27368,6.12991],[-57.24748,6.10688],[-57.229,6.17531]]]},"properties":{"ID":"15","REGION":"East Berbice-Corentyne","NCD":"Tarlogie / Maida","STATUS":"Neighbourhood Democratic Council","NCID":"605"}},
{"type":"Feature","geometry":{"type":"Polygon","coordinates":[[[-57.34175,6.11884],[-57.32514,6.17892],[-57.30663,6.24334],[-57.32092,6.25327],[-57.32092,6.25326],[-57.32091,6.25325],[-57.32909,6.22442],[-57.36255,6.10081],[-57.36466,6.0993],[-57.34987,6.10886],[-57.34175,6.11884]]]},"properties":{"ID":"16","REGION":"East Berbice-Corentyne","NCD":"Whim / Bloomfield","STATUS":"Neighbourhood Democratic Council","NCID":"608"}},
{"type":"Feature","geometry":{"type":"Polygon","coordinates":[[[-57.22616,6.03023],[-57.22669,6.03256],[-57.22842,6.04043],[-57.22908,6.0435],[-57.23074,6.05079],[-57.22972,6.05398],[-57.22709,6.06734],[-57.21012,6.09013],[-57.22366,6.10338],[-57.24748,6.10688],[-57.27368,6.12991],[-57.30084,6.15418],[-57.32514,6.17892],[-57.34175,6.11884],[-57.33371,6.11764],[-57.31201,6.07702],[-57.30916,6.07151],[-57.30581,6.0651],[-57.30088,6.05568],[-57.29476,6.04448],[-57.29211,6.03963],[-57.2799,6.01748],[-57.27778,6.01378],[-57.23609,6.02699],[-57.2333,6.02788],[-57.23186,6.02837],[-57.22868,6.0294],[-57.22618,6.03022],[-57.22616,6.03023]]]},"properties":{"ID":"17","REGION":"East Berbice-Corentyne","NCD":"Black Bush Polder land Development Scheme","STATUS":"Neighbourhood Democratic Council","NCID":"615"}},
{"type":"Feature","geometry":{"type":"Polygon","coordinates":[[[-57.40567,6.28379],[-57.40772,6.31084],[-57.44209,6.32871],[-57.48111,6.34027],[-57.49193,6.3384],[-57.51763,6.31135],[-57.51818,6.29323],[-57.43491,6.2695],[-57.4218,6.26566],[-57.42336,6.28334],[-57.40567,6.28379]]]},"properties":{"ID":"18","REGION":"East Berbice-Corentyne","NCD":"Borlam ( No.37 ) / Kintyre","STATUS":"Neighbourhood Democratic Council","NCID":"612"}},
{"type":"Feature","geometry":{"type":"Polygon","coordinates":[[[-57.30084,6.15418],[-57.27368,6.12991],[-57.25486,6.19931],[-57.27802,6.22056],[-57.29484,6.15932],[-57.30084,6.15418]]]},"properties":{"ID":"19","REGION":"East Berbice-Corentyne","NCD":"Bush Lot / Adventure","STATUS":"Neighbourhood Democratic Council","NCID":"606"}},
{"type":"Feature","geometry":{"type":"Polygon","coordinates":[[[-57.42661,6.20939],[-57.44154,6.23909],[-57.48057,6.25005],[-57.48487,6.24507],[-57.46446,6.20979],[-57.45254,6.20594],[-57.42661,6.20939]]]},"properties":{"ID":"20","REGION":"East Berbice-Corentyne","NCD":"Cane Field / Enterprise","STATUS":"Neighbourhood Democratic Council","NCID":"614"}},
{"type":"Feature","geometry":{"type":"Polygon","coordinates":[[[-57.20038,5.91192],[-57.20036,5.91182],[-57.20036,5.91179],[-57.16797,5.91009],[-57.1649,5.91092],[-57.16446,5.91103],[-57.1596,5.91222],[-57.15823,5.91256],[-57.13922,5.91803],[-57.1392,5.91805],[-57.13813,5.91886],[-57.1398,5.92539],[-57.14082,5.9436],[-57.14012,5.95201],[-57.1427,5.98379],[-57.15304,6.01182],[-57.16211,6.05028],[-57.16478,6.04947],[-57.16932,6.04804],[-57.18496,6.04313],[-57.21531,6.03362],[-57.21827,6.0327],[-57.22614,6.03023],[-57.22613,6.03022],[-57.22572,6.02822],[-57.22167,6.01052],[-57.22071,6.0073],[-57.21921,6.00026],[-57.2148,5.97946],[-57.21379,5.97471],[-57.2092,5.95261],[-57.20902,5.95162],[-57.20895,5.95091],[-57.20679,5.94079],[-57.20537,5.93467],[-57.20437,5.93006],[-57.20385,5.92744],[-57.20191,5.91873],[-57.2015,5.9174],[-57.20033,5.91191],[-57.20038,5.91192]]]},"properties":{"ID":"21","REGION":"","NCD":"","STATUS":"Neighbourhood Democratic Council","NCID":""}},
{"type":"Feature","geometry":{"type":"Polygon","coordinates":[[[-57.13609,5.8076],[-57.13469,5.82151],[-57.13352,5.82919],[-57.13305,5.83548],[-57.13041,5.84794],[-57.18335,5.86694],[-57.20905,5.87859],[-57.19958,5.89813],[-57.19969,5.89813],[-57.21095,5.89803],[-57.23179,5.89807],[-57.23364,5.89807],[-57.23403,5.89805],[-57.24879,5.89791],[-57.24844,5.90406],[-57.24886,5.89776],[-57.25393,5.89774],[-57.28944,5.90646],[-57.28938,5.90603],[-57.28887,5.90264],[-57.29615,5.88301],[-57.29207,5.83763],[-57.18351,5.81005],[-57.13609,5.8076]]]},"properties":{"ID":"22","REGION":"East Berbice-Corentyne","NCD":"Jackson Creek / Crabwood Creek","STATUS":"Neighbourhood Democratic Council","NCID":"601"}}
]}