{"type":"FeatureCollection", "features": [
{"type":"Feature","geometry":{"type":"Polygon","coordinates":[[[-58.63232,6.40883],[-58.62608,6.40476],[-58.62452,6.39747],[-58.62031,6.39506],[-58.61708,6.40708],[-58.62152,6.4104],[-58.6309,6.41158],[-58.63232,6.40883]]]},"properties":{"ID":701,"NDC":"Bartica","REGION":7,"REG_NAME":"Cuyuni- Mazaruni","STATUS":"Municipality","Males_2012":1700,"Fem_2012":1673,"Tot_2012":3400}},
{"type":"Feature","geometry":{"type":"Polygon","coordinates":[[[-59.95456,5.44705],[-59.95887,5.44237],[-59.95887,5.44235],[-59.95889,5.44234],[-59.95903,5.44142],[-59.95893,5.44072],[-59.95882,5.43994],[-59.95867,5.4388],[-59.95832,5.43762],[-59.95811,5.43631],[-59.95806,5.43599],[-59.95806,5.4356],[-59.95808,5.43488],[-59.95811,5.43408],[-59.95811,5.43395],[-59.95774,5.43341],[-59.95738,5.43288],[-59.95736,5.43248],[-59.95737,5.43148],[-59.95699,5.4301],[-59.95691,5.42945],[-59.95675,5.42829],[-59.95673,5.42816],[-59.95623,5.42785],[-59.9556,5.42732],[-59.95533,5.42705],[-59.9546,5.42656],[-59.94481,5.41228],[-59.93901,5.41411],[-59.93679,5.41428],[-59.93551,5.41419],[-59.92878,5.41332],[-59.92096,5.41237],[-59.91398,5.41068],[-59.90516,5.40626],[-59.90045,5.40283],[-59.90027,5.40267],[-59.89906,5.40181],[-59.89809,5.40101],[-59.89789,5.40087],[-59.89788,5.40086],[-59.87148,5.41129],[-59.82359,5.41505],[-59.76763,5.40978],[-59.71873,5.40376],[-59.69554,5.39423],[-59.66302,5.39498],[-59.61109,5.39021],[-59.59698,5.39448],[-59.59572,5.40426],[-59.59118,5.40828],[-59.59118,5.41857],[-59.59647,5.42283],[-59.59925,5.50739],[-59.6063,5.52797],[-59.60883,5.54152],[-59.60656,5.55456],[-59.60152,5.56309],[-59.58337,5.58166],[-59.55564,5.60273],[-59.5148,5.62807],[-59.5027,5.62656],[-59.47246,5.62581],[-59.46313,5.62079],[-59.44196,5.60725],[-59.4223,5.59596],[-59.40465,5.5952],[-59.37919,5.59746],[-59.35474,5.6095],[-59.33079,5.64312],[-59.3076,5.67949],[-59.28845,5.70256],[-59.27105,5.71335],[-59.24786,5.72238],[-59.23173,5.72564],[-59.22518,5.72464],[-59.19216,5.69604],[-59.17401,5.67548],[-59.15939,5.66394],[-59.15057,5.62129],[-59.13872,5.60975],[-59.12662,5.59922],[-59.11931,5.58843],[-59.1178,5.55908],[-59.12309,5.54001],[-59.11603,5.52044],[-59.09713,5.51542],[-59.08427,5.51718],[-59.07217,5.5227],[-59.03386,5.54202],[-59.021,5.54026],[-59.00613,5.53073],[-58.9905,5.50689],[-58.97261,5.48732],[-58.95925,5.47979],[-58.93303,5.47678],[-58.90833,5.47302],[-58.90152,5.46298],[-58.89119,5.43362],[-58.88363,5.42333],[-58.87551,5.39566],[-58.86304,5.40272],[-58.85752,5.40355],[-58.84994,5.40199],[-58.83301,5.4017],[-58.82651,5.40657],[-58.81551,5.41041],[-58.80108,5.40598],[-58.78621,5.40589],[-58.7756,5.40964],[-58.76328,5.41694],[-58.73728,5.42506],[-58.72474,5.42297],[-58.71333,5.42237],[-58.70532,5.42496],[-58.6811,5.43572],[-58.66869,5.44628],[-58.65168,5.47985],[-58.64338,5.48723],[-58.63717,5.4946],[-58.62636,5.519],[-58.62506,5.53086],[-58.62696,5.53902],[-58.62526,5.55915],[-58.62066,5.5719],[-58.61565,5.58956],[-58.60855,5.60318],[-58.6045,5.61824],[-58.60254,5.63251],[-58.59885,5.64807],[-58.60341,5.65816],[-58.60971,5.66234],[-58.61246,5.66825],[-58.61384,5.67589],[-58.60616,5.68871],[-58.60472,5.70031],[-58.60736,5.72077],[-58.60968,5.72927],[-58.60867,5.73756],[-58.60477,5.75235],[-58.60205,5.77195],[-58.60414,5.78633],[-58.60875,5.79947],[-58.61106,5.80968],[-58.60875,5.81865],[-58.59597,5.83386],[-58.59262,5.84137],[-58.59178,5.85012],[-58.59188,5.87358],[-58.58382,5.88765],[-58.57543,5.89786],[-58.5742,5.90839],[-58.57677,5.92119],[-58.58245,5.93643],[-58.58492,5.94742],[-58.58438,5.96842],[-58.58012,5.99848],[-58.57865,6.01251],[-58.58121,6.01779],[-58.59378,6.05971],[-58.58724,6.07163],[-58.59321,6.08812],[-58.5883,6.09424],[-58.58215,6.1061],[-58.58084,6.11395],[-58.58339,6.11994],[-58.5832,6.12457],[-58.57475,6.13662],[-58.57214,6.14694],[-58.57283,6.1819],[-58.57239,6.19259],[-58.57349,6.2119],[-58.57517,6.22345],[-58.5751,6.24161],[-58.57022,6.25692],[-58.5753,6.27689],[-58.5809,6.28801],[-58.57886,6.31],[-58.58115,6.31443],[-58.58611,6.31797],[-58.5987,6.3373],[-58.60188,6.35095],[-58.60429,6.36599],[-58.60544,6.40162],[-58.60709,6.42083],[-58.60459,6.44466],[-58.62321,6.44733],[-58.62421,6.46037],[-58.62015,6.47284],[-58.61648,6.50178],[-58.61778,6.50826],[-58.62791,6.51359],[-58.64132,6.51255],[-58.65548,6.5047],[-58.66784,6.49479],[-58.67216,6.49286],[-58.67961,6.49345],[-58.69481,6.50278],[-58.70226,6.51092],[-58.70673,6.51951],[-58.72223,6.51936],[-58.73146,6.5241],[-58.75277,6.5389],[-58.78123,6.55562],[-58.78689,6.55577],[-58.80611,6.55207],[-58.81922,6.55252],[-58.83323,6.55444],[-58.84261,6.55829],[-58.85409,6.56954],[-58.85587,6.58493],[-58.85155,6.59648],[-58.84723,6.60462],[-58.84336,6.61513],[-58.84008,6.6505],[-58.83472,6.65686],[-58.82861,6.69933],[-58.83263,6.70939],[-58.83934,6.71872],[-58.84112,6.73085],[-58.85297,6.73743],[-58.86161,6.74039],[-58.87144,6.74616],[-58.87725,6.75445],[-58.87651,6.76762],[-58.87755,6.77812],[-58.89722,6.78315],[-58.91674,6.77931],[-58.92866,6.77472],[-58.94683,6.78138],[-58.95443,6.78641],[-58.96546,6.79884],[-58.97231,6.85032],[-58.97768,6.85979],[-58.98721,6.86984],[-59.00017,6.87532],[-59.01984,6.8762],[-59.03474,6.87221],[-59.0401,6.86526],[-59.04979,6.85564],[-59.06305,6.84632],[-59.07959,6.8447],[-59.1003,6.8444],[-59.11937,6.84869],[-59.1377,6.85505],[-59.14306,6.86008],[-59.17301,6.87118],[-59.19685,6.87487],[-59.2104,6.88745],[-59.20772,6.91348],[-59.1964,6.94217],[-59.18329,6.96525],[-59.17807,6.97944],[-59.17874,7.00237],[-59.19349,7.00222],[-59.20512,7.00355],[-59.23223,7.0136],[-59.23983,7.01789],[-59.25935,7.02159],[-59.27231,7.02632],[-59.2887,7.03002],[-59.29958,7.02736],[-59.31433,7.01819],[-59.32133,7.00636],[-59.32833,6.99142],[-59.3407,6.97634],[-59.35187,6.96732],[-59.36767,6.96155],[-59.38093,6.96332],[-59.39791,6.96835],[-59.43367,6.98107],[-59.45602,6.99098],[-59.47062,7.00251],[-59.49044,7.00606],[-59.50906,7.01449],[-59.53335,7.02706],[-59.55734,7.0488],[-59.58356,7.07364],[-59.59727,7.08813],[-59.6077,7.09804],[-59.62781,7.10868],[-59.64971,7.11016],[-59.67832,7.10942],[-59.68964,7.10868],[-59.70127,7.11046],[-59.73911,7.12849],[-59.77732,7.15192],[-59.80398,7.16893],[-59.81745,7.17968],[-59.82636,7.18938],[-59.83653,7.19855],[-59.85672,7.20256],[-59.90163,7.20147],[-59.90928,7.19896],[-59.92281,7.19093],[-59.92884,7.16349],[-59.9325,7.15318],[-59.9398,7.14402],[-59.95724,7.13086],[-59.97899,7.11267],[-59.98599,7.10824],[-59.99434,7.11105],[-60.00775,7.1211],[-60.02488,7.1242],[-60.0587,7.12317],[-60.0666,7.10765],[-60.08299,7.08103],[-60.10191,7.06536],[-60.11711,7.06359],[-60.15004,7.07394],[-60.16091,7.08532],[-60.17805,7.10158],[-60.1916,7.10484],[-60.20591,7.09715],[-60.23124,7.08828],[-60.24226,7.08961],[-60.25612,7.09715],[-60.27638,7.12376],[-60.29377,7.13382],[-60.29652,7.12748],[-60.29286,7.1202],[-60.29531,7.11735],[-60.29214,7.10661],[-60.29656,7.10172],[-60.29297,7.09759],[-60.29576,7.09529],[-60.28759,7.08727],[-60.28795,7.08033],[-60.29138,7.0773],[-60.28986,7.07036],[-60.29969,7.06564],[-60.30364,7.06029],[-60.30422,7.05502],[-60.3079,7.04583],[-60.30571,7.04014],[-60.31107,7.03309],[-60.31902,7.03113],[-60.31765,7.02363],[-60.32437,7.02118],[-60.32682,7.01698],[-60.33381,7.01656],[-60.33557,7.01315],[-60.34134,7.01388],[-60.3521,7.01116],[-60.35708,7.00343],[-60.36239,7.00264],[-60.36664,6.99629],[-60.36469,6.9914],[-60.36707,6.98753],[-60.36375,6.98373],[-60.36226,6.9775],[-60.36362,6.97092],[-60.3668,6.96675],[-60.36787,6.95814],[-60.36673,6.95494],[-60.36983,6.95017],[-60.36784,6.94248],[-60.37005,6.93987],[-60.37559,6.93945],[-60.37585,6.93242],[-60.38025,6.92994],[-60.38813,6.9378],[-60.40127,6.94795],[-60.4088,6.95066],[-60.41257,6.94398],[-60.42402,6.93994],[-60.43195,6.93909],[-60.44498,6.93438],[-60.44679,6.93138],[-60.45767,6.9265],[-60.4631,6.92093],[-60.46638,6.91442],[-60.47811,6.90774],[-60.48234,6.90251],[-60.4876,6.89206],[-60.49088,6.88847],[-60.50055,6.88179],[-60.5071,6.87904],[-60.51418,6.87836],[-60.52971,6.88024],[-60.53782,6.87442],[-60.54282,6.8626],[-60.55525,6.85583],[-60.56733,6.85395],[-60.57501,6.85583],[-60.59571,6.85275],[-60.6021,6.84958],[-60.60745,6.84384],[-60.6348,6.83921],[-60.64593,6.8351],[-60.66361,6.82996],[-60.66939,6.82456],[-60.68118,6.81103],[-60.6878,6.79866],[-60.69063,6.78852],[-60.69654,6.77761],[-60.70462,6.76911],[-60.70947,6.76131],[-60.7185,6.75551],[-60.72488,6.75445],[-60.73621,6.7575],[-60.75003,6.76289],[-60.77465,6.77521],[-60.78516,6.7779],[-60.79585,6.78371],[-60.80518,6.79186],[-60.80973,6.7942],[-60.8216,6.79444],[-60.83293,6.78424],[-60.84586,6.78043],[-60.85354,6.7823],[-60.87509,6.79321],[-60.89475,6.81097],[-60.90261,6.81472],[-60.91389,6.8166],[-60.92233,6.80699],[-60.92487,6.79901],[-60.92558,6.78945],[-60.91932,6.77515],[-60.91365,6.77099],[-60.90402,6.76811],[-60.90031,6.7599],[-60.9006,6.75568],[-60.90432,6.75029],[-60.90946,6.74706],[-60.91879,6.7446],[-60.92835,6.74419],[-60.93626,6.73938],[-60.9391,6.73445],[-60.94081,6.72583],[-60.94618,6.7195],[-60.95569,6.71563],[-60.96998,6.71475],[-60.98362,6.71639],[-60.98917,6.71903],[-60.99348,6.72554],[-61.00505,6.73117],[-61.01291,6.7283],[-61.02117,6.71903],[-61.02548,6.71698],[-61.03954,6.71674],[-61.04792,6.72144],[-61.05353,6.72284],[-61.0556,6.71997],[-61.07786,6.72912],[-61.08215,6.71911],[-61.08399,6.70575],[-61.09217,6.70376],[-61.09568,6.70658],[-61.10219,6.71678],[-61.11063,6.71504],[-61.11572,6.71894],[-61.1215,6.71786],[-61.12992,6.72193],[-61.13843,6.72151],[-61.14196,6.71655],[-61.15002,6.70898],[-61.15263,6.70119],[-61.14845,6.69439],[-61.15146,6.6885],[-61.16607,6.68966],[-61.16073,6.6827],[-61.16173,6.6788],[-61.16891,6.68054],[-61.17217,6.67449],[-61.17685,6.67648],[-61.18294,6.67092],[-61.18495,6.66429],[-61.18428,6.65641],[-61.18904,6.654],[-61.18912,6.64645],[-61.18202,6.63832],[-61.18328,6.63045],[-61.1882,6.6297],[-61.19087,6.62621],[-61.19513,6.62754],[-61.20056,6.62505],[-61.20173,6.61941],[-61.19998,6.61701],[-61.20156,6.60755],[-61.20682,6.59926],[-61.20649,6.59337],[-61.21041,6.58963],[-61.21325,6.59212],[-61.22227,6.59287],[-61.22352,6.58316],[-61.21968,6.57487],[-61.22419,6.57329],[-61.22895,6.57528],[-61.23196,6.57047],[-61.22728,6.56707],[-61.21943,6.56583],[-61.21968,6.55853],[-61.22519,6.55463],[-61.22127,6.55181],[-61.21517,6.55297],[-61.20975,6.54932],[-61.21292,6.54318],[-61.20983,6.53729],[-61.21401,6.53911],[-61.2211,6.53795],[-61.22219,6.52584],[-61.21409,6.52601],[-61.21117,6.52966],[-61.20691,6.52584],[-61.20607,6.52161],[-61.20307,6.52227],[-61.20657,6.53214],[-61.20357,6.53604],[-61.19647,6.53737],[-61.19538,6.53447],[-61.19797,6.52891],[-61.18895,6.52559],[-61.18227,6.53073],[-61.1801,6.52866],[-61.18194,6.52252],[-61.17242,6.51945],[-61.17543,6.51298],[-61.17476,6.50618],[-61.17075,6.50535],[-61.17467,6.49863],[-61.17401,6.49348],[-61.18252,6.48942],[-61.18603,6.48261],[-61.17584,6.48095],[-61.18144,6.47647],[-61.18256,6.47175],[-61.17822,6.47078],[-61.17651,6.46496],[-61.1696,6.46182],[-61.1668,6.45839],[-61.15989,6.45845],[-61.15704,6.4645],[-61.15235,6.46444],[-61.15235,6.45736],[-61.15749,6.45308],[-61.1543,6.44885],[-61.14944,6.44965],[-61.14893,6.44514],[-61.15475,6.44628],[-61.15361,6.44091],[-61.15567,6.43657],[-61.15167,6.43012],[-61.14316,6.42915],[-61.15001,6.42418],[-61.14967,6.41973],[-61.14664,6.41904],[-61.14807,6.41305],[-61.15144,6.41139],[-61.1543,6.41556],[-61.15778,6.41539],[-61.15487,6.41133],[-61.15812,6.40602],[-61.15669,6.39923],[-61.15749,6.39038],[-61.16749,6.3942],[-61.168,6.38918],[-61.1656,6.38643],[-61.16018,6.38809],[-61.15732,6.38592],[-61.16201,6.38261],[-61.16172,6.37673],[-61.16492,6.38072],[-61.16766,6.3789],[-61.16418,6.3725],[-61.15887,6.36742],[-61.16457,6.35839],[-61.16389,6.35451],[-61.16903,6.35177],[-61.16874,6.34772],[-61.1736,6.34275],[-61.17131,6.33869],[-61.17343,6.33538],[-61.17514,6.34046],[-61.17822,6.34058],[-61.17623,6.33304],[-61.18388,6.33213],[-61.18416,6.33013],[-61.17565,6.3271],[-61.16754,6.31459],[-61.16732,6.30831],[-61.16492,6.2998],[-61.16046,6.29689],[-61.16023,6.29358],[-61.15572,6.28832],[-61.1479,6.29209],[-61.14025,6.28752],[-61.14293,6.28296],[-61.1411,6.2757],[-61.13625,6.27148],[-61.12723,6.27382],[-61.12197,6.27353],[-61.1202,6.27593],[-61.11552,6.27302],[-61.11889,6.26502],[-61.1262,6.262],[-61.1294,6.25469],[-61.13248,6.25492],[-61.13534,6.23898],[-61.13322,6.23082],[-61.13825,6.22602],[-61.14202,6.21494],[-61.13893,6.21089],[-61.131,6.20501],[-61.12706,6.20603],[-61.13208,6.20129],[-61.12928,6.19604],[-61.12443,6.19587],[-61.12734,6.1881],[-61.13368,6.18833],[-61.13288,6.18073],[-61.13876,6.17657],[-61.14093,6.17874],[-61.15338,6.18051],[-61.15801,6.18262],[-61.16263,6.18188],[-61.1644,6.18462],[-61.1696,6.18479],[-61.17177,6.18102],[-61.1764,6.18713],[-61.17925,6.18707],[-61.18348,6.17885],[-61.18725,6.17851],[-61.18896,6.16652],[-61.1873,6.16166],[-61.18308,6.15955],[-61.18399,6.14893],[-61.19073,6.14013],[-61.18942,6.13242],[-61.20021,6.13134],[-61.20335,6.13425],[-61.20267,6.12723],[-61.20832,6.11797],[-61.20638,6.11689],[-61.20929,6.11198],[-61.21449,6.11506],[-61.21432,6.11146],[-61.2198,6.11683],[-61.22294,6.12534],[-61.22734,6.12386],[-61.23162,6.12631],[-61.23682,6.121],[-61.23539,6.1178],[-61.23876,6.11592],[-61.24315,6.10941],[-61.25138,6.10781],[-61.25932,6.11272],[-61.27005,6.10935],[-61.27428,6.1049],[-61.27371,6.09622],[-61.27702,6.09165],[-61.27925,6.09462],[-61.27947,6.08331],[-61.2865,6.07994],[-61.2849,6.07714],[-61.29455,6.07263],[-61.29152,6.06863],[-61.29786,6.06703],[-61.29878,6.06304],[-61.30403,6.06041],[-61.30186,6.05447],[-61.31191,6.05213],[-61.31225,6.04391],[-61.31545,6.04242],[-61.31951,6.02672],[-61.32636,6.0254],[-61.32773,6.02061],[-61.33458,6.01221],[-61.33567,6.00496],[-61.33104,5.99896],[-61.35114,5.98492],[-61.35326,5.97429],[-61.35794,5.96887],[-61.3669,5.96732],[-61.36966,5.96158],[-61.37509,5.96042],[-61.37918,5.96256],[-61.38433,5.9597],[-61.38886,5.9635],[-61.39645,5.96542],[-61.40485,5.97227],[-61.41487,5.9708],[-61.39399,5.94616],[-61.38533,5.94638],[-61.36788,5.93729],[-61.36536,5.93662],[-61.3613,5.93572],[-61.36126,5.93571],[-61.35859,5.93571],[-61.357,5.93553],[-61.3552,5.93532],[-61.35487,5.93517],[-61.35302,5.93432],[-61.35236,5.93464],[-61.35112,5.93523],[-61.35067,5.93543],[-61.34702,5.93543],[-61.34684,5.93544],[-61.34652,5.93543],[-61.34478,5.93554],[-61.3442,5.93565],[-61.34274,5.93591],[-61.3415,5.93613],[-61.33963,5.93601],[-61.33829,5.93593],[-61.33781,5.9359],[-61.33756,5.93596],[-61.33441,5.93664],[-61.33202,5.93779],[-61.33092,5.93832],[-61.32627,5.94189],[-61.31871,5.94904],[-61.31638,5.94996],[-61.31442,5.95054],[-61.31351,5.95078],[-61.30517,5.95855],[-61.30229,5.9602],[-61.30152,5.96063],[-61.30091,5.9609],[-61.29582,5.96304],[-61.29334,5.96395],[-61.28962,5.96487],[-61.28961,5.96487],[-61.28626,5.96681],[-61.28537,5.9673],[-61.28378,5.96813],[-61.28317,5.96843],[-61.2825,5.96877],[-61.28025,5.97127],[-61.27869,5.97349],[-61.27651,5.98424],[-61.27954,5.9979],[-61.27499,6.01035],[-61.2733,6.0142],[-61.26348,6.02293],[-61.25599,6.02401],[-61.23977,6.02228],[-61.2171,6.01744],[-61.20543,6.0129],[-61.1862,6.00367],[-61.17911,5.99838],[-61.17195,5.99567],[-61.16513,5.99018],[-61.15289,5.9781],[-61.13973,5.97319],[-61.12904,5.96824],[-61.11828,5.96127],[-61.10784,5.95985],[-61.09154,5.97033],[-61.07372,5.97838],[-61.05779,5.98244],[-61.05218,5.9847],[-61.03923,5.99314],[-61.03498,6.00224],[-61.02134,6.01443],[-61.01569,6.01638],[-61.00269,6.01324],[-60.98652,6.00619],[-60.97919,6.0021],[-60.9707,5.99161],[-60.97017,5.98842],[-60.96206,5.9861],[-60.95828,5.98321],[-60.95475,5.98526],[-60.94702,5.97897],[-60.94328,5.98055],[-60.92445,5.96562],[-60.91846,5.96348],[-60.90765,5.9554],[-60.90398,5.95458],[-60.89327,5.94648],[-60.89037,5.94281],[-60.88161,5.9373],[-60.86649,5.93481],[-60.84784,5.93388],[-60.83635,5.93003],[-60.83303,5.92913],[-60.82603,5.92132],[-60.81581,5.92131],[-60.8012,5.92454],[-60.79359,5.93141],[-60.79026,5.93325],[-60.78791,5.94098],[-60.77866,5.9434],[-60.77044,5.94363],[-60.76201,5.93863],[-60.75569,5.93899],[-60.75026,5.93554],[-60.73947,5.9335],[-60.72567,5.93347],[-60.71827,5.93577],[-60.71667,5.93986],[-60.71112,5.94528],[-60.7074,5.95301],[-60.69701,5.96426],[-60.69743,5.97664],[-60.70064,5.98187],[-60.70288,5.99036],[-60.70693,5.99381],[-60.70792,5.99898],[-60.70268,6.00305],[-60.70249,6.00985],[-60.70812,6.01784],[-60.71489,6.02293],[-60.72207,6.02579],[-60.72728,6.0341],[-60.72879,6.04104],[-60.72717,6.06251],[-60.72006,6.06336],[-60.71606,6.06806],[-60.71379,6.07586],[-60.71331,6.08323],[-60.70536,6.09475],[-60.70408,6.10177],[-60.70078,6.10921],[-60.69976,6.11911],[-60.69601,6.13383],[-60.68783,6.14346],[-60.68525,6.14834],[-60.68409,6.15665],[-60.67981,6.16744],[-60.67937,6.17221],[-60.68297,6.18244],[-60.6841,6.192],[-60.68104,6.19957],[-60.66934,6.20683],[-60.66867,6.21494],[-60.66505,6.22959],[-60.66605,6.23879],[-60.67361,6.24221],[-60.6854,6.25138],[-60.68349,6.25584],[-60.68688,6.26877],[-60.6835,6.28607],[-60.68402,6.29309],[-60.68274,6.30648],[-60.68293,6.31577],[-60.67492,6.31529],[-60.66254,6.31985],[-60.6436,6.329],[-60.62401,6.33926],[-60.62041,6.34333],[-60.6176,6.35173],[-60.60993,6.36217],[-60.60866,6.36648],[-60.60334,6.37132],[-60.60198,6.37631],[-60.60163,6.38886],[-60.60451,6.40563],[-60.6038,6.41179],[-60.59808,6.42385],[-60.59452,6.42392],[-60.59216,6.41998],[-60.57913,6.41966],[-60.57551,6.42192],[-60.571,6.42055],[-60.55747,6.4024],[-60.55608,6.39811],[-60.54813,6.38956],[-60.5344,6.3697],[-60.53192,6.36309],[-60.52129,6.3407],[-60.51976,6.33511],[-60.52005,6.32734],[-60.52197,6.32286],[-60.52262,6.31383],[-60.5192,6.30384],[-60.52348,6.29003],[-60.52084,6.27822],[-60.5205,6.27027],[-60.52798,6.25702],[-60.52802,6.24617],[-60.52255,6.24371],[-60.52113,6.23003],[-60.51966,6.22513],[-60.5209,6.21497],[-60.53389,6.20307],[-60.53554,6.19467],[-60.52763,6.17694],[-60.51889,6.16419],[-60.51779,6.15587],[-60.51868,6.1483],[-60.52127,6.14069],[-60.52741,6.12895],[-60.52925,6.12213],[-60.5284,6.11722],[-60.52264,6.10411],[-60.51299,6.09121],[-60.49922,6.07673],[-60.47686,6.05917],[-60.47264,6.05251],[-60.46801,6.03225],[-60.46414,6.02229],[-60.45665,6.01476],[-60.4546,6.00886],[-60.45871,5.99567],[-60.46581,5.98992],[-60.46572,5.97904],[-60.46907,5.96141],[-60.46704,5.95142],[-60.47034,5.9476],[-60.46756,5.94056],[-60.46022,5.93622],[-60.44893,5.93765],[-60.44473,5.93516],[-60.43285,5.93329],[-60.42706,5.9389],[-60.41962,5.93479],[-60.41677,5.92746],[-60.41185,5.92933],[-60.40205,5.92666],[-60.40098,5.9322],[-60.40191,5.94249],[-60.39712,5.95116],[-60.38996,5.95521],[-60.38452,5.95307],[-60.37464,5.94226],[-60.3645,5.9392],[-60.36473,5.93237],[-60.35122,5.92429],[-60.34105,5.92584],[-60.33672,5.92453],[-60.32324,5.92825],[-60.30964,5.92818],[-60.29827,5.91966],[-60.29124,5.9176],[-60.28758,5.91432],[-60.28209,5.91672],[-60.27435,5.91457],[-60.27387,5.90503],[-60.27012,5.89769],[-60.26856,5.89016],[-60.27484,5.88413],[-60.27681,5.87676],[-60.26982,5.86035],[-60.2664,5.8553],[-60.25951,5.854],[-60.26051,5.84794],[-60.26942,5.83877],[-60.27357,5.83673],[-60.27586,5.83161],[-60.2727,5.81858],[-60.27341,5.81429],[-60.27958,5.80529],[-60.27519,5.79493],[-60.27952,5.79127],[-60.28185,5.7863],[-60.27871,5.78647],[-60.27404,5.77928],[-60.27372,5.77538],[-60.26949,5.76687],[-60.26585,5.75611],[-60.26728,5.7496],[-60.27402,5.741],[-60.30722,5.7248],[-60.32536,5.72031],[-60.33957,5.7154],[-60.35856,5.70652],[-60.36989,5.69636],[-60.3775,5.68712],[-60.36309,5.68648],[-60.35383,5.68358],[-60.35263,5.68932],[-60.34423,5.70281],[-60.34397,5.6977],[-60.34104,5.69715],[-60.3338,5.70034],[-60.32078,5.68263],[-60.3217,5.67502],[-60.31993,5.67288],[-60.30863,5.68271],[-60.30267,5.68416],[-60.29769,5.69204],[-60.29545,5.70141],[-60.29218,5.70033],[-60.28843,5.6894],[-60.28517,5.6874],[-60.28445,5.6781],[-60.28921,5.66057],[-60.29253,5.65489],[-60.29045,5.6471],[-60.29253,5.63765],[-60.29114,5.63561],[-60.28325,5.63529],[-60.28231,5.62939],[-60.27675,5.63098],[-60.27292,5.62839],[-60.26168,5.63248],[-60.24852,5.63385],[-60.24531,5.63286],[-60.24527,5.62665],[-60.24309,5.62079],[-60.22918,5.60718],[-60.2265,5.60719],[-60.22404,5.59698],[-60.22885,5.59206],[-60.22497,5.57861],[-60.22014,5.57517],[-60.21527,5.56873],[-60.20451,5.56736],[-60.20014,5.5639],[-60.19708,5.55813],[-60.1841,5.55843],[-60.17327,5.55319],[-60.15957,5.56318],[-60.15103,5.55693],[-60.14684,5.55669],[-60.14896,5.54791],[-60.14724,5.54144],[-60.14246,5.53436],[-60.13934,5.5237],[-60.13848,5.51365],[-60.139,5.50456],[-60.13631,5.49641],[-60.13308,5.49277],[-60.12473,5.48948],[-60.11597,5.48917],[-60.11147,5.49096],[-60.09566,5.5065],[-60.0917,5.51292],[-60.08699,5.51594],[-60.07485,5.5201],[-60.06879,5.5151],[-60.06367,5.50479],[-60.05765,5.49843],[-60.05141,5.49595],[-60.04459,5.49544],[-60.03772,5.49101],[-60.03309,5.49223],[-60.02889,5.48566],[-60.02622,5.4915],[-60.02284,5.48309],[-60.01913,5.48553],[-60.01276,5.48599],[-60.00966,5.49556],[-59.99725,5.49552],[-59.99456,5.4923],[-59.98523,5.48643],[-59.98443,5.47988],[-59.98214,5.47709],[-59.96647,5.47474],[-59.96185,5.47608],[-59.95462,5.47531],[-59.95166,5.47295],[-59.94738,5.45821],[-59.95176,5.45413],[-59.95456,5.44705]],[[-58.63232,6.40883],[-58.6309,6.41158],[-58.62152,6.4104],[-58.61708,6.40708],[-58.62031,6.39506],[-58.62452,6.39747],[-58.62608,6.40476],[-58.63232,6.40883]]]},"properties":{"ID":700,"NDC":"Rest of Region 7","REGION":7,"REG_NAME":"Cuyuni- Mazaruni","STATUS":"Not Classified","Males_2012":1146,"Fem_2012":1049,"Tot_2012":2195}},
{"type":"Feature","geometry":{"type":"Polygon","coordinates":[[[-60.79359,5.93141],[-60.79012,5.92727],[-60.78207,5.90951],[-60.7729,5.89514],[-60.76838,5.87729],[-60.75676,5.86782],[-60.74551,5.86203],[-60.74062,5.85503],[-60.73454,5.85076],[-60.7316,5.8455],[-60.72284,5.83612],[-60.71227,5.82997],[-60.72091,5.82114],[-60.7304,5.81965],[-60.73082,5.81155],[-60.74176,5.81148],[-60.74599,5.80574],[-60.75739,5.80423],[-60.76355,5.80039],[-60.76831,5.80226],[-60.77332,5.79889],[-60.77444,5.79539],[-60.78337,5.79029],[-60.79333,5.78705],[-60.79969,5.78143],[-60.80725,5.78004],[-60.81667,5.78588],[-60.82066,5.78689],[-60.83224,5.79398],[-60.8433,5.79513],[-60.84851,5.7902],[-60.85192,5.78127],[-60.85467,5.77928],[-60.85537,5.77091],[-60.85357,5.76719],[-60.85537,5.75863],[-60.85217,5.74616],[-60.85239,5.73566],[-60.84574,5.74049],[-60.83777,5.75134],[-60.83194,5.7545],[-60.82322,5.75313],[-60.81159,5.74443],[-60.80029,5.7402],[-60.78672,5.74206],[-60.7775,5.74748],[-60.77376,5.74824],[-60.75315,5.74741],[-60.7465,5.74808],[-60.73968,5.75576],[-60.73638,5.76325],[-60.7306,5.7718],[-60.72178,5.78098],[-60.71718,5.78252],[-60.70517,5.77755],[-60.69201,5.76243],[-60.68917,5.75774],[-60.65196,5.757],[-60.63794,5.75756],[-60.6327,5.75518],[-60.62358,5.75725],[-60.61841,5.76428],[-60.61175,5.77579],[-60.60707,5.78586],[-60.59534,5.78754],[-60.58459,5.78291],[-60.5736,5.78154],[-60.56935,5.78053],[-60.56929,5.78051],[-60.56986,5.78028],[-60.57117,5.77966],[-60.5722,5.77822],[-60.57262,5.7776],[-60.57281,5.7773],[-60.57296,5.777],[-60.57336,5.77567],[-60.57338,5.77557],[-60.57364,5.77444],[-60.57388,5.77397],[-60.57474,5.77115],[-60.57482,5.77074],[-60.5749,5.77064],[-60.57563,5.76956],[-60.57672,5.76803],[-60.57689,5.76779],[-60.57904,5.76578],[-60.58329,5.76301],[-60.58433,5.76233],[-60.58483,5.76193],[-60.58755,5.76104],[-60.58826,5.76071],[-60.59048,5.75969],[-60.59387,5.75691],[-60.59626,5.75167],[-60.59734,5.7486],[-60.59711,5.74599],[-60.59676,5.74461],[-60.5963,5.74323],[-60.59537,5.74119],[-60.59403,5.73828],[-60.59018,5.73461],[-60.58686,5.7314],[-60.58581,5.73043],[-60.58223,5.7267],[-60.57845,5.72116],[-60.57758,5.72041],[-60.5767,5.71976],[-60.57641,5.71945],[-60.57637,5.71942],[-60.5754,5.71839],[-60.57457,5.71723],[-60.57423,5.71685],[-60.57405,5.7167],[-60.57269,5.71649],[-60.57019,5.71741],[-60.57008,5.71755],[-60.56937,5.71841],[-60.56906,5.71856],[-60.56878,5.7187],[-60.56836,5.71884],[-60.56827,5.71883],[-60.56723,5.71874],[-60.56715,5.71869],[-60.56714,5.72437],[-60.55927,5.73693],[-60.5556,5.74741],[-60.55612,5.75125],[-60.55302,5.75392],[-60.55125,5.75954],[-60.54533,5.76939],[-60.53864,5.77748],[-60.52841,5.77916],[-60.51276,5.77602],[-60.49806,5.78295],[-60.49139,5.78258],[-60.48508,5.78021],[-60.47874,5.78122],[-60.4733,5.78525],[-60.46764,5.79292],[-60.46378,5.79378],[-60.46087,5.79069],[-60.4519,5.79487],[-60.44907,5.80212],[-60.45477,5.81198],[-60.45464,5.81514],[-60.44786,5.82744],[-60.44609,5.83759],[-60.44024,5.84362],[-60.43624,5.85039],[-60.42855,5.85258],[-60.42587,5.85974],[-60.42355,5.87582],[-60.42768,5.88708],[-60.42236,5.8962],[-60.41056,5.90052],[-60.40495,5.90797],[-60.40182,5.91792],[-60.40205,5.92666],[-60.41185,5.92933],[-60.41677,5.92746],[-60.41962,5.93479],[-60.42706,5.9389],[-60.43285,5.93329],[-60.44473,5.93516],[-60.44893,5.93765],[-60.46022,5.93622],[-60.46756,5.94056],[-60.47034,5.9476],[-60.46704,5.95142],[-60.46907,5.96141],[-60.46572,5.97904],[-60.46581,5.98992],[-60.45871,5.99567],[-60.4546,6.00886],[-60.45665,6.01476],[-60.46414,6.02229],[-60.46801,6.03225],[-60.47264,6.05251],[-60.47686,6.05917],[-60.49922,6.07673],[-60.51299,6.09121],[-60.52264,6.10411],[-60.5284,6.11722],[-60.52925,6.12213],[-60.52741,6.12895],[-60.52127,6.14069],[-60.51868,6.1483],[-60.51779,6.15587],[-60.51889,6.16419],[-60.52763,6.17694],[-60.53554,6.19467],[-60.53389,6.20307],[-60.5209,6.21497],[-60.51966,6.22513],[-60.52113,6.23003],[-60.52255,6.24371],[-60.52802,6.24617],[-60.52798,6.25702],[-60.5205,6.27027],[-60.52084,6.27822],[-60.52348,6.29003],[-60.5192,6.30384],[-60.52262,6.31383],[-60.52197,6.32286],[-60.52005,6.32734],[-60.51976,6.33511],[-60.52129,6.3407],[-60.53192,6.36309],[-60.5344,6.3697],[-60.54813,6.38956],[-60.55608,6.39811],[-60.55747,6.4024],[-60.571,6.42055],[-60.57551,6.42192],[-60.57913,6.41966],[-60.59216,6.41998],[-60.59452,6.42392],[-60.59808,6.42385],[-60.6038,6.41179],[-60.60451,6.40563],[-60.60163,6.38886],[-60.60198,6.37631],[-60.60334,6.37132],[-60.60866,6.36648],[-60.60993,6.36217],[-60.6176,6.35173],[-60.62041,6.34333],[-60.62401,6.33926],[-60.6436,6.329],[-60.66254,6.31985],[-60.67492,6.31529],[-60.68293,6.31577],[-60.68274,6.30648],[-60.68402,6.29309],[-60.6835,6.28607],[-60.68688,6.26877],[-60.68349,6.25584],[-60.6854,6.25138],[-60.67361,6.24221],[-60.66605,6.23879],[-60.66505,6.22959],[-60.66867,6.21494],[-60.66934,6.20683],[-60.68104,6.19957],[-60.6841,6.192],[-60.68297,6.18244],[-60.67937,6.17221],[-60.67981,6.16744],[-60.68409,6.15665],[-60.68525,6.14834],[-60.68783,6.14346],[-60.69601,6.13383],[-60.69976,6.11911],[-60.70078,6.10921],[-60.70408,6.10177],[-60.70536,6.09475],[-60.71331,6.08323],[-60.71379,6.07586],[-60.71606,6.06806],[-60.72006,6.06336],[-60.72717,6.06251],[-60.72879,6.04104],[-60.72728,6.0341],[-60.72207,6.02579],[-60.71489,6.02293],[-60.70812,6.01784],[-60.70249,6.00985],[-60.70268,6.00305],[-60.70792,5.99898],[-60.70693,5.99381],[-60.70288,5.99036],[-60.70064,5.98187],[-60.69743,5.97664],[-60.69701,5.96426],[-60.7074,5.95301],[-60.71112,5.94528],[-60.71667,5.93986],[-60.71827,5.93577],[-60.72567,5.93347],[-60.73947,5.9335],[-60.75026,5.93554],[-60.75569,5.93899],[-60.76201,5.93863],[-60.77044,5.94363],[-60.77866,5.9434],[-60.78791,5.94098],[-60.79026,5.93325],[-60.79359,5.93141]]]},"properties":{"ID":705,"NDC":"Kamarang - Kuku River","REGION":7,"REG_NAME":"Cuyuni- Mazaruni","STATUS":"Not Classified","Males_2012":72,"Fem_2012":68,"Tot_2012":144}},
{"type":"Feature","geometry":{"type":"Polygon","coordinates":[[[-60.3775,5.68712],[-60.38623,5.68598],[-60.41072,5.68539],[-60.43343,5.68391],[-60.43879,5.68567],[-60.44418,5.69277],[-60.44863,5.69275],[-60.45171,5.68604],[-60.45482,5.68512],[-60.46907,5.68548],[-60.49007,5.69562],[-60.50923,5.69773],[-60.51458,5.69948],[-60.52267,5.71014],[-60.52592,5.71518],[-60.52601,5.71532],[-60.52643,5.72086],[-60.52987,5.72232],[-60.53096,5.72146],[-60.53132,5.72105],[-60.53225,5.71997],[-60.53378,5.71736],[-60.5357,5.71679],[-60.53971,5.7156],[-60.55378,5.71787],[-60.55613,5.71673],[-60.55754,5.71595],[-60.55888,5.71545],[-60.55978,5.71563],[-60.55995,5.71566],[-60.56266,5.71643],[-60.563,5.71627],[-60.56172,5.71203],[-60.56506,5.69308],[-60.5654,5.67978],[-60.56032,5.65933],[-60.56127,5.64656],[-60.55737,5.63736],[-60.54728,5.61903],[-60.54781,5.61269],[-60.54568,5.60481],[-60.54253,5.59926],[-60.54412,5.58998],[-60.54707,5.586],[-60.54838,5.5771],[-60.55599,5.55249],[-60.55376,5.53703],[-60.54655,5.51589],[-60.53891,5.4977],[-60.53358,5.49637],[-60.52497,5.48801],[-60.52949,5.47787],[-60.53693,5.47047],[-60.53834,5.46333],[-60.53441,5.45439],[-60.5279,5.45116],[-60.52705,5.4401],[-60.52245,5.43648],[-60.52248,5.42895],[-60.52025,5.42345],[-60.51965,5.40892],[-60.51303,5.40232],[-60.50845,5.40195],[-60.50104,5.38951],[-60.50137,5.36758],[-60.50455,5.356],[-60.51135,5.33882],[-60.51075,5.3315],[-60.50799,5.32586],[-60.50543,5.3063],[-60.50624,5.30099],[-60.52352,5.29591],[-60.52419,5.29299],[-60.51788,5.27412],[-60.52018,5.26923],[-60.51896,5.26598],[-60.51378,5.26303],[-60.51475,5.2575],[-60.52145,5.2492],[-60.5234,5.23592],[-60.52737,5.23643],[-60.53562,5.22857],[-60.54186,5.22617],[-60.54898,5.22066],[-60.55797,5.21021],[-60.56576,5.19573],[-60.545,5.194],[-60.539,5.203],[-60.527,5.208],[-60.5,5.203],[-60.474,5.201],[-60.469,5.203],[-60.463,5.199],[-60.451,5.203],[-60.446,5.184],[-60.434,5.182],[-60.418,5.194],[-60.417,5.206],[-60.413,5.214],[-60.405,5.211],[-60.384,5.222],[-60.371,5.215],[-60.371,5.208],[-60.367,5.205],[-60.356,5.21],[-60.345,5.205],[-60.336,5.208],[-60.328,5.206],[-60.319,5.208],[-60.313,5.211],[-60.30562,5.21857],[-60.30076,5.22847],[-60.28483,5.22896],[-60.27868,5.23434],[-60.27108,5.23631],[-60.269,5.244],[-60.264,5.251],[-60.25018,5.25786],[-60.235,5.263],[-60.23102,5.27146],[-60.21854,5.28429],[-60.21501,5.28094],[-60.20825,5.28346],[-60.19964,5.27249],[-60.18686,5.26721],[-60.18041,5.26946],[-60.18035,5.26627],[-60.18475,5.26208],[-60.19317,5.23915],[-60.172,5.227],[-60.158,5.232],[-60.135,5.249],[-60.132,5.225],[-60.106,5.194],[-60.10137,5.1726],[-60.07994,5.18364],[-60.05246,5.20523],[-60.03306,5.22606],[-60.01465,5.25568],[-60.00734,5.27024],[-59.99726,5.29233],[-59.99298,5.31894],[-59.98113,5.34679],[-59.96525,5.36612],[-59.93223,5.38494],[-59.90576,5.39773],[-59.89789,5.40087],[-59.89809,5.40101],[-59.89906,5.40181],[-59.90027,5.40267],[-59.90045,5.40283],[-59.90516,5.40626],[-59.91398,5.41068],[-59.92096,5.41237],[-59.92878,5.41332],[-59.93551,5.41419],[-59.93679,5.41428],[-59.93901,5.41411],[-59.94481,5.41228],[-59.9546,5.42656],[-59.95533,5.42705],[-59.9556,5.42732],[-59.95623,5.42785],[-59.95673,5.42816],[-59.95675,5.42829],[-59.95691,5.42945],[-59.95699,5.4301],[-59.95737,5.43148],[-59.95736,5.43248],[-59.95738,5.43288],[-59.95774,5.43341],[-59.95811,5.43395],[-59.95811,5.43408],[-59.95808,5.43488],[-59.95806,5.4356],[-59.95806,5.43599],[-59.95811,5.43631],[-59.95832,5.43762],[-59.95867,5.4388],[-59.95882,5.43994],[-59.95893,5.44072],[-59.95903,5.44142],[-59.95889,5.44234],[-59.95887,5.44235],[-59.95887,5.44237],[-59.95456,5.44705],[-59.95176,5.45413],[-59.94738,5.45821],[-59.95166,5.47295],[-59.95462,5.47531],[-59.96185,5.47608],[-59.96647,5.47474],[-59.98214,5.47709],[-59.98443,5.47988],[-59.98523,5.48643],[-59.99456,5.4923],[-59.99725,5.49552],[-60.00966,5.49556],[-60.01276,5.48599],[-60.01913,5.48553],[-60.02284,5.48309],[-60.02622,5.4915],[-60.02889,5.48566],[-60.03309,5.49223],[-60.03772,5.49101],[-60.04459,5.49544],[-60.05141,5.49595],[-60.05765,5.49843],[-60.06367,5.50479],[-60.06879,5.5151],[-60.07485,5.5201],[-60.08699,5.51594],[-60.0917,5.51292],[-60.09566,5.5065],[-60.11147,5.49096],[-60.11597,5.48917],[-60.12473,5.48948],[-60.13308,5.49277],[-60.13631,5.49641],[-60.139,5.50456],[-60.13848,5.51365],[-60.13934,5.5237],[-60.14246,5.53436],[-60.14724,5.54144],[-60.14896,5.54791],[-60.14684,5.55669],[-60.15103,5.55693],[-60.15957,5.56318],[-60.17327,5.55319],[-60.1841,5.55843],[-60.19708,5.55813],[-60.20014,5.5639],[-60.20451,5.56736],[-60.21527,5.56873],[-60.22014,5.57517],[-60.22497,5.57861],[-60.22885,5.59206],[-60.22404,5.59698],[-60.2265,5.60719],[-60.22918,5.60718],[-60.24309,5.62079],[-60.24527,5.62665],[-60.24531,5.63286],[-60.24852,5.63385],[-60.26168,5.63248],[-60.27292,5.62839],[-60.27675,5.63098],[-60.28231,5.62939],[-60.28325,5.63529],[-60.29114,5.63561],[-60.29253,5.63765],[-60.29045,5.6471],[-60.29253,5.65489],[-60.28921,5.66057],[-60.28445,5.6781],[-60.28517,5.6874],[-60.28843,5.6894],[-60.29218,5.70033],[-60.29545,5.70141],[-60.29769,5.69204],[-60.30267,5.68416],[-60.30863,5.68271],[-60.31993,5.67288],[-60.3217,5.67502],[-60.32078,5.68263],[-60.3338,5.70034],[-60.34104,5.69715],[-60.34397,5.6977],[-60.34423,5.70281],[-60.35263,5.68932],[-60.35383,5.68358],[-60.36309,5.68648],[-60.3775,5.68712]]]},"properties":{"ID":703,"NDC":"Karambaru to Kukui River + Phillipi","REGION":7,"REG_NAME":"Cuyuni- Mazaruni","STATUS":"Not Classified","Males_2012":290,"Fem_2012":262,"Tot_2012":580}},
{"type":"Feature","geometry":{"type":"Polygon","coordinates":[[[-60.40205,5.92666],[-60.40182,5.91792],[-60.40495,5.90797],[-60.41056,5.90052],[-60.42236,5.8962],[-60.42768,5.88708],[-60.42355,5.87582],[-60.42587,5.85974],[-60.42855,5.85258],[-60.43624,5.85039],[-60.44024,5.84362],[-60.44609,5.83759],[-60.44786,5.82744],[-60.45464,5.81514],[-60.45477,5.81198],[-60.44907,5.80212],[-60.4519,5.79487],[-60.46087,5.79069],[-60.46378,5.79378],[-60.46764,5.79292],[-60.4733,5.78525],[-60.47874,5.78122],[-60.48508,5.78021],[-60.49139,5.78258],[-60.49806,5.78295],[-60.51276,5.77602],[-60.52841,5.77916],[-60.53864,5.77748],[-60.54533,5.76939],[-60.55125,5.75954],[-60.55302,5.75392],[-60.55612,5.75125],[-60.5556,5.74741],[-60.55927,5.73693],[-60.56714,5.72437],[-60.56715,5.71869],[-60.56661,5.71835],[-60.5661,5.71807],[-60.56511,5.71754],[-60.56389,5.71713],[-60.56381,5.71705],[-60.563,5.71627],[-60.56266,5.71643],[-60.55995,5.71566],[-60.55978,5.71563],[-60.55888,5.71545],[-60.55754,5.71595],[-60.55613,5.71673],[-60.55378,5.71787],[-60.53971,5.7156],[-60.5357,5.71679],[-60.53378,5.71736],[-60.53225,5.71997],[-60.53132,5.72105],[-60.53096,5.72146],[-60.52987,5.72232],[-60.52643,5.72086],[-60.52601,5.71532],[-60.52592,5.71518],[-60.52267,5.71014],[-60.51458,5.69948],[-60.50923,5.69773],[-60.49007,5.69562],[-60.46907,5.68548],[-60.45482,5.68512],[-60.45171,5.68604],[-60.44863,5.69275],[-60.44418,5.69277],[-60.43879,5.68567],[-60.43343,5.68391],[-60.41072,5.68539],[-60.38623,5.68598],[-60.3775,5.68712],[-60.36989,5.69636],[-60.35856,5.70652],[-60.33957,5.7154],[-60.32536,5.72031],[-60.30722,5.7248],[-60.27402,5.741],[-60.26728,5.7496],[-60.26585,5.75611],[-60.26949,5.76687],[-60.27372,5.77538],[-60.27404,5.77928],[-60.27871,5.78647],[-60.28185,5.7863],[-60.27952,5.79127],[-60.27519,5.79493],[-60.27958,5.80529],[-60.27341,5.81429],[-60.2727,5.81858],[-60.27586,5.83161],[-60.27357,5.83673],[-60.26942,5.83877],[-60.26051,5.84794],[-60.25951,5.854],[-60.2664,5.8553],[-60.26982,5.86035],[-60.27681,5.87676],[-60.27484,5.88413],[-60.26856,5.89016],[-60.27012,5.89769],[-60.27387,5.90503],[-60.27435,5.91457],[-60.28209,5.91672],[-60.28758,5.91432],[-60.29124,5.9176],[-60.29827,5.91966],[-60.30964,5.92818],[-60.32324,5.92825],[-60.33672,5.92453],[-60.34105,5.92584],[-60.35122,5.92429],[-60.36473,5.93237],[-60.3645,5.9392],[-60.37464,5.94226],[-60.38452,5.95307],[-60.38996,5.95521],[-60.39712,5.95116],[-60.40191,5.94249],[-60.40098,5.9322],[-60.40205,5.92666]]]},"properties":{"ID":704,"NDC":"Jawalla - Kubenang River","REGION":7,"REG_NAME":"Cuyuni- Mazaruni","STATUS":"Not Classified","Males_2012":276,"Fem_2012":307,"Tot_2012":552}},
{"type":"Feature","geometry":{"type":"Polygon","coordinates":[[[-61.3613,5.93572],[-61.36164,5.93571],[-61.3664,5.93671],[-61.36783,5.93723],[-61.3853,5.94636],[-61.39397,5.94616],[-61.35667,5.90333],[-61.34028,5.88556],[-61.30861,5.84972],[-61.29222,5.83167],[-61.26083,5.79583],[-61.24444,5.77806],[-61.22861,5.76],[-61.21222,5.74222],[-61.18056,5.70639],[-61.16417,5.68833],[-61.1325,5.6525],[-61.11611,5.63472],[-61.08472,5.59889],[-61.06806,5.58083],[-61.0525,5.56306],[-61.03611,5.545],[-61.0291,5.53713],[-61.03222,5.54063],[-61.02128,5.53952],[-61.00478,5.55276],[-60.99975,5.55589],[-60.99393,5.56689],[-60.99537,5.57193],[-60.99231,5.57617],[-60.98752,5.57776],[-60.98272,5.58568],[-60.97969,5.58738],[-60.96718,5.58861],[-60.96077,5.59192],[-60.95709,5.59955],[-60.95914,5.60904],[-60.9532,5.61239],[-60.94578,5.62348],[-60.94563,5.63004],[-60.94305,5.63514],[-60.94648,5.63791],[-60.94884,5.6347],[-60.95589,5.64307],[-60.95509,5.6472],[-60.9487,5.64949],[-60.95587,5.65227],[-60.95745,5.65783],[-60.96406,5.66137],[-60.96277,5.66474],[-60.96793,5.66812],[-60.96997,5.67251],[-60.97638,5.67302],[-60.97864,5.68002],[-60.98196,5.67654],[-60.99393,5.68541],[-60.99219,5.69015],[-60.9949,5.70395],[-61.00132,5.70445],[-61.01718,5.70288],[-61.02617,5.69989],[-61.03389,5.7023],[-61.0363,5.70943],[-61.04233,5.71643],[-61.05209,5.72074],[-61.06404,5.73178],[-61.07661,5.74734],[-61.07792,5.75325],[-61.07712,5.76376],[-61.06955,5.76711],[-61.06395,5.7629],[-61.05827,5.74385],[-61.05535,5.73952],[-61.04269,5.72944],[-61.03434,5.72894],[-61.01986,5.73201],[-61.00993,5.73542],[-61.00169,5.73971],[-60.9862,5.74313],[-60.98638,5.75131],[-60.98037,5.75858],[-60.97457,5.76875],[-60.96876,5.77509],[-60.96541,5.77598],[-60.94522,5.77514],[-60.93684,5.77354],[-60.92738,5.76935],[-60.91542,5.76703],[-60.90522,5.7677],[-60.88516,5.76726],[-60.88038,5.76522],[-60.86504,5.7525],[-60.85239,5.73566],[-60.85217,5.74616],[-60.85537,5.75863],[-60.85357,5.76719],[-60.85537,5.77091],[-60.85467,5.77928],[-60.85192,5.78127],[-60.84851,5.7902],[-60.8433,5.79513],[-60.83224,5.79398],[-60.82066,5.78689],[-60.81667,5.78588],[-60.80725,5.78004],[-60.79969,5.78143],[-60.79333,5.78705],[-60.78337,5.79029],[-60.77444,5.79539],[-60.77332,5.79889],[-60.77471,5.80133],[-60.79234,5.80671],[-60.79814,5.81162],[-60.80323,5.81082],[-60.81399,5.81813],[-60.82058,5.81731],[-60.81732,5.80681],[-60.821,5.80396],[-60.82532,5.81673],[-60.83305,5.82033],[-60.83606,5.82302],[-60.83671,5.82364],[-60.83705,5.82398],[-60.83874,5.82566],[-60.84009,5.827],[-60.8425,5.82949],[-60.84348,5.83052],[-60.84373,5.83077],[-60.84454,5.83156],[-60.84558,5.83255],[-60.84591,5.83288],[-60.8474,5.83435],[-60.8487,5.83574],[-60.84899,5.83607],[-60.84715,5.83802],[-60.84418,5.84476],[-60.85257,5.8602],[-60.85101,5.86834],[-60.85166,5.87635],[-60.84883,5.88022],[-60.84901,5.90368],[-60.84273,5.91399],[-60.83622,5.91451],[-60.83635,5.93003],[-60.84784,5.93388],[-60.86649,5.93481],[-60.88161,5.9373],[-60.89037,5.94281],[-60.89327,5.94648],[-60.90398,5.95458],[-60.90765,5.9554],[-60.91846,5.96348],[-60.92445,5.96562],[-60.94328,5.98055],[-60.94702,5.97897],[-60.95475,5.98526],[-60.95828,5.98321],[-60.96206,5.9861],[-60.97017,5.98842],[-60.9707,5.99161],[-60.97919,6.0021],[-60.98652,6.00619],[-61.00269,6.01324],[-61.01569,6.01638],[-61.02134,6.01443],[-61.03498,6.00224],[-61.03923,5.99314],[-61.05218,5.9847],[-61.05779,5.98244],[-61.07372,5.97838],[-61.09154,5.97033],[-61.10784,5.95985],[-61.11828,5.96127],[-61.12904,5.96824],[-61.13973,5.97319],[-61.15289,5.9781],[-61.16513,5.99018],[-61.17195,5.99567],[-61.17911,5.99838],[-61.1862,6.00367],[-61.20543,6.0129],[-61.2171,6.01744],[-61.23977,6.02228],[-61.25599,6.02401],[-61.26348,6.02293],[-61.2733,6.0142],[-61.27499,6.01035],[-61.27954,5.9979],[-61.27651,5.98424],[-61.27869,5.97349],[-61.28025,5.97127],[-61.2825,5.96877],[-61.28317,5.96843],[-61.28378,5.96813],[-61.28537,5.9673],[-61.28626,5.96681],[-61.28961,5.96487],[-61.28962,5.96487],[-61.29334,5.96395],[-61.29582,5.96304],[-61.30091,5.9609],[-61.30152,5.96063],[-61.30229,5.9602],[-61.30517,5.95855],[-61.31351,5.95078],[-61.31442,5.95054],[-61.31638,5.94996],[-61.31871,5.94904],[-61.32627,5.94189],[-61.33092,5.93832],[-61.33202,5.93779],[-61.33441,5.93664],[-61.33756,5.93596],[-61.33781,5.9359],[-61.33829,5.93593],[-61.33963,5.93601],[-61.3415,5.93613],[-61.34274,5.93591],[-61.3442,5.93565],[-61.34478,5.93554],[-61.34652,5.93543],[-61.34684,5.93544],[-61.34702,5.93543],[-61.35067,5.93543],[-61.35112,5.93523],[-61.35236,5.93464],[-61.35302,5.93432],[-61.35487,5.93517],[-61.3552,5.93532],[-61.357,5.93553],[-61.35859,5.93571],[-61.36126,5.93571],[-61.3613,5.93572]]]},"properties":{"ID":707,"NDC":"Arau","REGION":7,"REG_NAME":"Cuyuni- Mazaruni","STATUS":"Not Classified","Males_2012":69,"Fem_2012":62,"Tot_2012":138}},
{"type":"Feature","geometry":{"type":"Polygon","coordinates":[[[-60.85239,5.73566],[-60.86504,5.7525],[-60.88038,5.76522],[-60.88516,5.76726],[-60.90522,5.7677],[-60.91542,5.76703],[-60.92738,5.76935],[-60.93684,5.77354],[-60.94522,5.77514],[-60.96541,5.77598],[-60.96876,5.77509],[-60.97457,5.76875],[-60.98037,5.75858],[-60.98638,5.75131],[-60.9862,5.74313],[-61.00169,5.73971],[-61.00993,5.73542],[-61.01986,5.73201],[-61.03434,5.72894],[-61.04269,5.72944],[-61.05535,5.73952],[-61.05827,5.74385],[-61.06395,5.7629],[-61.06955,5.76711],[-61.07712,5.76376],[-61.07792,5.75325],[-61.07661,5.74734],[-61.06404,5.73178],[-61.05209,5.72074],[-61.04233,5.71643],[-61.0363,5.70943],[-61.03389,5.7023],[-61.02617,5.69989],[-61.01718,5.70288],[-61.00132,5.70445],[-60.9949,5.70395],[-60.99219,5.69015],[-60.99393,5.68541],[-60.98196,5.67654],[-60.97864,5.68002],[-60.97638,5.67302],[-60.96997,5.67251],[-60.96793,5.66812],[-60.96277,5.66474],[-60.96406,5.66137],[-60.95745,5.65783],[-60.95587,5.65227],[-60.9487,5.64949],[-60.95509,5.6472],[-60.95589,5.64307],[-60.94884,5.6347],[-60.94648,5.63791],[-60.94305,5.63514],[-60.94563,5.63004],[-60.94578,5.62348],[-60.9532,5.61239],[-60.95914,5.60904],[-60.95709,5.59955],[-60.96077,5.59192],[-60.96718,5.58861],[-60.97969,5.58738],[-60.98272,5.58568],[-60.98752,5.57776],[-60.99231,5.57617],[-60.99537,5.57193],[-60.99393,5.56689],[-60.99975,5.55589],[-61.00478,5.55276],[-61.02128,5.53952],[-61.03222,5.54063],[-61.0291,5.53713],[-61.02028,5.52722],[-61.00472,5.50944],[-60.98833,5.49139],[-60.95667,5.45556],[-60.89222,5.38389],[-60.87667,5.36583],[-60.86028,5.34806],[-60.82889,5.31222],[-60.79667,5.27639],[-60.78111,5.25833],[-60.76444,5.24056],[-60.74889,5.2225],[-60.73755,5.2019],[-60.73197,5.21203],[-60.72781,5.21303],[-60.723,5.22],[-60.71027,5.21907],[-60.70066,5.22183],[-60.69285,5.22745],[-60.682,5.232],[-60.659,5.227],[-60.652,5.231],[-60.638,5.22],[-60.62325,5.2153],[-60.614,5.219],[-60.603,5.215],[-60.597,5.221],[-60.592,5.218],[-60.59,5.208],[-60.569,5.196],[-60.56576,5.19573],[-60.55797,5.21021],[-60.54898,5.22066],[-60.54186,5.22617],[-60.53562,5.22857],[-60.52737,5.23643],[-60.5234,5.23592],[-60.52145,5.2492],[-60.51475,5.2575],[-60.51378,5.26303],[-60.51896,5.26598],[-60.52018,5.26923],[-60.51788,5.27412],[-60.52419,5.29299],[-60.52352,5.29591],[-60.50624,5.30099],[-60.50543,5.3063],[-60.50799,5.32586],[-60.51075,5.3315],[-60.51135,5.33882],[-60.50455,5.356],[-60.50137,5.36758],[-60.50104,5.38951],[-60.50845,5.40195],[-60.51303,5.40232],[-60.51965,5.40892],[-60.52025,5.42345],[-60.52248,5.42895],[-60.52245,5.43648],[-60.52705,5.4401],[-60.5279,5.45116],[-60.53441,5.45439],[-60.53834,5.46333],[-60.53693,5.47047],[-60.52949,5.47787],[-60.52497,5.48801],[-60.53358,5.49637],[-60.53891,5.4977],[-60.54655,5.51589],[-60.55376,5.53703],[-60.55599,5.55249],[-60.54838,5.5771],[-60.54707,5.586],[-60.54412,5.58998],[-60.54253,5.59926],[-60.54568,5.60481],[-60.54781,5.61269],[-60.54728,5.61903],[-60.55737,5.63736],[-60.56127,5.64656],[-60.56032,5.65933],[-60.5654,5.67978],[-60.56506,5.69308],[-60.56172,5.71203],[-60.563,5.71627],[-60.56381,5.71705],[-60.56389,5.71713],[-60.56511,5.71754],[-60.5661,5.71807],[-60.56661,5.71835],[-60.56715,5.71869],[-60.56723,5.71874],[-60.56827,5.71883],[-60.56836,5.71884],[-60.56878,5.7187],[-60.56906,5.71856],[-60.56937,5.71841],[-60.57008,5.71755],[-60.57019,5.71741],[-60.57269,5.71649],[-60.57405,5.7167],[-60.57423,5.71685],[-60.57457,5.71723],[-60.5754,5.71839],[-60.57637,5.71942],[-60.57641,5.71945],[-60.5767,5.71976],[-60.57758,5.72041],[-60.57845,5.72116],[-60.58223,5.7267],[-60.58581,5.73043],[-60.58686,5.7314],[-60.59018,5.73461],[-60.59403,5.73828],[-60.59537,5.74119],[-60.5963,5.74323],[-60.59676,5.74461],[-60.59711,5.74599],[-60.59734,5.7486],[-60.59626,5.75167],[-60.59387,5.75691],[-60.59048,5.75969],[-60.58826,5.76071],[-60.58755,5.76104],[-60.58483,5.76193],[-60.58433,5.76233],[-60.58329,5.76301],[-60.57904,5.76578],[-60.57689,5.76779],[-60.57672,5.76803],[-60.57563,5.76956],[-60.5749,5.77064],[-60.57482,5.77074],[-60.57474,5.77115],[-60.57388,5.77397],[-60.57364,5.77444],[-60.57338,5.77557],[-60.57336,5.77567],[-60.57296,5.777],[-60.57281,5.7773],[-60.57262,5.7776],[-60.5722,5.77822],[-60.57117,5.77966],[-60.56986,5.78028],[-60.56929,5.78051],[-60.56935,5.78053],[-60.5736,5.78154],[-60.58459,5.78291],[-60.59534,5.78754],[-60.60707,5.78586],[-60.61175,5.77579],[-60.61841,5.76428],[-60.62358,5.75725],[-60.6327,5.75518],[-60.63794,5.75756],[-60.65196,5.757],[-60.68917,5.75774],[-60.69201,5.76243],[-60.70517,5.77755],[-60.71718,5.78252],[-60.72178,5.78098],[-60.7306,5.7718],[-60.73638,5.76325],[-60.73968,5.75576],[-60.7465,5.74808],[-60.75315,5.74741],[-60.77376,5.74824],[-60.7775,5.74748],[-60.78672,5.74206],[-60.80029,5.7402],[-60.81159,5.74443],[-60.82322,5.75313],[-60.83194,5.7545],[-60.83777,5.75134],[-60.84574,5.74049],[-60.85239,5.73566]]]},"properties":{"ID":708,"NDC":"Paruima","REGION":7,"REG_NAME":"Cuyuni- Mazaruni","STATUS":"Not Classified","Males_2012":140,"Fem_2012":114,"Tot_2012":280}},
{"type":"Feature","geometry":{"type":"Polygon","coordinates":[[[-60.83635,5.93003],[-60.83622,5.91451],[-60.84273,5.91399],[-60.84901,5.90368],[-60.84883,5.88022],[-60.85166,5.87635],[-60.85101,5.86834],[-60.85257,5.8602],[-60.84418,5.84476],[-60.84715,5.83802],[-60.84899,5.83607],[-60.8487,5.83574],[-60.8474,5.83435],[-60.84591,5.83288],[-60.84558,5.83255],[-60.84454,5.83156],[-60.84373,5.83077],[-60.84348,5.83052],[-60.8425,5.82949],[-60.84009,5.827],[-60.83874,5.82566],[-60.83705,5.82398],[-60.83671,5.82364],[-60.83606,5.82302],[-60.83305,5.82033],[-60.82532,5.81673],[-60.821,5.80396],[-60.81732,5.80681],[-60.82058,5.81731],[-60.81399,5.81813],[-60.80323,5.81082],[-60.79814,5.81162],[-60.79234,5.80671],[-60.77471,5.80133],[-60.77332,5.79889],[-60.76831,5.80226],[-60.76355,5.80039],[-60.75739,5.80423],[-60.74599,5.80574],[-60.74176,5.81148],[-60.73082,5.81155],[-60.7304,5.81965],[-60.72091,5.82114],[-60.71227,5.82997],[-60.72284,5.83612],[-60.7316,5.8455],[-60.73454,5.85076],[-60.74062,5.85503],[-60.74551,5.86203],[-60.75676,5.86782],[-60.76838,5.87729],[-60.7729,5.89514],[-60.78207,5.90951],[-60.79012,5.92727],[-60.79359,5.93141],[-60.8012,5.92454],[-60.81581,5.92131],[-60.82603,5.92132],[-60.83303,5.92913],[-60.83635,5.93003]]]},"properties":{"ID":706,"NDC":"Waramadan","REGION":7,"REG_NAME":"Cuyuni- Mazaruni","STATUS":"Not Classified","Males_2012":168,"Fem_2012":171,"Tot_2012":336}}
]}