{"type":"FeatureCollection", "features": [
{"type":"Feature","geometry":{"type":"Polygon","coordinates":[[[-58.19154,6.69665],[-58.19182,6.69635],[-58.19459,6.6933],[-58.19556,6.69266],[-58.1958,6.69251],[-58.19662,6.69238],[-58.19787,6.69222],[-58.20136,6.69333],[-58.20154,6.69337],[-58.20315,6.69378],[-58.20764,6.69487],[-58.20847,6.6951],[-58.21439,6.69681],[-58.21649,6.69632],[-58.23052,6.69774],[-58.23149,6.69779],[-58.23439,6.69806],[-58.26795,6.70065],[-58.27485,6.70121],[-58.27492,6.70121],[-58.28329,6.70187],[-58.28374,6.7019],[-58.28389,6.70191],[-58.28623,6.7021],[-58.29489,6.70297],[-58.29558,6.70304],[-58.29702,6.7032],[-58.30005,6.70351],[-58.30052,6.70354],[-58.30157,6.70361],[-58.30575,6.70398],[-58.30564,6.70351],[-58.30547,6.70333],[-58.30544,6.70329],[-58.30543,6.70312],[-58.30596,6.70212],[-58.30691,6.70109],[-58.30695,6.70106],[-58.30703,6.70096],[-58.30861,6.69984],[-58.31072,6.6985],[-58.31335,6.69734],[-58.31915,6.69528],[-58.3267,6.69476],[-58.32972,6.69432],[-58.33244,6.69325],[-58.33377,6.69219],[-58.33402,6.69187],[-58.33455,6.69141],[-58.33472,6.6912],[-58.33528,6.69044],[-58.33554,6.69014],[-58.33613,6.68913],[-58.33699,6.6881],[-58.33808,6.68637],[-58.33852,6.68592],[-58.33853,6.68592],[-58.33865,6.6858],[-58.33874,6.68575],[-58.33932,6.68544],[-58.33972,6.68498],[-58.34127,6.68203],[-58.34334,6.67928],[-58.34546,6.67266],[-58.34641,6.67087],[-58.34694,6.67012],[-58.34725,6.66976],[-58.34733,6.66969],[-58.34737,6.66964],[-58.348,6.66907],[-58.34896,6.6684],[-58.35244,6.66687],[-58.35439,6.66656],[-58.35977,6.66805],[-58.36239,6.66742],[-58.36401,6.6664],[-58.36436,6.66614],[-58.36472,6.66581],[-58.36501,6.66548],[-58.36536,6.66508],[-58.3664,6.66381],[-58.36659,6.66352],[-58.36942,6.65724],[-58.37049,6.65573],[-58.3706,6.65564],[-58.37062,6.65561],[-58.37104,6.65522],[-58.37151,6.65487],[-58.37306,6.65447],[-58.37733,6.65437],[-58.37909,6.65494],[-58.3827,6.65536],[-58.38518,6.65521],[-58.38792,6.65408],[-58.39168,6.65164],[-58.3934,6.65074],[-58.39833,6.64946],[-58.40227,6.64993],[-58.40446,6.64964],[-58.40625,6.64898],[-58.40693,6.64843],[-58.4073,6.64801],[-58.40751,6.64778],[-58.40777,6.64718],[-58.40819,6.64487],[-58.40825,6.64281],[-58.40707,6.63786],[-58.40802,6.63342],[-58.41061,6.62827],[-58.41274,6.62573],[-58.41377,6.62368],[-58.41416,6.62323],[-58.41448,6.62289],[-58.41456,6.62281],[-58.4146,6.62277],[-58.41534,6.62206],[-58.41576,6.6217],[-58.41714,6.62084],[-58.42227,6.61976],[-58.42341,6.61924],[-58.42389,6.61895],[-58.42475,6.61837],[-58.42598,6.61686],[-58.42606,6.61676],[-58.42654,6.61595],[-58.42732,6.61282],[-58.42814,6.61157],[-58.42903,6.60849],[-58.42947,6.60321],[-58.42921,6.5957],[-58.42998,6.59335],[-58.43071,6.59228],[-58.43078,6.59224],[-58.43105,6.59207],[-58.43132,6.5919],[-58.43419,6.59121],[-58.43562,6.59113],[-58.43711,6.59027],[-58.43721,6.59016],[-58.43729,6.59007],[-58.43763,6.5897],[-58.43781,6.5895],[-58.43788,6.58944],[-58.43793,6.58938],[-58.43818,6.58915],[-58.43844,6.58883],[-58.43923,6.58702],[-58.43902,6.58548],[-58.43795,6.58311],[-58.43678,6.57877],[-58.43653,6.57577],[-58.43763,6.57086],[-58.43735,6.56722],[-58.43655,6.56533],[-58.43563,6.56421],[-58.43393,6.5633],[-58.43168,6.56291],[-58.42542,6.56435],[-58.42486,6.56475],[-58.42231,6.56518],[-58.42071,6.56445],[-58.41958,6.56321],[-58.41804,6.56044],[-58.41797,6.55894],[-58.41851,6.55764],[-58.41916,6.55673],[-58.42018,6.55554],[-58.42024,6.55552],[-58.4203,6.55542],[-58.42217,6.5541],[-58.42512,6.55243],[-58.42923,6.55105],[-58.43049,6.55007],[-58.43126,6.54981],[-58.43203,6.54936],[-58.43297,6.54868],[-58.43365,6.54824],[-58.43383,6.54804],[-58.43462,6.54722],[-58.4377,6.54312],[-58.43972,6.5385],[-58.43968,6.53777],[-58.4409,6.53263],[-58.44132,6.52821],[-58.44076,6.52497],[-58.43973,6.52197],[-58.43854,6.51983],[-58.43745,6.51894],[-58.43478,6.51749],[-58.43252,6.51527],[-58.43163,6.51329],[-58.43062,6.50707],[-58.43111,6.50565],[-58.43364,6.50237],[-58.43375,6.50226],[-58.43376,6.50225],[-58.43531,6.50079],[-58.44043,6.49816],[-58.44167,6.49738],[-58.44341,6.4959],[-58.44341,6.49326],[-58.44206,6.48994],[-58.44146,6.48781],[-58.44201,6.48514],[-58.44386,6.48168],[-58.4436,6.47877],[-58.44176,6.47425],[-58.44073,6.47118],[-58.43993,6.46803],[-58.43948,6.46469],[-58.43944,6.46213],[-58.44056,6.45549],[-58.44056,6.45252],[-58.43969,6.44812],[-58.43829,6.44542],[-58.43459,6.44132],[-58.43428,6.4404],[-58.43567,6.4338],[-58.43512,6.42696],[-58.43402,6.42442],[-58.43271,6.42273],[-58.42945,6.41969],[-58.42578,6.41689],[-58.42362,6.41487],[-58.42292,6.41331],[-58.42278,6.41156],[-58.42302,6.40769],[-58.42356,6.40424],[-58.42332,6.39721],[-58.42244,6.39247],[-58.42189,6.39048],[-58.42092,6.38863],[-58.41902,6.38625],[-58.41693,6.38516],[-58.41397,6.38413],[-58.40987,6.38404],[-58.40709,6.38321],[-58.40545,6.38186],[-58.39998,6.37415],[-58.39815,6.37104],[-58.39454,6.36581],[-58.3925,6.3609],[-58.39091,6.35557],[-58.3903,6.35218],[-58.39012,6.34784],[-58.38975,6.34483],[-58.3899,6.34125],[-58.39096,6.33745],[-58.39242,6.33385],[-58.3961,6.32656],[-58.39797,6.3221],[-58.39878,6.31967],[-58.40041,6.31598],[-58.40432,6.30892],[-58.40723,6.30437],[-58.40908,6.30187],[-58.41468,6.29263],[-58.4148,6.29251],[-58.41522,6.29209],[-58.416,6.29116],[-58.41615,6.29088],[-58.41683,6.28957],[-58.41777,6.28836],[-58.41817,6.28784],[-58.42269,6.2819],[-58.41992,6.27609],[-58.41589,6.24306],[-58.40755,6.22232],[-58.40204,6.19403],[-58.39727,6.16144],[-58.39131,6.13745],[-58.36986,6.12411],[-58.34393,6.12293],[-58.32426,6.11434],[-58.29655,6.1013],[-58.28566,6.09518],[-58.28089,6.0991],[-58.27363,6.10641],[-58.26822,6.11243],[-58.26666,6.11497],[-58.26321,6.12503],[-58.25962,6.13322],[-58.25876,6.13644],[-58.25868,6.14107],[-58.25895,6.14289],[-58.25957,6.14405],[-58.26517,6.14821],[-58.26741,6.1504],[-58.26991,6.15466],[-58.27294,6.15872],[-58.27769,6.16381],[-58.27878,6.16614],[-58.27877,6.16842],[-58.2776,6.17517],[-58.27773,6.18362],[-58.27884,6.19218],[-58.28008,6.19742],[-58.28157,6.20026],[-58.28332,6.20134],[-58.28946,6.20217],[-58.29407,6.20344],[-58.29849,6.20645],[-58.29956,6.20787],[-58.29994,6.21015],[-58.2996,6.21252],[-58.29614,6.21903],[-58.29298,6.22716],[-58.28992,6.23617],[-58.28879,6.23907],[-58.28689,6.24247],[-58.27491,6.25451],[-58.27269,6.25778],[-58.27101,6.26317],[-58.27104,6.26594],[-58.27265,6.27023],[-58.27274,6.27245],[-58.27238,6.27407],[-58.2689,6.28029],[-58.26751,6.28379],[-58.26698,6.2895],[-58.26748,6.29344],[-58.26919,6.29637],[-58.27413,6.29983],[-58.28102,6.30575],[-58.29367,6.3158],[-58.30159,6.32086],[-58.30667,6.32545],[-58.31014,6.32908],[-58.31231,6.33411],[-58.31258,6.33806],[-58.3107,6.34769],[-58.31037,6.35078],[-58.31073,6.35631],[-58.3131,6.36227],[-58.3143,6.36756],[-58.31422,6.37242],[-58.31284,6.37541],[-58.31087,6.37865],[-58.30314,6.39017],[-58.29559,6.39767],[-58.29233,6.40279],[-58.29199,6.40689],[-58.29199,6.4219],[-58.29267,6.42974],[-58.29336,6.43384],[-58.29611,6.43844],[-58.30246,6.44493],[-58.3064,6.44697],[-58.31138,6.45226],[-58.31344,6.45635],[-58.31413,6.45959],[-58.31413,6.46829],[-58.31293,6.47409],[-58.31173,6.47802],[-58.30932,6.48074],[-58.30555,6.48296],[-58.30194,6.48484],[-58.29199,6.49303],[-58.28151,6.50377],[-58.26074,6.5239],[-58.2493,6.53363],[-58.24225,6.54062],[-58.23122,6.56056],[-58.2259,6.57182],[-58.22332,6.57949],[-58.22246,6.58802],[-58.22057,6.59961],[-58.21817,6.60848],[-58.21474,6.61598],[-58.20667,6.63491],[-58.20118,6.64616],[-58.19174,6.67089],[-58.18899,6.68572],[-58.1905,6.69457],[-58.19154,6.69665]]]},"properties":{"ID":"315","NDC":"Amsterdam (Demerara River) / Vriesland","REGION":"Essequibo Islands-West Demerara","STATUS":"Not Classified","Male_2012":1184,"Fem_2012":1050,"Tot_2012":2234}},
{"type":"Feature","geometry":{"type":"Polygon","coordinates":[[[-58.23439,6.69806],[-58.23345,6.70908],[-58.23237,6.72343],[-58.2318,6.72876],[-58.23421,6.72886],[-58.24509,6.72977],[-58.25622,6.73086],[-58.25814,6.7055],[-58.26526,6.70613],[-58.26642,6.70647],[-58.27488,6.70683],[-58.27492,6.70121],[-58.27485,6.70121],[-58.26795,6.70065],[-58.23439,6.69806]]]},"properties":{"ID":"316","NDC":"Canal No. 2 (part) + The Belle + Little Alliance","REGION":"Essequibo Islands-West Demerara","STATUS":"Not Classified","Male_2012":217,"Fem_2012":196,"Tot_2012":413}},
{"type":"Feature","geometry":{"type":"Polygon","coordinates":[[[-58.27492,6.70121],[-58.27488,6.70683],[-58.26642,6.70647],[-58.26526,6.70613],[-58.25814,6.7055],[-58.25622,6.73086],[-58.24509,6.72977],[-58.23421,6.72886],[-58.2318,6.72876],[-58.23056,6.74623],[-58.2264,6.7454],[-58.22607,6.74906],[-58.22496,6.76095],[-58.22482,6.76282],[-58.22479,6.76311],[-58.23634,6.76437],[-58.24207,6.76488],[-58.23954,6.78971],[-58.23938,6.79085],[-58.24184,6.79102],[-58.24396,6.79112],[-58.25064,6.79158],[-58.25068,6.79158],[-58.26082,6.79262],[-58.26893,6.79337],[-58.2709,6.79356],[-58.27659,6.79421],[-58.29201,6.7956],[-58.29847,6.79653],[-58.30023,6.77388],[-58.30098,6.76277],[-58.30165,6.75538],[-58.30171,6.75346],[-58.30288,6.73825],[-58.30329,6.73504],[-58.30362,6.72914],[-58.30575,6.70398],[-58.30157,6.70361],[-58.30052,6.70354],[-58.30005,6.70351],[-58.29702,6.7032],[-58.29558,6.70304],[-58.29489,6.70297],[-58.28623,6.7021],[-58.28389,6.70191],[-58.28374,6.7019],[-58.28329,6.70187],[-58.27492,6.70121]]]},"properties":{"ID":"302","NDC":"Canals Polder","REGION":"Essequibo Islands-West Demerara","STATUS":"Neighbourhood Democratic Council","Male_2012":3616,"Fem_2012":3456,"Tot_2012":7072}},
{"type":"Feature","geometry":{"type":"Polygon","coordinates":[[[-58.40531,6.84193],[-58.40305,6.84372],[-58.40039,6.84578],[-58.39862,6.84729],[-58.3985,6.8474],[-58.3953,6.84717],[-58.38968,6.84686],[-58.38851,6.84749],[-58.3878,6.84798],[-58.38636,6.84808],[-58.38249,6.84769],[-58.38238,6.84937],[-58.38213,6.8532],[-58.38176,6.85628],[-58.38182,6.85656],[-58.38202,6.85753],[-58.38118,6.8641],[-58.38082,6.86736],[-58.38065,6.86875],[-58.38024,6.87254],[-58.38023,6.87278],[-58.38022,6.87296],[-58.38022,6.87297],[-58.38071,6.87308],[-58.38152,6.87345],[-58.38396,6.87359],[-58.39734,6.86968],[-58.39757,6.86891],[-58.40405,6.86811],[-58.40403,6.86762],[-58.41405,6.86529],[-58.41409,6.86573],[-58.4182,6.86589],[-58.41976,6.86538],[-58.40531,6.84193]]]},"properties":{"ID":"311","NDC":"Hydronie / Good Hope","REGION":"Essequibo Islands-West Demerara","STATUS":"Neighbourhood Democratic Council","Male_2012":972,"Fem_2012":1021,"Tot_2012":1993}},
{"type":"Feature","geometry":{"type":"Polygon","coordinates":[[[-58.45181,6.92125],[-58.45625,6.91847],[-58.45708,6.91847],[-58.45903,6.91736],[-58.46125,6.91681],[-58.46208,6.91431],[-58.4632,6.91264],[-58.4632,6.91042],[-58.46403,6.90958],[-58.46486,6.90708],[-58.46486,6.90569],[-58.46569,6.90375],[-58.46569,6.90208],[-58.46653,6.90125],[-58.4668,6.89875],[-58.46764,6.89764],[-58.46847,6.8932],[-58.46903,6.89264],[-58.46903,6.89069],[-58.46986,6.88958],[-58.47042,6.88542],[-58.47125,6.88403],[-58.47125,6.88236],[-58.47181,6.88181],[-58.47181,6.87986],[-58.47236,6.87736],[-58.47375,6.87486],[-58.47375,6.87181],[-58.4743,6.87042],[-58.47236,6.8707],[-58.4707,6.87236],[-58.46986,6.87236],[-58.46931,6.87347],[-58.46819,6.87403],[-58.46736,6.87597],[-58.46625,6.87625],[-58.46542,6.87764],[-58.46375,6.87931],[-58.46375,6.87986],[-58.46181,6.88069],[-58.46181,6.88125],[-58.45875,6.88208],[-58.45847,6.88292],[-58.45653,6.88319],[-58.45542,6.88431],[-58.45347,6.88486],[-58.45125,6.88486],[-58.45014,6.88569],[-58.44958,6.88764],[-58.44764,6.88847],[-58.4468,6.88958],[-58.44486,6.89042],[-58.44375,6.89181],[-58.44208,6.89208],[-58.44153,6.8932],[-58.43958,6.89486],[-58.43875,6.89708],[-58.43708,6.89792],[-58.43486,6.90014],[-58.43319,6.90125],[-58.43153,6.9018],[-58.43014,6.9032],[-58.4282,6.9032],[-58.42653,6.9043],[-58.42486,6.9043],[-58.4243,6.90542],[-58.42236,6.90542],[-58.42153,6.90625],[-58.4193,6.90653],[-58.41681,6.90792],[-58.41681,6.90875],[-58.41486,6.90958],[-58.41403,6.91097],[-58.41097,6.91181],[-58.41042,6.91236],[-58.40736,6.91264],[-58.40736,6.91292],[-58.4043,6.91292],[-58.40319,6.91264],[-58.40125,6.91319],[-58.4007,6.91375],[-58.39875,6.91375],[-58.39791,6.91458],[-58.39542,6.91486],[-58.39431,6.91681],[-58.39347,6.91736],[-58.39125,6.91764],[-58.39097,6.91819],[-58.38903,6.9193],[-58.38736,6.91986],[-58.38569,6.91986],[-58.38514,6.9193],[-58.38236,6.92014],[-58.38125,6.92125],[-58.37736,6.92264],[-58.37597,6.92264],[-58.37458,6.92403],[-58.37458,6.92486],[-58.3732,6.92625],[-58.37181,6.92681],[-58.36986,6.92847],[-58.36986,6.93014],[-58.36681,6.93403],[-58.36597,6.93403],[-58.36458,6.93514],[-58.36431,6.93625],[-58.36236,6.93653],[-58.35986,6.93903],[-58.35653,6.93931],[-58.35625,6.93875],[-58.35486,6.93875],[-58.35264,6.93986],[-58.35125,6.94153],[-58.34958,6.94236],[-58.34708,6.94236],[-58.3457,6.94375],[-58.3457,6.94542],[-58.34625,6.94653],[-58.35014,6.94792],[-58.35236,6.94931],[-58.35486,6.95014],[-58.35653,6.95125],[-58.35931,6.95236],[-58.3618,6.95486],[-58.36542,6.95514],[-58.36542,6.95486],[-58.36847,6.95486],[-58.37014,6.95653],[-58.37097,6.95653],[-58.37208,6.95764],[-58.37403,6.95764],[-58.37764,6.95903],[-58.37958,6.95903],[-58.38125,6.96014],[-58.38403,6.96125],[-58.38653,6.96264],[-58.38875,6.96292],[-58.39014,6.96375],[-58.3918,6.96403],[-58.39736,6.96403],[-58.39903,6.96375],[-58.39958,6.96319],[-58.40125,6.96319],[-58.40319,6.96236],[-58.40486,6.96236],[-58.40625,6.96153],[-58.40764,6.96125],[-58.40764,6.95903],[-58.40847,6.95875],[-58.40931,6.95708],[-58.41292,6.95375],[-58.41625,6.94931],[-58.41764,6.94819],[-58.41792,6.94736],[-58.41903,6.94681],[-58.4193,6.94597],[-58.42042,6.94542],[-58.42153,6.94375],[-58.42319,6.94292],[-58.42403,6.94153],[-58.42486,6.94125],[-58.42514,6.94014],[-58.42764,6.93847],[-58.42931,6.93653],[-58.43153,6.93486],[-58.43153,6.93431],[-58.43319,6.93375],[-58.43542,6.93097],[-58.43875,6.92931],[-58.43958,6.92819],[-58.44153,6.92764],[-58.44403,6.92542],[-58.44486,6.92542],[-58.44625,6.9243],[-58.44792,6.92375],[-58.45014,6.92153],[-58.45181,6.92125]]]},"properties":{"ID":"313","NDC":"Leguan","REGION":"Essequibo Islands-West Demerara","STATUS":"Neighbourhood Democratic Council","Male_2012":2027,"Fem_2012":1865,"Tot_2012":3892}},
{"type":"Feature","geometry":{"type":"Polygon","coordinates":[[[-58.22479,6.76311],[-58.22406,6.76303],[-58.22232,6.78061],[-58.21114,6.77962],[-58.20472,6.77899],[-58.18379,6.77739],[-58.17613,6.79852],[-58.19191,6.79974],[-58.1914,6.8026],[-58.1917,6.80321],[-58.20497,6.80431],[-58.23915,6.80684],[-58.24094,6.80695],[-58.24125,6.79914],[-58.24184,6.79102],[-58.23938,6.79085],[-58.23954,6.78971],[-58.24207,6.76488],[-58.23634,6.76437],[-58.22479,6.76311]]]},"properties":{"ID":"304","NDC":"Malgre Tout / Meer Zorgen","REGION":"Essequibo Islands-West Demerara","STATUS":"Neighbourhood Democratic Council","Male_2012":1983,"Fem_2012":2002,"Tot_2012":3985}},
{"type":"Feature","geometry":{"type":"Polygon","coordinates":[[[-58.22479,6.76311],[-58.22482,6.76282],[-58.22496,6.76095],[-58.22607,6.74906],[-58.20205,6.74728],[-58.19528,6.74634],[-58.18538,6.77301],[-58.18379,6.77739],[-58.20472,6.77899],[-58.21114,6.77962],[-58.22232,6.78061],[-58.22406,6.76303],[-58.22479,6.76311]]]},"properties":{"ID":"303","NDC":"Nismes / La Grange","REGION":"Essequibo Islands-West Demerara","STATUS":"Neighbourhood Democratic Council","Male_2012":3106,"Fem_2012":3198,"Tot_2012":6304}},
{"type":"Feature","geometry":{"type":"Polygon","coordinates":[[[-58.19182,6.69635],[-58.19151,6.69672],[-58.19633,6.70624],[-58.19883,6.71579],[-58.19951,6.73039],[-58.19528,6.74634],[-58.20205,6.74728],[-58.22607,6.74906],[-58.2264,6.7454],[-58.23056,6.74623],[-58.2318,6.72876],[-58.23237,6.72343],[-58.23345,6.70908],[-58.23439,6.69806],[-58.23149,6.69779],[-58.23052,6.69774],[-58.21649,6.69632],[-58.21439,6.69681],[-58.20847,6.6951],[-58.20764,6.69487],[-58.20315,6.69378],[-58.20154,6.69337],[-58.20136,6.69333],[-58.19787,6.69222],[-58.19662,6.69238],[-58.1958,6.69251],[-58.19556,6.69266],[-58.19459,6.6933],[-58.19182,6.69635]]]},"properties":{"ID":"301","NDC":"Toevlugt / Patentia","REGION":"Essequibo Islands-West Demerara","STATUS":"Neighbourhood Democratic Council","Male_2012":5056,"Fem_2012":4978,"Tot_2012":10034}},
{"type":"Feature","geometry":{"type":"Polygon","coordinates":[[[-58.5168,6.89125],[-58.5168,6.89153],[-58.51042,6.89153],[-58.51014,6.89208],[-58.50764,6.89208],[-58.50681,6.89264],[-58.50347,6.8932],[-58.5018,6.89403],[-58.50125,6.89486],[-58.49958,6.89514],[-58.49875,6.89597],[-58.49736,6.89625],[-58.49542,6.89819],[-58.4943,6.89875],[-58.49403,6.89958],[-58.49236,6.90069],[-58.49014,6.90264],[-58.49014,6.9032],[-58.4868,6.90597],[-58.48569,6.90764],[-58.48486,6.90819],[-58.4818,6.91181],[-58.47958,6.91375],[-58.47958,6.91431],[-58.4782,6.91514],[-58.47653,6.91764],[-58.47458,6.9193],[-58.47347,6.92097],[-58.47347,6.9218],[-58.47181,6.92319],[-58.47097,6.92319],[-58.46875,6.92681],[-58.46653,6.92875],[-58.46653,6.92931],[-58.46458,6.93014],[-58.46292,6.93264],[-58.46181,6.93292],[-58.45986,6.93486],[-58.45625,6.93681],[-58.45625,6.93736],[-58.45486,6.93792],[-58.45292,6.94014],[-58.44931,6.94236],[-58.44903,6.94319],[-58.44403,6.94653],[-58.44208,6.94875],[-58.44069,6.94986],[-58.44069,6.9507],[-58.43903,6.95181],[-58.43736,6.95486],[-58.43542,6.95653],[-58.43514,6.95792],[-58.43403,6.95875],[-58.43347,6.96014],[-58.4318,6.96153],[-58.43097,6.96403],[-58.43014,6.96542],[-58.42931,6.96569],[-58.42903,6.96681],[-58.42764,6.96764],[-58.42681,6.96958],[-58.42542,6.97042],[-58.42542,6.97153],[-58.4243,6.97208],[-58.42319,6.97375],[-58.41875,6.97653],[-58.41764,6.97792],[-58.41597,6.97903],[-58.41292,6.97986],[-58.41208,6.98097],[-58.41042,6.98125],[-58.40931,6.98208],[-58.40792,6.98236],[-58.40653,6.98347],[-58.40403,6.98403],[-58.40292,6.98542],[-58.40125,6.98653],[-58.40014,6.98847],[-58.4007,6.99208],[-58.40208,6.99319],[-58.40236,6.99403],[-58.40403,6.99403],[-58.40486,6.99458],[-58.40542,6.99681],[-58.40625,6.99792],[-58.40736,6.99792],[-58.40875,6.99958],[-58.40958,6.99958],[-58.41153,7.00153],[-58.41153,7.00292],[-58.41208,7.00375],[-58.41431,7.00375],[-58.41653,7.00597],[-58.41708,7.00597],[-58.41958,7.00875],[-58.42014,7.00875],[-58.42208,7.01097],[-58.42458,7.01208],[-58.42458,7.01319],[-58.42625,7.01403],[-58.42681,7.01569],[-58.42986,7.01819],[-58.43375,7.02097],[-58.43403,7.02153],[-58.43625,7.02208],[-58.43764,7.02347],[-58.44042,7.02375],[-58.44181,7.02292],[-58.44208,7.02181],[-58.44486,7.01931],[-58.44625,7.01569],[-58.44736,7.01458],[-58.44736,7.01319],[-58.44792,7.01264],[-58.44819,7.0107],[-58.44875,7.01042],[-58.44903,7.00819],[-58.45042,7.00653],[-58.44986,7.00542],[-58.45042,7.00514],[-58.45042,7.00375],[-58.45153,6.99847],[-58.45236,6.99375],[-58.45375,6.99153],[-58.45458,6.98847],[-58.45542,6.98736],[-58.45542,6.98597],[-58.45625,6.98542],[-58.45653,6.98375],[-58.45764,6.98319],[-58.45792,6.9818],[-58.45903,6.98089],[-58.45958,6.97903],[-58.46014,6.97875],[-58.46069,6.97708],[-58.46153,6.97625],[-58.46153,6.97514],[-58.46403,6.97264],[-58.46708,6.96764],[-58.46764,6.96764],[-58.46986,6.96403],[-58.4707,6.96375],[-58.47125,6.96125],[-58.47292,6.95986],[-58.47403,6.95764],[-58.47597,6.95625],[-58.47625,6.95403],[-58.47709,6.95292],[-58.47709,6.95181],[-58.4782,6.95014],[-58.47931,6.94931],[-58.47931,6.94764],[-58.48069,6.94597],[-58.48097,6.94458],[-58.48208,6.94347],[-58.48208,6.94264],[-58.4832,6.94042],[-58.48431,6.93958],[-58.48458,6.93819],[-58.48514,6.93819],[-58.48542,6.93653],[-58.48653,6.93486],[-58.48792,6.93375],[-58.48903,6.93125],[-58.49042,6.92986],[-58.49042,6.92931],[-58.49208,6.92764],[-58.49208,6.92681],[-58.49319,6.92542],[-58.49375,6.92542],[-58.49486,6.92319],[-58.49708,6.92097],[-58.49792,6.91903],[-58.49875,6.91875],[-58.49903,6.91736],[-58.50208,6.91403],[-58.50236,6.91292],[-58.50347,6.91208],[-58.50403,6.91069],[-58.50486,6.91042],[-58.50514,6.90931],[-58.50764,6.90708],[-58.50847,6.90569],[-58.50903,6.90569],[-58.50958,6.9043],[-58.51014,6.9043],[-58.51125,6.9018],[-58.51292,6.90097],[-58.51347,6.89986],[-58.51597,6.89708],[-58.5182,6.89542],[-58.51931,6.89264],[-58.51847,6.89153],[-58.5168,6.89125]]]},"properties":{"ID":"314","NDC":"Wakenaam","REGION":"Essequibo Islands-West Demerara","STATUS":"Neighbourhood Democratic Council","Male_2012":2243,"Fem_2012":2192,"Tot_2012":4435}},
{"type":"Feature","geometry":{"type":"Polygon","coordinates":[[[-58.17613,6.79852],[-58.17283,6.80763],[-58.17704,6.80782],[-58.17713,6.80937],[-58.17657,6.81148],[-58.1773,6.81263],[-58.1789,6.81318],[-58.18005,6.81285],[-58.18265,6.81338],[-58.18478,6.81453],[-58.1856,6.8145],[-58.18674,6.81588],[-58.18882,6.81678],[-58.1905,6.81632],[-58.19363,6.81722],[-58.19324,6.81823],[-58.19387,6.81885],[-58.19579,6.81884],[-58.19666,6.81967],[-58.19867,6.8194],[-58.20109,6.82094],[-58.20408,6.82345],[-58.20462,6.81684],[-58.20506,6.81153],[-58.21234,6.81213],[-58.21375,6.81251],[-58.22489,6.81323],[-58.23247,6.81361],[-58.2357,6.81411],[-58.23628,6.80898],[-58.23912,6.80899],[-58.23915,6.80684],[-58.20497,6.80431],[-58.1917,6.80321],[-58.1914,6.8026],[-58.19191,6.79974],[-58.17613,6.79852]]]},"properties":{"ID":"305","NDC":"Best / Klein Pouderoyen","REGION":"Essequibo Islands-West Demerara","STATUS":"Neighbourhood Democratic Council","Male_2012":6005,"Fem_2012":6203,"Tot_2012":12208}},
{"type":"Feature","geometry":{"type":"Polygon","coordinates":[[[-58.24184,6.79102],[-58.24125,6.79914],[-58.24094,6.80695],[-58.23915,6.80684],[-58.23912,6.80899],[-58.23628,6.80898],[-58.2357,6.81411],[-58.23247,6.81361],[-58.22489,6.81323],[-58.21375,6.81251],[-58.21234,6.81213],[-58.20506,6.81153],[-58.20462,6.81684],[-58.2041,6.82353],[-58.20776,6.82692],[-58.21052,6.82926],[-58.2205,6.8383],[-58.22276,6.8407],[-58.22496,6.842],[-58.22671,6.84338],[-58.23147,6.84615],[-58.23469,6.84843],[-58.23772,6.85016],[-58.24015,6.85253],[-58.24295,6.8531],[-58.24552,6.8544],[-58.24623,6.84825],[-58.24699,6.83801],[-58.24737,6.83385],[-58.24792,6.82774],[-58.24841,6.82257],[-58.24845,6.82207],[-58.24883,6.81854],[-58.24972,6.80838],[-58.24983,6.80744],[-58.25011,6.80506],[-58.25039,6.80156],[-58.25068,6.79158],[-58.25064,6.79158],[-58.24396,6.79112],[-58.24184,6.79102]]]},"properties":{"ID":"306","NDC":"La Jalousie / Nouvelle Flanders","REGION":"Essequibo Islands-West Demerara","STATUS":"Neighbourhood Democratic Council","Male_2012":2076,"Fem_2012":1980,"Tot_2012":4056}},
{"type":"Feature","geometry":{"type":"Polygon","coordinates":[[[-58.25068,6.79158],[-58.25039,6.80156],[-58.25011,6.80506],[-58.24983,6.80744],[-58.24972,6.80838],[-58.24883,6.81854],[-58.24845,6.82207],[-58.24841,6.82257],[-58.24792,6.82774],[-58.24737,6.83385],[-58.24701,6.83793],[-58.24624,6.84827],[-58.24552,6.85437],[-58.24781,6.85558],[-58.24901,6.85681],[-58.25212,6.85832],[-58.25242,6.85907],[-58.2536,6.85896],[-58.26077,6.86428],[-58.26372,6.86511],[-58.26381,6.86501],[-58.26429,6.86444],[-58.26459,6.86408],[-58.26617,6.86228],[-58.26629,6.86027],[-58.26638,6.85867],[-58.26646,6.85722],[-58.26662,6.85402],[-58.26707,6.84756],[-58.26711,6.8466],[-58.2672,6.84442],[-58.26733,6.84311],[-58.26737,6.84256],[-58.26738,6.84245],[-58.26766,6.83853],[-58.26771,6.83777],[-58.26881,6.82291],[-58.26918,6.81706],[-58.26938,6.81389],[-58.26944,6.81303],[-58.26944,6.81302],[-58.27028,6.80191],[-58.27035,6.80101],[-58.27046,6.79956],[-58.2709,6.79357],[-58.2709,6.79356],[-58.26893,6.79337],[-58.26082,6.79262],[-58.25068,6.79158]]]},"properties":{"ID":"307","NDC":"Hague / Blankenburg","REGION":"Essequibo Islands-West Demerara","STATUS":"Neighbourhood Democratic Council","Male_2012":1747,"Fem_2012":1815,"Tot_2012":3562}},
{"type":"Feature","geometry":{"type":"Polygon","coordinates":[[[-58.2709,6.79356],[-58.2709,6.79357],[-58.27046,6.79956],[-58.27035,6.80101],[-58.27028,6.80191],[-58.26944,6.81302],[-58.26944,6.81303],[-58.26938,6.81389],[-58.26918,6.81706],[-58.26881,6.82291],[-58.26771,6.83777],[-58.26766,6.83853],[-58.26738,6.84245],[-58.26737,6.84256],[-58.26733,6.84311],[-58.2672,6.84442],[-58.26711,6.8466],[-58.26707,6.84756],[-58.26662,6.85402],[-58.26646,6.85722],[-58.26638,6.85867],[-58.26629,6.86027],[-58.26617,6.86228],[-58.26459,6.86408],[-58.26429,6.86444],[-58.26381,6.86501],[-58.2637,6.86513],[-58.26472,6.86542],[-58.26897,6.86819],[-58.26966,6.86804],[-58.27234,6.86952],[-58.27703,6.87127],[-58.27717,6.87164],[-58.2812,6.87364],[-58.28178,6.8752],[-58.28568,6.87322],[-58.28891,6.87439],[-58.29209,6.87495],[-58.29544,6.87691],[-58.29858,6.87823],[-58.29858,6.8782],[-58.29865,6.87686],[-58.29866,6.87671],[-58.29872,6.87582],[-58.29868,6.87436],[-58.29917,6.87219],[-58.29955,6.86828],[-58.30134,6.8469],[-58.3057,6.79702],[-58.29847,6.79653],[-58.29201,6.7956],[-58.27659,6.79421],[-58.2709,6.79356]]]},"properties":{"ID":"308","NDC":"Stewartville / Cornelia Ida","REGION":"Essequibo Islands-West Demerara","STATUS":"Neighbourhood Democratic Council","Male_2012":5816,"Fem_2012":5888,"Tot_2012":11704}},
{"type":"Feature","geometry":{"type":"Polygon","coordinates":[[[-58.29858,6.87823],[-58.29902,6.87831],[-58.30056,6.87843],[-58.3009,6.87853],[-58.30953,6.8821],[-58.31222,6.88281],[-58.32622,6.88232],[-58.33096,6.88322],[-58.33231,6.8839],[-58.33435,6.88418],[-58.33648,6.88343],[-58.34603,6.88299],[-58.3488,6.88237],[-58.35039,6.88283],[-58.35162,6.88254],[-58.35209,6.88248],[-58.3526,6.88237],[-58.35261,6.88237],[-58.35262,6.88236],[-58.35275,6.88133],[-58.35294,6.88013],[-58.35313,6.87869],[-58.3532,6.87811],[-58.35326,6.87766],[-58.35371,6.87508],[-58.35374,6.87491],[-58.35393,6.87404],[-58.35402,6.87354],[-58.35435,6.8716],[-58.35436,6.87152],[-58.35514,6.8667],[-58.35519,6.86602],[-58.3552,6.86598],[-58.35642,6.85812],[-58.35703,6.85537],[-58.357,6.85536],[-58.35728,6.85396],[-58.3574,6.85331],[-58.35747,6.85297],[-58.35757,6.85236],[-58.35766,6.85178],[-58.35803,6.84979],[-58.35892,6.84528],[-58.35905,6.83731],[-58.35926,6.82942],[-58.36244,6.83071],[-58.36615,6.82914],[-58.37069,6.82356],[-58.37202,6.82146],[-58.37424,6.81583],[-58.37573,6.8137],[-58.37568,6.81204],[-58.37421,6.80662],[-58.37168,6.80419],[-58.36951,6.80284],[-58.36486,6.80214],[-58.35651,6.8015],[-58.33095,6.79917],[-58.32329,6.79861],[-58.31774,6.798],[-58.3057,6.79702],[-58.30134,6.8469],[-58.29955,6.86828],[-58.29917,6.87219],[-58.29868,6.87436],[-58.29872,6.87582],[-58.29866,6.87671],[-58.29865,6.87686],[-58.29858,6.8782],[-58.29858,6.87823]]]},"properties":{"ID":"309","NDC":"Uitvlught / Tuschen","REGION":"Essequibo Islands-West Demerara","STATUS":"Neighbourhood Democratic Council","Male_2012":8982,"Fem_2012":9059,"Tot_2012":18041}},
{"type":"Feature","geometry":{"type":"Polygon","coordinates":[[[-58.38249,6.84769],[-58.38244,6.84768],[-58.37749,6.84726],[-58.37589,6.84713],[-58.37391,6.84682],[-58.37266,6.84677],[-58.37217,6.84676],[-58.365,6.84605],[-58.35893,6.84529],[-58.35823,6.84879],[-58.35766,6.85183],[-58.35757,6.85236],[-58.35747,6.85297],[-58.3574,6.85331],[-58.35728,6.85396],[-58.357,6.85536],[-58.35703,6.85537],[-58.35642,6.85812],[-58.3552,6.86598],[-58.35519,6.86602],[-58.35514,6.8667],[-58.35436,6.87152],[-58.35435,6.8716],[-58.35402,6.87354],[-58.35393,6.87404],[-58.35374,6.87491],[-58.35371,6.87508],[-58.35326,6.87766],[-58.3532,6.87811],[-58.35313,6.87869],[-58.35294,6.88013],[-58.35275,6.88133],[-58.35262,6.88236],[-58.35423,6.88147],[-58.35663,6.88035],[-58.35763,6.87806],[-58.35867,6.87755],[-58.36597,6.87656],[-58.36771,6.87568],[-58.368,6.87436],[-58.37802,6.87311],[-58.38022,6.87302],[-58.38022,6.87297],[-58.38022,6.87296],[-58.38023,6.87278],[-58.38024,6.87254],[-58.38065,6.86875],[-58.38082,6.86736],[-58.38118,6.8641],[-58.38202,6.85753],[-58.38182,6.85656],[-58.38176,6.85628],[-58.38213,6.8532],[-58.38238,6.84937],[-58.38249,6.84769]]]},"properties":{"ID":"310","NDC":"Greenwich Park / Vergenoegen","REGION":"Essequibo Islands-West Demerara","STATUS":"Neighbourhood Democratic Council","Male_2012":1694,"Fem_2012":1604,"Tot_2012":3298}},
{"type":"Feature","geometry":{"type":"MultiPolygon","coordinates":[[[[-58.40531,6.84193],[-58.41976,6.86538],[-58.42336,6.86418],[-58.42465,6.8634],[-58.42769,6.85936],[-58.43022,6.85771],[-58.43236,6.8554],[-58.4359,6.85262],[-58.43957,6.8483],[-58.44646,6.84124],[-58.44676,6.84118],[-58.44668,6.841],[-58.44677,6.84091],[-58.44625,6.84037],[-58.44443,6.83888],[-58.43297,6.82885],[-58.42816,6.82469],[-58.4278,6.82419],[-58.42515,6.82542],[-58.42449,6.82714],[-58.42153,6.82928],[-58.40531,6.84193]]],[[[-58.44701,6.84068],[-58.44702,6.84067],[-58.44722,6.84028],[-58.44753,6.83964],[-58.44752,6.83965],[-58.44701,6.84068]]]]},"properties":{"ID":"312","NDC":"Mora / Parika","REGION":"Essequibo Islands-West Demerara","STATUS":"Neighbourhood Democratic Council","Male_2012":2612,"Fem_2012":2596,"Tot_2012":5208}},
{"type":"Feature","geometry":{"type":"MultiPolygon","coordinates":[[[[-58.41817,6.28784],[-58.41777,6.28836],[-58.41683,6.28957],[-58.41615,6.29088],[-58.416,6.29116],[-58.41522,6.29209],[-58.4148,6.29251],[-58.41468,6.29263],[-58.40908,6.30187],[-58.40723,6.30437],[-58.40432,6.30892],[-58.40041,6.31598],[-58.39878,6.31967],[-58.39797,6.3221],[-58.3961,6.32656],[-58.39242,6.33385],[-58.39096,6.33745],[-58.3899,6.34125],[-58.38975,6.34483],[-58.39012,6.34784],[-58.3903,6.35218],[-58.39091,6.35557],[-58.3925,6.3609],[-58.39454,6.36581],[-58.39815,6.37104],[-58.39998,6.37415],[-58.40545,6.38186],[-58.40709,6.38321],[-58.40987,6.38404],[-58.41397,6.38413],[-58.41693,6.38516],[-58.41902,6.38625],[-58.42092,6.38863],[-58.42189,6.39048],[-58.42244,6.39247],[-58.42332,6.39721],[-58.42356,6.40424],[-58.42302,6.40769],[-58.42278,6.41156],[-58.42292,6.41331],[-58.42362,6.41487],[-58.42578,6.41689],[-58.42945,6.41969],[-58.43271,6.42273],[-58.43402,6.42442],[-58.43512,6.42696],[-58.43567,6.4338],[-58.43428,6.4404],[-58.43459,6.44132],[-58.43829,6.44542],[-58.43969,6.44812],[-58.44056,6.45252],[-58.44056,6.45549],[-58.43944,6.46213],[-58.43948,6.46469],[-58.43993,6.46803],[-58.44073,6.47118],[-58.44176,6.47425],[-58.4436,6.47877],[-58.44386,6.48168],[-58.44201,6.48514],[-58.44146,6.48781],[-58.44206,6.48994],[-58.44341,6.49326],[-58.44341,6.4959],[-58.44167,6.49738],[-58.44043,6.49816],[-58.43531,6.50079],[-58.43376,6.50225],[-58.43375,6.50226],[-58.43364,6.50237],[-58.43111,6.50565],[-58.43062,6.50707],[-58.43163,6.51329],[-58.43252,6.51527],[-58.43478,6.51749],[-58.43745,6.51894],[-58.43854,6.51983],[-58.43973,6.52197],[-58.44076,6.52497],[-58.44132,6.52821],[-58.4409,6.53263],[-58.43968,6.53777],[-58.43972,6.5385],[-58.4377,6.54312],[-58.43462,6.54722],[-58.43383,6.54804],[-58.43365,6.54824],[-58.43297,6.54868],[-58.43203,6.54936],[-58.43126,6.54981],[-58.43049,6.55007],[-58.42923,6.55105],[-58.42512,6.55243],[-58.42217,6.5541],[-58.4203,6.55542],[-58.42024,6.55552],[-58.42018,6.55554],[-58.41916,6.55673],[-58.41851,6.55764],[-58.41797,6.55894],[-58.41804,6.56044],[-58.41958,6.56321],[-58.42071,6.56445],[-58.42231,6.56518],[-58.42486,6.56475],[-58.42542,6.56435],[-58.43168,6.56291],[-58.43393,6.5633],[-58.43563,6.56421],[-58.43655,6.56533],[-58.43735,6.56722],[-58.43763,6.57086],[-58.43653,6.57577],[-58.43678,6.57877],[-58.43795,6.58311],[-58.43902,6.58548],[-58.43923,6.58702],[-58.43844,6.58883],[-58.43818,6.58915],[-58.43793,6.58938],[-58.43788,6.58944],[-58.43781,6.5895],[-58.43763,6.5897],[-58.43729,6.59007],[-58.43721,6.59016],[-58.43711,6.59027],[-58.43562,6.59113],[-58.43419,6.59121],[-58.43132,6.5919],[-58.43105,6.59207],[-58.43078,6.59224],[-58.43071,6.59228],[-58.42998,6.59335],[-58.42921,6.5957],[-58.42947,6.60321],[-58.42903,6.60849],[-58.42814,6.61157],[-58.42732,6.61282],[-58.42654,6.61595],[-58.42606,6.61676],[-58.42598,6.61686],[-58.42475,6.61837],[-58.42389,6.61895],[-58.42341,6.61924],[-58.42227,6.61976],[-58.41714,6.62084],[-58.41576,6.6217],[-58.41534,6.62206],[-58.4146,6.62277],[-58.41456,6.62281],[-58.41448,6.62289],[-58.41416,6.62323],[-58.41377,6.62368],[-58.41274,6.62573],[-58.41061,6.62827],[-58.40802,6.63342],[-58.40707,6.63786],[-58.40825,6.64281],[-58.40819,6.64487],[-58.40777,6.64718],[-58.40751,6.64778],[-58.4073,6.64801],[-58.40693,6.64843],[-58.40625,6.64898],[-58.40446,6.64964],[-58.40227,6.64993],[-58.39833,6.64946],[-58.3934,6.65074],[-58.39168,6.65164],[-58.38792,6.65408],[-58.38518,6.65521],[-58.3827,6.65536],[-58.37909,6.65494],[-58.37733,6.65437],[-58.37306,6.65447],[-58.37151,6.65487],[-58.37104,6.65522],[-58.37062,6.65561],[-58.3706,6.65564],[-58.37049,6.65573],[-58.36942,6.65724],[-58.36659,6.66352],[-58.3664,6.66381],[-58.36536,6.66508],[-58.36501,6.66548],[-58.36472,6.66581],[-58.36436,6.66614],[-58.36401,6.6664],[-58.36239,6.66742],[-58.35977,6.66805],[-58.35439,6.66656],[-58.35244,6.66687],[-58.34896,6.6684],[-58.348,6.66907],[-58.34737,6.66964],[-58.34733,6.66969],[-58.34725,6.66976],[-58.34694,6.67012],[-58.34641,6.67087],[-58.34546,6.67266],[-58.34334,6.67928],[-58.34127,6.68203],[-58.33972,6.68498],[-58.33932,6.68544],[-58.33874,6.68575],[-58.33865,6.6858],[-58.33853,6.68592],[-58.33852,6.68592],[-58.33808,6.68637],[-58.33699,6.6881],[-58.33613,6.68913],[-58.33554,6.69014],[-58.33528,6.69044],[-58.33472,6.6912],[-58.33455,6.69141],[-58.33402,6.69187],[-58.33377,6.69219],[-58.33244,6.69325],[-58.32972,6.69432],[-58.3267,6.69476],[-58.31915,6.69528],[-58.31335,6.69734],[-58.31072,6.6985],[-58.30861,6.69984],[-58.30703,6.70096],[-58.30695,6.70106],[-58.30691,6.70109],[-58.30596,6.70212],[-58.30543,6.70312],[-58.30544,6.70329],[-58.30547,6.70333],[-58.30564,6.70351],[-58.30575,6.70398],[-58.30362,6.72914],[-58.30329,6.73504],[-58.30288,6.73825],[-58.30171,6.75346],[-58.30165,6.75538],[-58.30098,6.76277],[-58.30023,6.77388],[-58.29847,6.79653],[-58.3057,6.79702],[-58.31774,6.798],[-58.32329,6.79861],[-58.33095,6.79917],[-58.35651,6.8015],[-58.36486,6.80214],[-58.36951,6.80284],[-58.37168,6.80419],[-58.37421,6.80662],[-58.37568,6.81204],[-58.37573,6.8137],[-58.37424,6.81583],[-58.37202,6.82146],[-58.37069,6.82356],[-58.36615,6.82914],[-58.36244,6.83071],[-58.35926,6.82942],[-58.35905,6.83731],[-58.35892,6.84528],[-58.35803,6.84979],[-58.35766,6.85178],[-58.35757,6.85236],[-58.35766,6.85183],[-58.35823,6.84879],[-58.35893,6.84529],[-58.365,6.84605],[-58.37217,6.84676],[-58.37266,6.84677],[-58.37391,6.84682],[-58.37589,6.84713],[-58.37749,6.84726],[-58.38244,6.84768],[-58.38249,6.84769],[-58.38636,6.84808],[-58.3878,6.84798],[-58.38851,6.84749],[-58.38968,6.84686],[-58.3953,6.84717],[-58.3985,6.8474],[-58.39862,6.84729],[-58.40039,6.84578],[-58.40305,6.84372],[-58.40531,6.84193],[-58.42153,6.82928],[-58.42449,6.82714],[-58.42515,6.82542],[-58.4278,6.82419],[-58.42816,6.82469],[-58.43297,6.82885],[-58.44443,6.83888],[-58.44625,6.84037],[-58.44677,6.84091],[-58.44686,6.84099],[-58.44701,6.84068],[-58.44752,6.83965],[-58.44753,6.83964],[-58.44971,6.83875],[-58.45153,6.83736],[-58.45264,6.83708],[-58.45375,6.83597],[-58.45542,6.83597],[-58.45653,6.83542],[-58.45653,6.83431],[-58.45847,6.83347],[-58.46041,6.83153],[-58.46153,6.83125],[-58.46208,6.83014],[-58.46347,6.82875],[-58.46569,6.82708],[-58.46569,6.82597],[-58.46736,6.82458],[-58.46736,6.82375],[-58.46875,6.82292],[-58.47014,6.82125],[-58.47042,6.81986],[-58.47181,6.81819],[-58.47292,6.81625],[-58.47403,6.81542],[-58.47542,6.81292],[-58.47792,6.81097],[-58.4782,6.80986],[-58.48014,6.80875],[-58.48042,6.80792],[-58.48236,6.80708],[-58.48236,6.80653],[-58.48403,6.80486],[-58.48403,6.80403],[-58.48542,6.80292],[-58.48653,6.80097],[-58.48875,6.79931],[-58.48903,6.79819],[-58.49014,6.79708],[-58.4907,6.79569],[-58.49236,6.79403],[-58.49292,6.79264],[-58.49375,6.79208],[-58.49403,6.79097],[-58.49597,6.78792],[-58.49708,6.78695],[-58.49812,6.78385],[-58.49903,6.78347],[-58.50248,6.77363],[-58.50358,6.772],[-58.50348,6.77072],[-58.50431,6.76903],[-58.50433,6.76701],[-58.50491,6.76178],[-58.50625,6.75736],[-58.50612,6.75624],[-58.50681,6.75542],[-58.50819,6.75153],[-58.50983,6.7507],[-58.51347,6.74708],[-58.51569,6.74458],[-58.51764,6.7432],[-58.51792,6.74208],[-58.51931,6.74097],[-58.52042,6.73903],[-58.52153,6.73792],[-58.52153,6.73708],[-58.52347,6.73514],[-58.52347,6.7343],[-58.52486,6.73264],[-58.52597,6.72958],[-58.52681,6.72875],[-58.52819,6.72458],[-58.52875,6.72403],[-58.5293,6.72208],[-58.53097,6.71903],[-58.53153,6.71875],[-58.53264,6.71569],[-58.53431,6.71292],[-58.53569,6.70958],[-58.53903,6.70625],[-58.54125,6.70486],[-58.54208,6.70375],[-58.54403,6.70264],[-58.5443,6.70153],[-58.54653,6.69931],[-58.54736,6.69736],[-58.54847,6.69597],[-58.5493,6.69569],[-58.54958,6.69458],[-58.55069,6.69319],[-58.55153,6.69292],[-58.55236,6.69097],[-58.55486,6.68875],[-58.55625,6.68542],[-58.5568,6.68542],[-58.55736,6.6832],[-58.55847,6.68292],[-58.55931,6.68097],[-58.55931,6.67958],[-58.56014,6.67903],[-58.56014,6.67792],[-58.56097,6.67625],[-58.56097,6.67458],[-58.56153,6.67319],[-58.56153,6.67153],[-58.56292,6.66819],[-58.56347,6.66764],[-58.5643,6.66486],[-58.5643,6.6632],[-58.56514,6.66208],[-58.56569,6.66042],[-58.56569,6.65875],[-58.56625,6.65653],[-58.56681,6.65569],[-58.56681,6.65375],[-58.56764,6.65264],[-58.56764,6.65153],[-58.56847,6.65069],[-58.56847,6.64875],[-58.56931,6.64764],[-58.56958,6.64514],[-58.57069,6.64236],[-58.57097,6.63986],[-58.57097,6.63681],[-58.5718,6.63375],[-58.5718,6.63236],[-58.57236,6.63153],[-58.57236,6.62792],[-58.57319,6.62708],[-58.57319,6.61792],[-58.57347,6.61792],[-58.57347,6.61431],[-58.57319,6.61125],[-58.57375,6.61097],[-58.57375,6.5982],[-58.57403,6.5982],[-58.57403,6.59236],[-58.57375,6.59236],[-58.57375,6.58542],[-58.57431,6.58125],[-58.57514,6.57875],[-58.57764,6.57458],[-58.57764,6.57264],[-58.57819,6.57181],[-58.57986,6.57069],[-58.5807,6.56792],[-58.5807,6.56625],[-58.58014,6.56542],[-58.58014,6.56403],[-58.5793,6.56208],[-58.57903,6.55875],[-58.58042,6.55736],[-58.58097,6.55569],[-58.58208,6.55486],[-58.58208,6.55347],[-58.58347,6.55208],[-58.58347,6.55042],[-58.58403,6.54903],[-58.58403,6.54375],[-58.58375,6.54208],[-58.58292,6.54014],[-58.58292,6.53875],[-58.58236,6.53764],[-58.58208,6.53569],[-58.58042,6.53347],[-58.58014,6.53153],[-58.57903,6.53042],[-58.57903,6.52931],[-58.57792,6.52792],[-58.57764,6.5268],[-58.57764,6.52375],[-58.57708,6.52375],[-58.57653,6.51986],[-58.57597,6.51931],[-58.57597,6.51625],[-58.57542,6.51542],[-58.5757,6.51403],[-58.5757,6.50792],[-58.57625,6.50569],[-58.57681,6.50542],[-58.57764,6.50181],[-58.57819,6.50042],[-58.57986,6.49875],[-58.58153,6.49792],[-58.58153,6.49625],[-58.5807,6.4957],[-58.58042,6.4932],[-58.58208,6.48958],[-58.58264,6.48958],[-58.58319,6.48764],[-58.5843,6.48625],[-58.58541,6.48597],[-58.58625,6.48486],[-58.58625,6.48319],[-58.58031,6.47615],[-58.55922,6.46429],[-58.54986,6.44153],[-58.54712,6.42921],[-58.54446,6.41343],[-58.54373,6.39879],[-58.54121,6.3929],[-58.53912,6.38713],[-58.53747,6.38312],[-58.53469,6.37897],[-58.5301,6.3727],[-58.52743,6.37088],[-58.52321,6.36772],[-58.51774,6.36386],[-58.50443,6.35377],[-58.49244,6.34785],[-58.48992,6.34669],[-58.48512,6.34414],[-58.48248,6.34302],[-58.47032,6.33939],[-58.44787,6.32217],[-58.44452,6.31966],[-58.43884,6.31138],[-58.43233,6.30205],[-58.42645,6.28987],[-58.4227,6.2819],[-58.42002,6.28545],[-58.41817,6.28784]]],[[[-58.58292,6.56319],[-58.58375,6.56319],[-58.58541,6.56069],[-58.58597,6.55708],[-58.58486,6.55653],[-58.58375,6.55792],[-58.58208,6.55931],[-58.58264,6.56069],[-58.58292,6.56319]]],[[[-58.5182,6.95625],[-58.52236,6.95625],[-58.52375,6.9557],[-58.52486,6.95292],[-58.52486,6.9507],[-58.52542,6.94986],[-58.5257,6.94736],[-58.52653,6.94569],[-58.52542,6.94569],[-58.52291,6.94764],[-58.52291,6.94819],[-58.52125,6.94875],[-58.52125,6.94931],[-58.51792,6.95181],[-58.51569,6.95403],[-58.51597,6.95542],[-58.51736,6.95542],[-58.5182,6.95625]]],[[[-58.52681,6.95431],[-58.53069,6.95403],[-58.5332,6.95292],[-58.53403,6.95153],[-58.53653,6.94958],[-58.53653,6.94903],[-58.53931,6.94653],[-58.53959,6.94542],[-58.5407,6.9443],[-58.54181,6.94236],[-58.54347,6.94069],[-58.54514,6.93708],[-58.54625,6.93625],[-58.54625,6.93514],[-58.54708,6.93292],[-58.54875,6.92958],[-58.55014,6.92764],[-58.55014,6.92653],[-58.55097,6.92597],[-58.55069,6.92514],[-58.55153,6.92292],[-58.5532,6.92125],[-58.55375,6.91903],[-58.55431,6.91875],[-58.55431,6.91708],[-58.55486,6.91625],[-58.55486,6.91458],[-58.55347,6.91458],[-58.55153,6.91681],[-58.55097,6.91847],[-58.55014,6.91903],[-58.54708,6.92319],[-58.54597,6.92403],[-58.54542,6.92569],[-58.54458,6.92625],[-58.54347,6.92875],[-58.54292,6.92875],[-58.54125,6.93181],[-58.53903,6.93375],[-58.53597,6.93736],[-58.53486,6.93931],[-58.53431,6.93931],[-58.53125,6.94236],[-58.53042,6.94347],[-58.5293,6.94403],[-58.52875,6.94542],[-58.52764,6.94681],[-58.52736,6.94931],[-58.52625,6.95153],[-58.52625,6.95292],[-58.52681,6.95431]]],[[[-58.51292,6.94708],[-58.51569,6.94708],[-58.51708,6.94681],[-58.51931,6.94514],[-58.52014,6.94375],[-58.52125,6.94292],[-58.5218,6.94069],[-58.52069,6.94042],[-58.518,6.94153],[-58.51764,6.94208],[-58.51569,6.94236],[-58.51375,6.94347],[-58.51236,6.94524],[-58.51292,6.94708]]],[[[-58.50375,6.94292],[-58.50514,6.94292],[-58.50542,6.94236],[-58.51125,6.94125],[-58.51236,6.94069],[-58.51403,6.94069],[-58.51458,6.94014],[-58.51792,6.93931],[-58.52042,6.93764],[-58.52153,6.93736],[-58.52403,6.93458],[-58.52486,6.93431],[-58.52514,6.93319],[-58.52792,6.92986],[-58.5293,6.92931],[-58.53069,6.92736],[-58.53153,6.92708],[-58.53403,6.92403],[-58.53514,6.92347],[-58.53542,6.92236],[-58.53903,6.91903],[-58.53959,6.91792],[-58.54208,6.91597],[-58.54597,6.91069],[-58.54736,6.90986],[-58.54736,6.90875],[-58.54847,6.90625],[-58.54958,6.90458],[-58.55042,6.90125],[-58.55097,6.90125],[-58.55208,6.89847],[-58.55236,6.89653],[-58.55292,6.89597],[-58.5532,6.89375],[-58.55431,6.89014],[-58.55514,6.88931],[-58.55597,6.88681],[-58.5568,6.88264],[-58.55736,6.88208],[-58.55847,6.87819],[-58.55903,6.87792],[-58.55903,6.87625],[-58.55986,6.87542],[-58.56014,6.8732],[-58.5607,6.87236],[-58.5607,6.87097],[-58.56153,6.8682],[-58.56236,6.86736],[-58.56236,6.86569],[-58.5643,6.86208],[-58.5643,6.86069],[-58.56486,6.86042],[-58.56625,6.85708],[-58.56792,6.85458],[-58.56875,6.85153],[-58.56931,6.85097],[-58.56931,6.84958],[-58.56986,6.84903],[-58.56986,6.84764],[-58.57042,6.84736],[-58.57069,6.84403],[-58.56931,6.84431],[-58.56764,6.84597],[-58.56681,6.84597],[-58.56486,6.84792],[-58.56403,6.84986],[-58.56264,6.85125],[-58.56264,6.85236],[-58.56097,6.85569],[-58.5607,6.85792],[-58.55958,6.85931],[-58.55931,6.86097],[-58.55819,6.86181],[-58.55764,6.86375],[-58.5568,6.86458],[-58.55653,6.86653],[-58.55514,6.86736],[-58.55458,6.86903],[-58.55403,6.86903],[-58.55097,6.87347],[-58.54903,6.87486],[-58.54764,6.8768],[-58.54708,6.87819],[-58.54514,6.88014],[-58.54514,6.88153],[-58.54347,6.88264],[-58.54264,6.88375],[-58.54181,6.88597],[-58.54181,6.88708],[-58.54014,6.88847],[-58.54014,6.89014],[-58.53931,6.89097],[-58.53931,6.89236],[-58.53847,6.89264],[-58.53708,6.89458],[-58.53542,6.89597],[-58.53514,6.89736],[-58.53403,6.89819],[-58.5332,6.89986],[-58.53264,6.89986],[-58.53042,6.90292],[-58.52875,6.9043],[-58.52819,6.9043],[-58.52736,6.90569],[-58.52458,6.90764],[-58.52236,6.91042],[-58.52125,6.91069],[-58.51875,6.91403],[-58.51514,6.91736],[-58.51514,6.91819],[-58.51375,6.91875],[-58.51375,6.91958],[-58.51264,6.92014],[-58.51153,6.92264],[-58.50958,6.92597],[-58.50875,6.92653],[-58.50875,6.92764],[-58.50708,6.93097],[-58.50708,6.93319],[-58.50625,6.93403],[-58.50625,6.93542],[-58.50514,6.93681],[-58.50514,6.93875],[-58.50347,6.94125],[-58.50375,6.94292]]],[[[-58.54486,6.78236],[-58.54319,6.78347],[-58.54097,6.78597],[-58.53875,6.78736],[-58.53819,6.78847],[-58.53736,6.78875],[-58.53708,6.78986],[-58.53625,6.79014],[-58.53347,6.79319],[-58.53292,6.79319],[-58.53097,6.79542],[-58.53069,6.79708],[-58.52764,6.80042],[-58.52764,6.80208],[-58.52625,6.80292],[-58.52542,6.80597],[-58.52375,6.80736],[-58.52375,6.80903],[-58.52208,6.81014],[-58.52097,6.81236],[-58.52014,6.81264],[-58.51986,6.81486],[-58.51875,6.81514],[-58.51792,6.81708],[-58.5168,6.81847],[-58.51486,6.82014],[-58.51514,6.82208],[-58.51403,6.82264],[-58.51375,6.82347],[-58.51236,6.82458],[-58.51208,6.82542],[-58.51069,6.82653],[-58.51097,6.82792],[-58.5093,6.82903],[-58.5093,6.82986],[-58.50819,6.83097],[-58.50708,6.83403],[-58.50625,6.83431],[-58.50597,6.83597],[-58.50486,6.83653],[-58.50514,6.83764],[-58.50514,6.84042],[-58.50375,6.8418],[-58.50375,6.84375],[-58.50319,6.84431],[-58.50292,6.84625],[-58.50208,6.84681],[-58.50264,6.84792],[-58.50236,6.84903],[-58.50125,6.8507],[-58.50014,6.85125],[-58.49958,6.85292],[-58.49903,6.85292],[-58.49736,6.85569],[-58.49542,6.85681],[-58.49319,6.85847],[-58.49264,6.85931],[-58.49208,6.86153],[-58.49153,6.86153],[-58.49097,6.86458],[-58.48819,6.86708],[-58.48792,6.8682],[-58.48708,6.8682],[-58.48458,6.87125],[-58.48264,6.87208],[-58.48125,6.87375],[-58.48069,6.87375],[-58.47958,6.87597],[-58.47958,6.88069],[-58.48014,6.88153],[-58.48014,6.88347],[-58.48069,6.88403],[-58.48069,6.88542],[-58.48208,6.88681],[-58.48264,6.88847],[-58.48403,6.89014],[-58.48514,6.89069],[-58.4868,6.89069],[-58.48764,6.89125],[-58.49181,6.89125],[-58.49292,6.89014],[-58.49736,6.88931],[-58.49792,6.88875],[-58.49986,6.88875],[-58.50014,6.88819],[-58.5018,6.88819],[-58.50208,6.88736],[-58.50458,6.88708],[-58.5093,6.88708],[-58.5093,6.88681],[-58.51208,6.88681],[-58.51347,6.88597],[-58.51653,6.88597],[-58.5168,6.88542],[-58.5182,6.88542],[-58.51875,6.88486],[-58.52097,6.88431],[-58.52125,6.88375],[-58.52597,6.88181],[-58.52736,6.87986],[-58.52958,6.87792],[-58.53014,6.87653],[-58.53125,6.87625],[-58.53125,6.87542],[-58.53236,6.87403],[-58.53347,6.87347],[-58.53431,6.87181],[-58.53569,6.87097],[-58.5368,6.86875],[-58.53903,6.86542],[-58.54042,6.86403],[-58.5407,6.86264],[-58.54153,6.86236],[-58.54153,6.86125],[-58.54292,6.85875],[-58.54292,6.85708],[-58.54375,6.85431],[-58.54375,6.84986],[-58.54347,6.84986],[-58.54347,6.84625],[-58.54319,6.84625],[-58.54319,6.83736],[-58.54347,6.83514],[-58.54403,6.83403],[-58.54403,6.83264],[-58.54458,6.83042],[-58.54514,6.82958],[-58.5457,6.82597],[-58.54625,6.82542],[-58.54625,6.82403],[-58.54708,6.82292],[-58.54736,6.82125],[-58.54792,6.82125],[-58.54792,6.81986],[-58.54903,6.81764],[-58.5493,6.81569],[-58.55014,6.81486],[-58.55042,6.81347],[-58.55153,6.81292],[-58.55208,6.81097],[-58.55347,6.80986],[-58.55375,6.80819],[-58.55486,6.80736],[-58.55514,6.80625],[-58.55625,6.80542],[-58.5568,6.80375],[-58.55847,6.80153],[-58.55847,6.80042],[-58.56042,6.79792],[-58.56153,6.79736],[-58.56153,6.79625],[-58.56319,6.79486],[-58.56403,6.79347],[-58.5643,6.79153],[-58.56542,6.78986],[-58.56542,6.77347],[-58.56514,6.77347],[-58.56514,6.76597],[-58.56486,6.76597],[-58.56486,6.76042],[-58.56514,6.76042],[-58.56514,6.75597],[-58.56625,6.75236],[-58.56681,6.75208],[-58.56681,6.74931],[-58.56792,6.74708],[-58.56792,6.74431],[-58.56847,6.74208],[-58.56847,6.73958],[-58.56792,6.73736],[-58.56792,6.73125],[-58.56847,6.72931],[-58.56847,6.72681],[-58.56903,6.72569],[-58.56931,6.72236],[-58.56986,6.72181],[-58.57069,6.71764],[-58.57125,6.71681],[-58.57125,6.7143],[-58.56986,6.7143],[-58.56875,6.71597],[-58.56792,6.71903],[-58.56708,6.71958],[-58.56625,6.72153],[-58.56625,6.72292],[-58.56569,6.72319],[-58.56486,6.72625],[-58.56375,6.72875],[-58.56375,6.73014],[-58.56236,6.73208],[-58.56236,6.73375],[-58.5607,6.73708],[-58.5607,6.73875],[-58.55986,6.73958],[-58.55986,6.74069],[-58.55875,6.74208],[-58.55847,6.74431],[-58.55764,6.74514],[-58.55736,6.74736],[-58.55542,6.74986],[-58.55431,6.75431],[-58.55375,6.75486],[-58.55375,6.75736],[-58.55264,6.76069],[-58.55264,6.76236],[-58.55208,6.7632],[-58.55208,6.76514],[-58.55153,6.7657],[-58.55153,6.76764],[-58.55097,6.76931],[-58.54958,6.77181],[-58.54875,6.77597],[-58.54819,6.77625],[-58.54681,6.78014],[-58.54625,6.78042],[-58.5457,6.78208],[-58.54486,6.78236]]],[[[-58.55597,6.85847],[-58.55764,6.85819],[-58.55847,6.85736],[-58.55875,6.85542],[-58.56014,6.85319],[-58.56014,6.85208],[-58.56097,6.85125],[-58.56125,6.84958],[-58.56181,6.84958],[-58.56264,6.84764],[-58.56347,6.84736],[-58.56375,6.84625],[-58.56542,6.84486],[-58.56569,6.84403],[-58.56681,6.84347],[-58.56792,6.84125],[-58.57069,6.83792],[-58.57153,6.83736],[-58.5718,6.83597],[-58.57347,6.83458],[-58.57347,6.83292],[-58.57403,6.83264],[-58.57431,6.83042],[-58.57486,6.83014],[-58.57514,6.82819],[-58.57597,6.82681],[-58.57597,6.82542],[-58.57653,6.82375],[-58.57708,6.82347],[-58.57708,6.82153],[-58.57792,6.82069],[-58.57792,6.81569],[-58.57681,6.81486],[-58.57542,6.81653],[-58.57486,6.81847],[-58.57403,6.81903],[-58.57292,6.82208],[-58.5718,6.82347],[-58.57097,6.82625],[-58.56958,6.82792],[-58.56958,6.82903],[-58.56875,6.83014],[-58.56792,6.83319],[-58.56625,6.83486],[-58.56625,6.83653],[-58.56514,6.83708],[-58.56514,6.83847],[-58.56347,6.84069],[-58.56292,6.84264],[-58.56153,6.84375],[-58.56125,6.84514],[-58.5607,6.84514],[-58.56042,6.84653],[-58.55847,6.84847],[-58.55819,6.85042],[-58.55736,6.85097],[-58.55708,6.85236],[-58.55542,6.85597],[-58.55542,6.85764],[-58.55597,6.85847]]],[[[-58.54903,6.84736],[-58.55042,6.84736],[-58.55069,6.84681],[-58.5532,6.84486],[-58.55375,6.84375],[-58.55486,6.84347],[-58.55514,6.84153],[-58.55569,6.84153],[-58.55625,6.83958],[-58.55708,6.83903],[-58.55764,6.83708],[-58.55875,6.83597],[-58.55875,6.83458],[-58.56042,6.83236],[-58.56153,6.82875],[-58.56208,6.82847],[-58.56264,6.82653],[-58.56375,6.82486],[-58.5643,6.82242],[-58.56597,6.82014],[-58.56597,6.81903],[-58.56681,6.81792],[-58.56708,6.81597],[-58.56792,6.81514],[-58.56875,6.8132],[-58.56875,6.81181],[-58.56958,6.81153],[-58.56958,6.80819],[-58.57042,6.80681],[-58.57069,6.80236],[-58.56986,6.80014],[-58.56986,6.79875],[-58.56875,6.79736],[-58.56792,6.79736],[-58.56736,6.79875],[-58.56625,6.79931],[-58.56514,6.80208],[-58.5643,6.80236],[-58.5643,6.80375],[-58.56208,6.80542],[-58.56014,6.80764],[-58.55903,6.80931],[-58.55847,6.80931],[-58.55792,6.8107],[-58.55597,6.81264],[-58.55514,6.81403],[-58.55486,6.81542],[-58.55403,6.81625],[-58.55375,6.81875],[-58.55208,6.82181],[-58.55208,6.82347],[-58.55125,6.82514],[-58.55125,6.82764],[-58.54986,6.82931],[-58.54986,6.83292],[-58.54903,6.83375],[-58.54875,6.83625],[-58.54792,6.83875],[-58.54792,6.84375],[-58.54847,6.84514],[-58.54847,6.84681],[-58.54903,6.84736]]],[[[-58.58319,6.81097],[-58.58292,6.81347],[-58.58347,6.81347],[-58.58458,6.81153],[-58.58486,6.80986],[-58.58541,6.80986],[-58.58569,6.80792],[-58.58653,6.80764],[-58.58708,6.80458],[-58.58792,6.80403],[-58.5882,6.80236],[-58.5882,6.79569],[-58.58792,6.79403],[-58.58514,6.79403],[-58.58458,6.79486],[-58.58458,6.79625],[-58.58403,6.79708],[-58.58375,6.79903],[-58.58375,6.80236],[-58.58347,6.80236],[-58.58347,6.80542],[-58.58319,6.80542],[-58.58319,6.81097]]],[[[-58.5757,6.80292],[-58.57681,6.80236],[-58.57764,6.80042],[-58.57819,6.79653],[-58.57958,6.79403],[-58.57958,6.79208],[-58.58097,6.78903],[-58.58097,6.78736],[-58.58153,6.78625],[-58.58153,6.78347],[-58.58208,6.78181],[-58.58208,6.77847],[-58.58264,6.77764],[-58.58236,6.77625],[-58.58236,6.77153],[-58.58208,6.77153],[-58.58208,6.76875],[-58.58153,6.76514],[-58.58042,6.76375],[-58.58042,6.76264],[-58.57958,6.76153],[-58.58014,6.76097],[-58.5793,6.76014],[-58.57847,6.75597],[-58.57792,6.75569],[-58.57708,6.75264],[-58.57542,6.75236],[-58.57486,6.75347],[-58.57486,6.75486],[-58.57403,6.75708],[-58.57403,6.75903],[-58.57347,6.76042],[-58.57347,6.7632],[-58.57319,6.7632],[-58.57319,6.76625],[-58.57292,6.76625],[-58.57292,6.77069],[-58.57264,6.77069],[-58.57264,6.77486],[-58.57236,6.77486],[-58.57236,6.77764],[-58.57208,6.77764],[-58.57208,6.78319],[-58.57236,6.78319],[-58.57236,6.78708],[-58.57264,6.78708],[-58.57264,6.79208],[-58.57292,6.79458],[-58.57347,6.79569],[-58.57347,6.79708],[-58.57542,6.80125],[-58.5757,6.80292]]],[[[-58.54458,6.74653],[-58.54542,6.74569],[-58.54597,6.74347],[-58.54653,6.7432],[-58.54708,6.74125],[-58.54764,6.74097],[-58.54764,6.73931],[-58.54819,6.73764],[-58.54875,6.73736],[-58.5493,6.73542],[-58.55042,6.7343],[-58.55097,6.73292],[-58.55097,6.73125],[-58.55292,6.72792],[-58.55347,6.72569],[-58.55431,6.72486],[-58.55486,6.72181],[-58.55375,6.72153],[-58.55264,6.72347],[-58.55153,6.72375],[-58.55125,6.72486],[-58.5493,6.72653],[-58.54847,6.72847],[-58.54792,6.72847],[-58.54708,6.73042],[-58.54653,6.73069],[-58.54625,6.73236],[-58.54486,6.73319],[-58.54458,6.73458],[-58.54347,6.73597],[-58.54097,6.73819],[-58.53931,6.74153],[-58.53792,6.74208],[-58.53708,6.74431],[-58.53597,6.74514],[-58.53486,6.74514],[-58.53486,6.74597],[-58.53292,6.74764],[-58.53069,6.75097],[-58.53069,6.75153],[-58.52903,6.75292],[-58.52903,6.75347],[-58.52764,6.75458],[-58.52764,6.75542],[-58.52542,6.75792],[-58.52486,6.75958],[-58.52375,6.76069],[-58.52153,6.76431],[-58.52153,6.76514],[-58.52014,6.76681],[-58.52014,6.76764],[-58.51875,6.76903],[-58.5182,6.77014],[-58.51708,6.77097],[-58.51514,6.77403],[-58.51375,6.77431],[-58.5132,6.77569],[-58.51264,6.77569],[-58.51208,6.77708],[-58.51097,6.77764],[-58.50958,6.77931],[-58.50875,6.78125],[-58.50819,6.78125],[-58.50736,6.78319],[-58.50625,6.78431],[-58.50625,6.78736],[-58.50542,6.78903],[-58.50542,6.79264],[-58.50597,6.79375],[-58.51181,6.79375],[-58.51403,6.7918],[-58.51542,6.78847],[-58.51625,6.78736],[-58.51597,6.78681],[-58.5168,6.7857],[-58.5168,6.78431],[-58.51764,6.78264],[-58.51903,6.78097],[-58.51903,6.77931],[-58.52097,6.77681],[-58.52319,6.77264],[-58.52431,6.77181],[-58.52542,6.76931],[-58.52819,6.76625],[-58.52819,6.76514],[-58.5293,6.76486],[-58.52986,6.7632],[-58.53097,6.76153],[-58.53181,6.76097],[-58.5332,6.75792],[-58.53542,6.75542],[-58.53653,6.75347],[-58.53708,6.75347],[-58.53736,6.75125],[-58.54042,6.75097],[-58.54181,6.74986],[-58.54347,6.74792],[-58.54403,6.74792],[-58.54458,6.74653]]],[[[-58.59403,6.79264],[-58.5957,6.79208],[-58.59597,6.79125],[-58.59736,6.79014],[-58.59903,6.7882],[-58.59986,6.78653],[-58.59986,6.78125],[-58.59958,6.77958],[-58.59847,6.77653],[-58.59819,6.77347],[-58.59764,6.77292],[-58.59764,6.77069],[-58.59708,6.77042],[-58.59708,6.7682],[-58.59625,6.76514],[-58.59597,6.76292],[-58.59514,6.76125],[-58.59486,6.75792],[-58.59431,6.75625],[-58.59431,6.75208],[-58.59375,6.75125],[-58.5918,6.75208],[-58.59125,6.75375],[-58.59125,6.75514],[-58.59069,6.75569],[-58.59069,6.75736],[-58.59014,6.75764],[-58.58958,6.75931],[-58.58958,6.76347],[-58.58875,6.76514],[-58.58875,6.77042],[-58.58903,6.77292],[-58.58986,6.77514],[-58.58986,6.77847],[-58.59042,6.77986],[-58.59069,6.78431],[-58.59125,6.78458],[-58.59125,6.78736],[-58.59208,6.7882],[-58.59236,6.79042],[-58.59292,6.7907],[-58.59347,6.79236],[-58.59403,6.79264]]],[[[-58.53069,6.77736],[-58.52986,6.77819],[-58.52958,6.78014],[-58.53208,6.78014],[-58.5332,6.77958],[-58.53292,6.77542],[-58.53208,6.77514],[-58.53097,6.77625],[-58.53069,6.77736]]],[[[-58.53569,6.77764],[-58.53708,6.77708],[-58.54042,6.77681],[-58.54125,6.77458],[-58.54125,6.77319],[-58.54264,6.77181],[-58.54347,6.76847],[-58.5443,6.76681],[-58.54486,6.76403],[-58.54542,6.76403],[-58.54597,6.76236],[-58.54625,6.75986],[-58.54681,6.75958],[-58.54681,6.75819],[-58.54736,6.75764],[-58.54736,6.75542],[-58.54458,6.75653],[-58.54403,6.75819],[-58.54153,6.76069],[-58.5407,6.76236],[-58.53875,6.76458],[-58.53819,6.76653],[-58.5368,6.76764],[-58.53625,6.76986],[-58.53514,6.77292],[-58.53486,6.77708],[-58.53569,6.77764]]],[[[-58.51431,6.76542],[-58.51542,6.76542],[-58.51764,6.76375],[-58.5182,6.76181],[-58.5182,6.75903],[-58.51875,6.75764],[-58.5168,6.75819],[-58.51486,6.75958],[-58.51458,6.76125],[-58.51347,6.76181],[-58.51292,6.7632],[-58.5132,6.76486],[-58.51431,6.76542]]],[[[-58.58347,6.75903],[-58.5843,6.75903],[-58.58458,6.75764],[-58.58458,6.75181],[-58.58541,6.75069],[-58.58597,6.74653],[-58.58653,6.74653],[-58.58681,6.74431],[-58.58681,6.74125],[-58.58569,6.74125],[-58.58514,6.74236],[-58.58375,6.74347],[-58.58264,6.74375],[-58.58208,6.74514],[-58.5807,6.74681],[-58.5807,6.74958],[-58.58042,6.75069],[-58.58153,6.75319],[-58.58153,6.75597],[-58.58181,6.75764],[-58.58347,6.75903]]],[[[-58.51153,6.75875],[-58.5132,6.75792],[-58.51764,6.75375],[-58.5182,6.75375],[-58.51931,6.75236],[-58.51986,6.75236],[-58.52069,6.75069],[-58.52431,6.74708],[-58.52653,6.74375],[-58.52736,6.7432],[-58.52819,6.73958],[-58.52875,6.73847],[-58.52875,6.73708],[-58.52542,6.73986],[-58.52264,6.74153],[-58.52236,6.74264],[-58.52097,6.74347],[-58.52097,6.74403],[-58.51903,6.74542],[-58.51903,6.74597],[-58.51736,6.74708],[-58.51736,6.74764],[-58.51597,6.74819],[-58.51569,6.74903],[-58.51292,6.74986],[-58.51208,6.75125],[-58.51069,6.75208],[-58.51042,6.75347],[-58.51042,6.75708],[-58.51153,6.75875]]],[[[-58.58903,6.75042],[-58.58986,6.75042],[-58.59069,6.74847],[-58.59208,6.74736],[-58.59292,6.74569],[-58.59292,6.74181],[-58.59208,6.74153],[-58.58986,6.7432],[-58.58903,6.74514],[-58.58875,6.74681],[-58.58903,6.75042]]],[[[-58.58986,6.73875],[-58.58958,6.73875],[-58.58958,6.74208],[-58.59069,6.74181],[-58.59153,6.74042],[-58.59264,6.73986],[-58.59264,6.73347],[-58.59153,6.73347],[-58.59125,6.73486],[-58.59042,6.73569],[-58.59042,6.73847],[-58.58986,6.73875]]],[[[-58.57625,6.74069],[-58.57764,6.73958],[-58.57764,6.73764],[-58.57847,6.73597],[-58.57847,6.73375],[-58.57958,6.73153],[-58.5793,6.72958],[-58.57986,6.72931],[-58.57986,6.72625],[-58.5807,6.72486],[-58.5807,6.72042],[-58.58125,6.71792],[-58.5807,6.71764],[-58.5807,6.71569],[-58.57903,6.71597],[-58.57681,6.71958],[-58.57681,6.72069],[-58.57514,6.72403],[-58.57514,6.72542],[-58.57431,6.72681],[-58.57431,6.72958],[-58.57403,6.7318],[-58.57486,6.73569],[-58.5757,6.73736],[-58.57625,6.74069]]],[[[-58.55542,6.70153],[-58.55431,6.7032],[-58.55431,6.70403],[-58.55292,6.7057],[-58.55181,6.7082],[-58.55125,6.70847],[-58.5493,6.71236],[-58.5493,6.71319],[-58.54764,6.71486],[-58.54764,6.71653],[-58.54708,6.71792],[-58.54708,6.72069],[-58.54486,6.72375],[-58.54458,6.72514],[-58.54347,6.72625],[-58.54347,6.72708],[-58.54125,6.72931],[-58.54042,6.73097],[-58.53931,6.73458],[-58.53875,6.73486],[-58.53819,6.73792],[-58.53903,6.73792],[-58.54014,6.73597],[-58.54236,6.7343],[-58.54319,6.73264],[-58.54542,6.72986],[-58.54681,6.72847],[-58.54736,6.72708],[-58.55014,6.72375],[-58.55181,6.72236],[-58.55292,6.72069],[-58.55431,6.71986],[-58.55653,6.71486],[-58.5568,6.71292],[-58.5568,6.70986],[-58.55792,6.70764],[-58.55792,6.70625],[-58.55875,6.70403],[-58.55875,6.70125],[-58.55847,6.70042],[-58.55653,6.70042],[-58.55542,6.70153]]],[[[-58.52542,6.73542],[-58.52514,6.73653],[-58.52653,6.73625],[-58.52764,6.73458],[-58.52875,6.73375],[-58.53069,6.73153],[-58.53069,6.73042],[-58.5332,6.72792],[-58.5332,6.72681],[-58.53431,6.72514],[-58.53514,6.72458],[-58.53569,6.72319],[-58.53653,6.72264],[-58.5368,6.72125],[-58.53792,6.72069],[-58.53819,6.71903],[-58.53875,6.71875],[-58.53931,6.71625],[-58.54042,6.71486],[-58.54042,6.71347],[-58.54097,6.71236],[-58.54208,6.71153],[-58.54208,6.71014],[-58.54292,6.70847],[-58.54375,6.70792],[-58.54403,6.70542],[-58.54292,6.70542],[-58.54153,6.70625],[-58.54153,6.70681],[-58.54014,6.70708],[-58.53959,6.7082],[-58.53792,6.70903],[-58.53764,6.71014],[-58.53625,6.71153],[-58.53597,6.71347],[-58.53542,6.71375],[-58.53431,6.71597],[-58.53347,6.71847],[-58.53208,6.71986],[-58.53181,6.72153],[-58.53097,6.72208],[-58.53069,6.72347],[-58.52958,6.72514],[-58.52958,6.72625],[-58.52847,6.72792],[-58.52847,6.72931],[-58.52764,6.73042],[-58.52708,6.73208],[-58.52514,6.73486],[-58.52542,6.73542]]],[[[-58.58208,6.73125],[-58.58292,6.73125],[-58.58403,6.72819],[-58.58653,6.72486],[-58.58653,6.72347],[-58.58708,6.72264],[-58.58736,6.72069],[-58.58736,6.71792],[-58.58708,6.71625],[-58.58569,6.71569],[-58.58486,6.71681],[-58.58458,6.71847],[-58.58403,6.71903],[-58.58375,6.72097],[-58.58208,6.72486],[-58.58208,6.73125]]],[[[-58.5918,6.71792],[-58.59264,6.71792],[-58.59403,6.71542],[-58.59403,6.71264],[-58.59431,6.7118],[-58.59431,6.70792],[-58.59458,6.70681],[-58.59375,6.70542],[-58.59236,6.70542],[-58.5918,6.70736],[-58.5918,6.70903],[-58.59125,6.70958],[-58.59125,6.71681],[-58.5918,6.71792]]],[[[-58.60153,6.70375],[-58.60292,6.7032],[-58.60347,6.70208],[-58.60347,6.70042],[-58.60486,6.69847],[-58.60542,6.69708],[-58.60514,6.69597],[-58.60514,6.6893],[-58.60569,6.68736],[-58.60625,6.6868],[-58.60653,6.68375],[-58.60764,6.6807],[-58.60764,6.67847],[-58.60708,6.67819],[-58.60653,6.68042],[-58.60458,6.6832],[-58.60403,6.6832],[-58.60236,6.68458],[-58.60097,6.68792],[-58.60097,6.69569],[-58.60069,6.69569],[-58.60069,6.69931],[-58.60125,6.69986],[-58.60125,6.7032],[-58.60153,6.70375]]],[[[-58.59431,6.7032],[-58.59542,6.70125],[-58.59542,6.70014],[-58.59458,6.70014],[-58.59403,6.70181],[-58.59431,6.7032]]],[[[-58.57875,6.67319],[-58.57986,6.67264],[-58.5807,6.67042],[-58.58097,6.66819],[-58.57903,6.66736],[-58.57903,6.66958],[-58.57819,6.67042],[-58.57875,6.67319]]],[[[-58.58125,6.66736],[-58.58319,6.66653],[-58.58403,6.66403],[-58.58403,6.65958],[-58.5843,6.65708],[-58.58541,6.65403],[-58.58764,6.65042],[-58.5882,6.64875],[-58.5882,6.64681],[-58.58708,6.64292],[-58.58569,6.64042],[-58.58569,6.63931],[-58.58458,6.63708],[-58.58319,6.63708],[-58.58153,6.63986],[-58.57958,6.64514],[-58.57958,6.64736],[-58.57903,6.64819],[-58.57847,6.6518],[-58.57847,6.65625],[-58.5793,6.65792],[-58.57958,6.66014],[-58.58014,6.66097],[-58.5807,6.6632],[-58.5807,6.66597],[-58.58125,6.66736]]],[[[-58.58875,6.6493],[-58.5882,6.65097],[-58.58708,6.65264],[-58.58569,6.65569],[-58.58569,6.65764],[-58.58653,6.65764],[-58.58708,6.65542],[-58.5882,6.65403],[-58.58847,6.65208],[-58.58986,6.65014],[-58.59069,6.64792],[-58.59125,6.64764],[-58.5918,6.64569],[-58.59153,6.64347],[-58.59153,6.63819],[-58.59069,6.63597],[-58.59069,6.63347],[-58.58875,6.62958],[-58.58681,6.62986],[-58.58541,6.63153],[-58.58514,6.63625],[-58.58792,6.64264],[-58.58792,6.64431],[-58.58875,6.64681],[-58.58875,6.6493]]],[[[-58.62132,6.51009],[-58.62088,6.51153],[-58.62185,6.51288],[-58.62159,6.51394],[-58.61982,6.51444],[-58.62,6.5158],[-58.61635,6.51738],[-58.61482,6.51766],[-58.61392,6.51721],[-58.61332,6.51837],[-58.61224,6.51864],[-58.61238,6.52009],[-58.61325,6.52098],[-58.61326,6.52205],[-58.61224,6.52261],[-58.61208,6.52514],[-58.61236,6.52597],[-58.61347,6.52625],[-58.61431,6.52819],[-58.6157,6.52931],[-58.61708,6.53236],[-58.61764,6.53597],[-58.61819,6.53653],[-58.61875,6.53875],[-58.61875,6.54264],[-58.61958,6.54458],[-58.62014,6.54875],[-58.62014,6.55292],[-58.61958,6.55486],[-58.61958,6.55875],[-58.61986,6.55986],[-58.6193,6.56208],[-58.61819,6.56319],[-58.61708,6.56514],[-58.61514,6.56569],[-58.61458,6.56653],[-58.61347,6.56653],[-58.61375,6.56764],[-58.61375,6.57069],[-58.61236,6.57319],[-58.61042,6.57403],[-58.61208,6.57514],[-58.61292,6.57625],[-58.61292,6.57847],[-58.61403,6.57958],[-58.61486,6.58125],[-58.61514,6.58458],[-58.61625,6.58792],[-58.61625,6.59181],[-58.61681,6.59347],[-58.61681,6.5957],[-58.61736,6.5957],[-58.61764,6.5982],[-58.61764,6.60125],[-58.61819,6.60264],[-58.6193,6.60347],[-58.62042,6.60625],[-58.62014,6.60792],[-58.62097,6.60931],[-58.62069,6.61375],[-58.62153,6.61431],[-58.62181,6.61625],[-58.62069,6.61597],[-58.62014,6.61653],[-58.62014,6.61931],[-58.62125,6.62125],[-58.62125,6.62486],[-58.62014,6.62764],[-58.61903,6.62903],[-58.61903,6.63042],[-58.61792,6.63208],[-58.61764,6.63431],[-58.61681,6.63542],[-58.61625,6.63958],[-58.61542,6.64097],[-58.61486,6.64319],[-58.61486,6.64458],[-58.61431,6.64597],[-58.61403,6.64958],[-58.61319,6.65208],[-58.61319,6.65486],[-58.61292,6.65486],[-58.61292,6.65764],[-58.61264,6.65764],[-58.61264,6.66153],[-58.61347,6.66181],[-58.61347,6.66375],[-58.6118,6.66653],[-58.6118,6.66736],[-58.61042,6.66958],[-58.61014,6.67181],[-58.61014,6.67458],[-58.60903,6.67819],[-58.60875,6.68125],[-58.6082,6.68236],[-58.60764,6.68625],[-58.60653,6.68819],[-58.60625,6.69153],[-58.6068,6.69319],[-58.6068,6.69514],[-58.60625,6.69625],[-58.60625,6.69847],[-58.60569,6.70014],[-58.60403,6.70236],[-58.60403,6.70347],[-58.60292,6.70542],[-58.60209,6.7082],[-58.60125,6.70903],[-58.60153,6.71097],[-58.60125,6.71319],[-58.60125,6.71597],[-58.60069,6.71653],[-58.60069,6.71986],[-58.59986,6.72208],[-58.59986,6.72597],[-58.60014,6.72792],[-58.59958,6.72903],[-58.59958,6.73153],[-58.59875,6.7343],[-58.59875,6.73903],[-58.59903,6.73903],[-58.59903,6.74181],[-58.59875,6.74181],[-58.59875,6.74653],[-58.59792,6.74819],[-58.59764,6.74986],[-58.59764,6.75597],[-58.59792,6.75597],[-58.59792,6.75903],[-58.59847,6.75958],[-58.59875,6.76181],[-58.59986,6.76458],[-58.59986,6.76653],[-58.60042,6.76736],[-58.60042,6.76875],[-58.60097,6.76958],[-58.60125,6.77375],[-58.60209,6.77764],[-58.60209,6.78069],[-58.60264,6.78319],[-58.60264,6.7882],[-58.60181,6.78958],[-58.60153,6.79125],[-58.60097,6.79125],[-58.59986,6.79403],[-58.59819,6.79542],[-58.59708,6.79764],[-58.59681,6.79931],[-58.59597,6.80069],[-58.59542,6.80069],[-58.59403,6.80403],[-58.59319,6.80458],[-58.59292,6.80653],[-58.59292,6.80931],[-58.59208,6.8107],[-58.59208,6.81181],[-58.59097,6.81403],[-58.59097,6.81736],[-58.58931,6.82292],[-58.5882,6.82431],[-58.5882,6.82653],[-58.58708,6.82792],[-58.58625,6.83042],[-58.58569,6.83042],[-58.58458,6.83181],[-58.58403,6.83514],[-58.58347,6.83542],[-58.58347,6.83764],[-58.58292,6.83958],[-58.58292,6.84375],[-58.58236,6.84542],[-58.58236,6.84708],[-58.58153,6.84875],[-58.58153,6.85042],[-58.58097,6.85153],[-58.5807,6.85375],[-58.57903,6.85764],[-58.57903,6.85875],[-58.57736,6.86264],[-58.57736,6.86375],[-58.57625,6.86569],[-58.57625,6.86764],[-58.57542,6.86903],[-58.57542,6.87292],[-58.57514,6.87458],[-58.57403,6.87653],[-58.57403,6.87903],[-58.57347,6.87958],[-58.57319,6.88208],[-58.57208,6.88292],[-58.56931,6.88875],[-58.56931,6.89014],[-58.56875,6.89042],[-58.5682,6.89208],[-58.56736,6.89292],[-58.56569,6.8968],[-58.56569,6.89792],[-58.56458,6.89989],[-58.56458,6.9018],[-58.56403,6.90292],[-58.56403,6.9043],[-58.56347,6.90458],[-58.56208,6.90875],[-58.56125,6.91042],[-58.56125,6.91153],[-58.56042,6.91236],[-58.55931,6.91681],[-58.55875,6.91708],[-58.55875,6.91847],[-58.55819,6.92014],[-58.55625,6.9243],[-58.55587,6.92615],[-58.657,6.8773],[-58.67657,6.85275],[-58.71502,6.86128],[-58.71948,6.86025],[-58.73802,6.84355],[-58.74454,6.81423],[-58.74729,6.79548],[-58.76617,6.77264],[-58.80051,6.75764],[-58.829,6.74503],[-58.84112,6.73085],[-58.83934,6.71872],[-58.83263,6.70939],[-58.82861,6.69933],[-58.83472,6.65686],[-58.84008,6.6505],[-58.84336,6.61513],[-58.84723,6.60462],[-58.85155,6.59648],[-58.85587,6.58493],[-58.85409,6.56954],[-58.84261,6.55829],[-58.83323,6.55444],[-58.81922,6.55252],[-58.80611,6.55207],[-58.79806,6.55355],[-58.78689,6.55577],[-58.78123,6.55562],[-58.75277,6.5389],[-58.73146,6.5241],[-58.72223,6.51936],[-58.71254,6.51951],[-58.70673,6.51951],[-58.70226,6.51092],[-58.69943,6.50811],[-58.69481,6.50278],[-58.68796,6.49804],[-58.67961,6.49345],[-58.67216,6.49286],[-58.66784,6.49479],[-58.66233,6.49937],[-58.65548,6.5047],[-58.64788,6.50914],[-58.64132,6.51255],[-58.63566,6.51388],[-58.62791,6.51359],[-58.62132,6.51009]]],[[[-58.5993,6.59486],[-58.59958,6.60125],[-58.60014,6.6007],[-58.59986,6.59931],[-58.60042,6.59931],[-58.60042,6.59597],[-58.5993,6.59486]]],[[[-58.61514,6.5493],[-58.61347,6.54653],[-58.61319,6.54708],[-58.61319,6.55181],[-58.61292,6.55181],[-58.61292,6.55764],[-58.61375,6.55931],[-58.61514,6.55847],[-58.61542,6.55542],[-58.61597,6.55347],[-58.61597,6.55097],[-58.61514,6.5493]]],[[[-58.61514,6.5493],[-58.61653,6.55014],[-58.61681,6.54847],[-58.61681,6.54069],[-58.61653,6.53903],[-58.61542,6.53681],[-58.61403,6.53625],[-58.61458,6.54208],[-58.61486,6.54208],[-58.61486,6.54625],[-58.61431,6.54625],[-58.61514,6.5493]]]]},"properties":{"ID":"317","NDC":"Sparta / Bonasika and Rest of Essequibo Islands","REGION":"Essequibo Islands-West Demerara","STATUS":"Not Classified","Male_2012":2457,"Fem_2012":1895,"Tot_2012":4352}}
]}