{"type":"FeatureCollection", "features": [
{"type":"Feature","geometry":{"type":"Polygon","coordinates":[[[-58.93441,7.81691],[-58.93622,7.81729],[-58.93908,7.82089],[-58.94169,7.82654],[-58.94637,7.83142],[-58.94793,7.83425],[-58.95286,7.83886],[-58.95559,7.84297],[-58.95715,7.84734],[-58.96015,7.85067],[-58.96588,7.85967],[-58.97237,7.86711],[-58.98846,7.88224],[-58.99341,7.88968],[-59.00797,7.90739],[-59.01004,7.90867],[-59.01407,7.91483],[-59.01862,7.92022],[-59.02329,7.92355],[-59.029,7.92868],[-59.03238,7.93355],[-59.03471,7.93432],[-59.04069,7.9406],[-59.05784,7.95971],[-59.06825,7.97383],[-59.07969,7.98691],[-59.08722,7.99499],[-59.08852,7.99549],[-59.10385,8.01126],[-59.11268,8.01972],[-59.11501,8.02125],[-59.12073,8.02716],[-59.12774,8.03278],[-59.13733,8.03943],[-59.1407,8.04096],[-59.15186,8.04913],[-59.15498,8.05325],[-59.16277,8.05965],[-59.16147,8.05708],[-59.17312,8.06217],[-59.18168,8.0683],[-59.18894,8.07136],[-59.1931,8.07521],[-59.19828,8.07827],[-59.20737,8.08594],[-59.21385,8.08951],[-59.21412,8.0908],[-59.22579,8.09782],[-59.23383,8.10203],[-59.25534,8.1117],[-59.25872,8.11348],[-59.2652,8.11886],[-59.27663,8.12652],[-59.2831,8.13009],[-59.28493,8.1324],[-59.28959,8.13495],[-59.29297,8.13802],[-59.29945,8.14082],[-59.30438,8.14414],[-59.31785,8.14999],[-59.31942,8.15178],[-59.32589,8.15432],[-59.32927,8.15713],[-59.33731,8.16198],[-59.33757,8.16275],[-59.34536,8.16734],[-59.35055,8.17169],[-59.35885,8.17577],[-59.37182,8.18342],[-59.37182,8.18393],[-59.38168,8.18928],[-59.38194,8.19005],[-59.39153,8.19412],[-59.39491,8.19668],[-59.40321,8.20075],[-59.40659,8.20382],[-59.42137,8.21223],[-59.43124,8.21887],[-59.44109,8.22396],[-59.44421,8.22703],[-59.45408,8.23341],[-59.45746,8.23648],[-59.46549,8.23902],[-59.4725,8.24386],[-59.4821,8.24946],[-59.48884,8.25148],[-59.49532,8.25479],[-59.5153,8.26625],[-59.52022,8.26957],[-59.52852,8.27337],[-59.54668,8.28074],[-59.5485,8.28253],[-59.57158,8.29371],[-59.57885,8.2983],[-59.59156,8.30414],[-59.60326,8.31044],[-59.62091,8.32165],[-59.63079,8.32931],[-59.6417,8.33619],[-59.65206,8.34186],[-59.66376,8.35131],[-59.67181,8.35615],[-59.67493,8.35871],[-59.68505,8.36404],[-59.69491,8.36861],[-59.70634,8.37677],[-59.71958,8.38363],[-59.73125,8.38922],[-59.73956,8.39405],[-59.75434,8.39936],[-59.75434,8.39987],[-59.76781,8.40312],[-59.77195,8.40284],[-59.79289,8.40269],[-59.7991,8.40342],[-59.80815,8.40232],[-59.81201,8.39998],[-59.81262,8.39534],[-59.81608,8.39068],[-59.81401,8.39069],[-59.80178,8.38074],[-59.79763,8.37897],[-59.78543,8.37107],[-59.7724,8.36367],[-59.76594,8.35859],[-59.76,8.35304],[-59.76398,8.34978],[-59.76541,8.35098],[-59.77263,8.35286],[-59.77728,8.35297],[-59.78089,8.35179],[-59.78255,8.34817],[-59.78049,8.34483],[-59.78144,8.34253],[-59.80253,8.35236],[-59.80505,8.35299],[-59.81356,8.35715],[-59.81895,8.35821],[-59.82208,8.36064],[-59.82539,8.35944],[-59.82978,8.35985],[-59.83099,8.35873],[-59.83732,8.36014],[-59.83938,8.35936],[-59.84574,8.36343],[-59.84688,8.36578],[-59.85419,8.36968],[-59.8581,8.37311],[-59.85811,8.37518],[-59.86227,8.37696],[-59.86306,8.38081],[-59.86826,8.38387],[-59.87212,8.39005],[-59.87765,8.3959],[-59.88447,8.40872],[-59.89,8.4213],[-59.89613,8.42949],[-59.90192,8.44207],[-59.90886,8.45386],[-59.91899,8.46625],[-59.92135,8.47061],[-59.92263,8.47034],[-59.92995,8.48033],[-59.93934,8.49165],[-59.94561,8.49724],[-59.95188,8.50091],[-59.95724,8.5067],[-59.96516,8.51365],[-59.96802,8.51759],[-59.97385,8.52163],[-59.97503,8.52604],[-59.97938,8.53094],[-59.98672,8.52838],[-59.98111,8.51833],[-59.94389,8.4725],[-59.90056,8.41861],[-59.88611,8.40083],[-59.87194,8.38278],[-59.82861,8.32917],[-59.815,8.31139],[-59.80917,8.30083],[-59.8075,8.29583],[-59.80472,8.29167],[-59.80139,8.275],[-59.80444,8.27083],[-59.80861,8.26833],[-59.81944,8.25861],[-59.82306,8.24778],[-59.82389,8.24167],[-59.82556,8.23611],[-59.83194,8.22889],[-59.84333,8.22667],[-59.84833,8.225],[-59.85472,8.22444],[-59.86167,8.22472],[-59.87194,8.22194],[-59.87917,8.22222],[-59.88889,8.21861],[-59.90028,8.21639],[-59.90792,8.2174],[-59.92978,8.21531],[-59.94603,8.21346],[-59.94554,8.20537],[-59.94597,8.19762],[-59.94841,8.195],[-59.96504,8.19156],[-59.97603,8.18797],[-59.97974,8.18118],[-59.98265,8.16842],[-59.98642,8.16347],[-59.99341,8.1582],[-59.99453,8.15497],[-59.99333,8.15157],[-59.98818,8.14529],[-59.98183,8.13883],[-59.98062,8.13271],[-59.98595,8.1271],[-59.99127,8.12387],[-59.99419,8.11963],[-59.99587,8.10936],[-59.99985,8.10025],[-60.00002,8.096],[-59.99845,8.08972],[-59.99951,8.08326],[-59.99952,8.07533],[-60.00578,8.07209],[-60.00641,8.06948],[-60.00536,8.06506],[-60.0058,8.06009],[-60.00878,8.05606],[-60.01949,8.0489],[-60.0238,8.04506],[-60.0319,8.03333],[-60.03622,8.03293],[-60.04096,8.03613],[-60.04465,8.03278],[-60.04843,8.02717],[-60.05255,8.0248],[-60.06127,8.02343],[-60.06754,8.02505],[-60.07289,8.02823],[-60.07785,8.03244],[-60.08217,8.03244],[-60.08271,8.03028],[-60.08607,8.03161],[-60.08893,8.03584],[-60.10062,8.03528],[-60.10215,8.03414],[-60.10413,8.02946],[-60.10905,8.03049],[-60.11283,8.02834],[-60.11674,8.02801],[-60.12193,8.02887],[-60.12115,8.02578],[-60.12348,8.0215],[-60.12216,8.02053],[-60.12422,8.01648],[-60.12896,8.01288],[-60.12895,8.00972],[-60.13142,8.00649],[-60.13119,8.00414],[-60.13418,7.99929],[-60.1347,7.99647],[-60.14033,7.9929],[-60.14033,7.99038],[-60.14275,7.99014],[-60.14844,7.9868],[-60.14954,7.98473],[-60.15327,7.98437],[-60.15529,7.98242],[-60.16345,7.97913],[-60.16242,7.97815],[-60.16501,7.97401],[-60.16731,7.9724],[-60.1718,7.97382],[-60.17709,7.96899],[-60.18347,7.96432],[-60.18836,7.96293],[-60.19002,7.96138],[-60.1922,7.96579],[-60.19611,7.9655],[-60.19778,7.96733],[-60.19847,7.96486],[-60.19663,7.96308],[-60.19945,7.95906],[-60.21026,7.95869],[-60.21399,7.95942],[-60.21911,7.95774],[-60.22279,7.954],[-60.23205,7.94594],[-60.23464,7.94421],[-60.23349,7.93979],[-60.22999,7.93791],[-60.23102,7.93498],[-60.2335,7.93485],[-60.2335,7.93273],[-60.24207,7.93167],[-60.2439,7.92811],[-60.24287,7.92254],[-60.24523,7.92116],[-60.24466,7.91898],[-60.2457,7.91306],[-60.24777,7.9107],[-60.25053,7.9142],[-60.25311,7.91511],[-60.25494,7.91305],[-60.25725,7.90608],[-60.2599,7.9055],[-60.26025,7.90154],[-60.26231,7.90354],[-60.26358,7.90141],[-60.2626,7.89872],[-60.26703,7.89584],[-60.26876,7.89704],[-60.27404,7.8922],[-60.27468,7.88944],[-60.27882,7.88507],[-60.28146,7.885],[-60.28485,7.88223],[-60.28606,7.88436],[-60.28785,7.88303],[-60.28808,7.87844],[-60.29118,7.87958],[-60.29388,7.87899],[-60.29423,7.87572],[-60.29664,7.87571],[-60.30113,7.87139],[-60.30377,7.87254],[-60.31216,7.86947],[-60.31377,7.86791],[-60.31452,7.86119],[-60.31763,7.85958],[-60.31757,7.85745],[-60.32038,7.8571],[-60.32079,7.85463],[-60.32682,7.85295],[-60.32803,7.85036],[-60.33125,7.84966],[-60.33292,7.84167],[-60.33758,7.83839],[-60.34407,7.83705],[-60.34785,7.83391],[-60.34825,7.83128],[-60.35265,7.82894],[-60.35693,7.82883],[-60.35824,7.82637],[-60.36247,7.82523],[-60.36356,7.8282],[-60.36818,7.82791],[-60.37087,7.83305],[-60.37287,7.83219],[-60.37663,7.83313],[-60.37715,7.83666],[-60.3795,7.83981],[-60.37988,7.83669],[-60.38218,7.83318],[-60.38719,7.83085],[-60.38893,7.82886],[-60.39321,7.82971],[-60.3969,7.82727],[-60.39969,7.82766],[-60.40218,7.82627],[-60.40138,7.82358],[-60.40482,7.82079],[-60.40721,7.82547],[-60.4099,7.82423],[-60.41542,7.82637],[-60.42135,7.82507],[-60.42314,7.82901],[-60.42792,7.82881],[-60.42917,7.83075],[-60.4345,7.82712],[-60.43719,7.83085],[-60.43763,7.83613],[-60.44181,7.838],[-60.44819,7.83957],[-60.44959,7.83693],[-60.45257,7.83543],[-60.45576,7.83653],[-60.4573,7.83533],[-60.46522,7.83598],[-60.46697,7.83832],[-60.47105,7.83409],[-60.47294,7.83508],[-60.47588,7.83399],[-60.47587,7.83124],[-60.48002,7.83333],[-60.48169,7.83118],[-60.4838,7.8316],[-60.48836,7.8298],[-60.49075,7.83181],[-60.49501,7.82915],[-60.4957,7.83141],[-60.49908,7.82981],[-60.49934,7.83377],[-60.50117,7.83502],[-60.50346,7.83305],[-60.50778,7.83213],[-60.50798,7.82934],[-60.51035,7.8272],[-60.51406,7.83007],[-60.51601,7.82923],[-60.51646,7.82502],[-60.52079,7.82231],[-60.52572,7.82307],[-60.53123,7.82158],[-60.53069,7.82028],[-60.53516,7.81894],[-60.53972,7.81607],[-60.54151,7.81102],[-60.53922,7.80758],[-60.53539,7.80491],[-60.5371,7.80298],[-60.53473,7.80133],[-60.5345,7.799],[-60.53235,7.79803],[-60.53223,7.79509],[-60.53821,7.79109],[-60.53847,7.78793],[-60.54143,7.78774],[-60.54372,7.78528],[-60.54367,7.78317],[-60.54609,7.78203],[-60.54929,7.78251],[-60.55207,7.77807],[-60.55116,7.7752],[-60.55147,7.76991],[-60.55339,7.7689],[-60.55598,7.77048],[-60.55891,7.77019],[-60.56004,7.76717],[-60.5624,7.7655],[-60.56171,7.76348],[-60.56382,7.76093],[-60.56294,7.75725],[-60.56382,7.75303],[-60.5677,7.74717],[-60.56707,7.74436],[-60.57198,7.74014],[-60.575,7.74197],[-60.57674,7.73838],[-60.57914,7.73651],[-60.58143,7.73838],[-60.58363,7.73422],[-60.58275,7.73214],[-60.5843,7.73028],[-60.58268,7.72822],[-60.57969,7.72833],[-60.57617,7.72627],[-60.57471,7.72296],[-60.57642,7.72081],[-60.57538,7.71856],[-60.57068,7.71482],[-60.57095,7.71157],[-60.56866,7.70911],[-60.56994,7.70696],[-60.56814,7.7056],[-60.57086,7.70231],[-60.57442,7.70125],[-60.57534,7.69888],[-60.57942,7.69625],[-60.57942,7.69221],[-60.57745,7.68891],[-60.5803,7.68848],[-60.58188,7.68654],[-60.58211,7.6787],[-60.58967,7.67953],[-60.59026,7.67714],[-60.59338,7.6739],[-60.59253,7.67291],[-60.59278,7.66753],[-60.58981,7.66575],[-60.59047,7.6642],[-60.58772,7.66065],[-60.59158,7.65721],[-60.58931,7.65409],[-60.59222,7.6497],[-60.58985,7.64365],[-60.59123,7.64169],[-60.59082,7.63695],[-60.58838,7.63529],[-60.59032,7.63148],[-60.59284,7.63127],[-60.59717,7.6342],[-60.59779,7.63736],[-60.60124,7.63965],[-60.60506,7.63787],[-60.61236,7.64347],[-60.61784,7.64268],[-60.62202,7.63825],[-60.6252,7.6331],[-60.6251,7.62635],[-60.6261,7.62331],[-60.6243,7.62092],[-60.6205,7.61898],[-60.61953,7.61694],[-60.62247,7.61234],[-60.62292,7.61002],[-60.62728,7.60971],[-60.6297,7.60325],[-60.63959,7.60072],[-60.63845,7.59719],[-60.64087,7.59602],[-60.6423,7.5928],[-60.64171,7.58916],[-60.63914,7.5832],[-60.6369,7.58253],[-60.63887,7.57758],[-60.64316,7.5744],[-60.64599,7.57523],[-60.64624,7.57097],[-60.65104,7.56955],[-60.65471,7.56668],[-60.66035,7.56457],[-60.66239,7.569],[-60.66557,7.57063],[-60.67242,7.56876],[-60.6756,7.56488],[-60.68252,7.5681],[-60.68349,7.57281],[-60.6856,7.57502],[-60.68574,7.5781],[-60.68944,7.5782],[-60.69234,7.57557],[-60.69044,7.57142],[-60.69079,7.56955],[-60.68858,7.56654],[-60.6901,7.56087],[-60.68767,7.5581],[-60.69262,7.55575],[-60.6938,7.55779],[-60.70213,7.55904],[-60.70469,7.56025],[-60.70743,7.55838],[-60.70656,7.55631],[-60.71002,7.55558],[-60.71165,7.55312],[-60.70957,7.54932],[-60.7122,7.547],[-60.71082,7.54537],[-60.71441,7.54077],[-60.71725,7.54136],[-60.72036,7.53884],[-60.71794,7.53496],[-60.714,7.53441],[-60.71372,7.53137],[-60.71144,7.52971],[-60.71355,7.52566],[-60.70867,7.52303],[-60.70698,7.51732],[-60.7103,7.51386],[-60.70833,7.51065],[-60.70639,7.51072],[-60.70431,7.50677],[-60.70431,7.50158],[-60.70566,7.49556],[-60.70044,7.48723],[-60.69778,7.48584],[-60.69653,7.48256],[-60.69764,7.47906],[-60.69501,7.47775],[-60.69283,7.47453],[-60.6856,7.47585],[-60.68249,7.47036],[-60.68397,7.46925],[-60.68328,7.46274],[-60.6774,7.45928],[-60.67228,7.45374],[-60.67111,7.4554],[-60.66671,7.45689],[-60.66488,7.4599],[-60.65997,7.45838],[-60.65561,7.45565],[-60.65564,7.45399],[-60.65191,7.45215],[-60.64838,7.45291],[-60.64423,7.44925],[-60.63921,7.44724],[-60.64056,7.4443],[-60.638,7.44302],[-60.63904,7.44017],[-60.63713,7.43392],[-60.63977,7.43203],[-60.63964,7.42959],[-60.6424,7.42796],[-60.64121,7.42269],[-60.64311,7.41839],[-60.64154,7.41661],[-60.6381,7.41646],[-60.63677,7.41397],[-60.62871,7.4089],[-60.62744,7.40949],[-60.62447,7.40476],[-60.62533,7.40262],[-60.62266,7.4012],[-60.61943,7.40156],[-60.6173,7.39749],[-60.61398,7.39518],[-60.6098,7.39669],[-60.60722,7.39356],[-60.61255,7.39032],[-60.61119,7.38843],[-60.61158,7.3833],[-60.60888,7.38007],[-60.60731,7.37568],[-60.61134,7.3691],[-60.60879,7.36685],[-60.60642,7.36146],[-60.60153,7.35657],[-60.5988,7.35633],[-60.59374,7.3518],[-60.59341,7.34738],[-60.59803,7.33887],[-60.59145,7.33173],[-60.59341,7.32335],[-60.59119,7.32086],[-60.58813,7.31428],[-60.59142,7.31093],[-60.59243,7.30791],[-60.59913,7.30752],[-60.60141,7.30853],[-60.60695,7.30731],[-60.60817,7.30233],[-60.61048,7.30278],[-60.61202,7.29993],[-60.61543,7.29869],[-60.61493,7.29243],[-60.61291,7.28808],[-60.61404,7.28513],[-60.61632,7.28354],[-60.61617,7.27791],[-60.62272,7.2764],[-60.62719,7.27314],[-60.62782,7.27124],[-60.63037,7.27113],[-60.63226,7.26695],[-60.63618,7.26173],[-60.63443,7.25352],[-60.63671,7.25106],[-60.63795,7.24599],[-60.63499,7.24208],[-60.63546,7.23945],[-60.62868,7.2315],[-60.62771,7.22767],[-60.62876,7.22492],[-60.62545,7.21734],[-60.62447,7.21096],[-60.62088,7.2091],[-60.61824,7.20456],[-60.61229,7.20284],[-60.61072,7.2045],[-60.6063,7.20587],[-60.60378,7.20504],[-60.59941,7.20137],[-60.59798,7.19304],[-60.59914,7.19127],[-60.59943,7.18437],[-60.59605,7.18262],[-60.59374,7.1785],[-60.58858,7.17572],[-60.58381,7.17652],[-60.57794,7.17453],[-60.57604,7.17021],[-60.56846,7.1622],[-60.56623,7.15808],[-60.55868,7.15435],[-60.55737,7.15008],[-60.55794,7.14774],[-60.55542,7.14493],[-60.55162,7.13592],[-60.54934,7.13429],[-60.54765,7.12738],[-60.54507,7.12439],[-60.53959,7.12374],[-60.53716,7.12673],[-60.53969,7.13049],[-60.5358,7.13481],[-60.5274,7.13802],[-60.52666,7.14008],[-60.52955,7.14356],[-60.5277,7.14613],[-60.52856,7.14872],[-60.52517,7.15018],[-60.52257,7.15513],[-60.52022,7.15647],[-60.52192,7.15879],[-60.52198,7.16478],[-60.51986,7.16702],[-60.5162,7.16365],[-60.51134,7.16562],[-60.51204,7.16944],[-60.50927,7.17202],[-60.50292,7.17247],[-60.50527,7.17725],[-60.50374,7.17946],[-60.50475,7.18159],[-60.50023,7.18962],[-60.49776,7.1851],[-60.49231,7.18644],[-60.48943,7.18402],[-60.48827,7.18588],[-60.4839,7.18413],[-60.48267,7.18719],[-60.4753,7.1894],[-60.47236,7.19131],[-60.47116,7.19448],[-60.46705,7.196],[-60.46601,7.19458],[-60.462,7.19972],[-60.4595,7.20477],[-60.4574,7.20283],[-60.45371,7.20471],[-60.4495,7.20481],[-60.444,7.20099],[-60.44248,7.1982],[-60.43921,7.19781],[-60.43846,7.20066],[-60.43574,7.19956],[-60.43312,7.20095],[-60.43027,7.19959],[-60.42804,7.19493],[-60.42519,7.19409],[-60.42477,7.19004],[-60.42289,7.18742],[-60.42066,7.17645],[-60.41528,7.17758],[-60.41253,7.17709],[-60.40942,7.17331],[-60.40334,7.17716],[-60.3991,7.17648],[-60.39518,7.17703],[-60.3922,7.1791],[-60.38553,7.1813],[-60.38314,7.17998],[-60.3809,7.18192],[-60.36712,7.18479],[-60.36494,7.18173],[-60.36391,7.18287],[-60.36068,7.18163],[-60.35692,7.17623],[-60.35696,7.1733],[-60.35397,7.16926],[-60.35023,7.17064],[-60.34728,7.1684],[-60.34878,7.16464],[-60.34702,7.16202],[-60.3473,7.15739],[-60.34481,7.15758],[-60.34504,7.15472],[-60.34014,7.1536],[-60.33269,7.15791],[-60.32347,7.15179],[-60.31795,7.15173],[-60.31442,7.14757],[-60.31125,7.1461],[-60.31045,7.14418],[-60.30761,7.14461],[-60.30759,7.14215],[-60.30371,7.14199],[-60.30344,7.1392],[-60.30038,7.1396],[-60.29844,7.13516],[-60.29703,7.13572],[-60.27638,7.12376],[-60.25612,7.09715],[-60.24226,7.08961],[-60.23124,7.08828],[-60.20591,7.09715],[-60.1916,7.10484],[-60.17805,7.10158],[-60.16091,7.08532],[-60.15004,7.07394],[-60.11711,7.06359],[-60.10191,7.06536],[-60.08299,7.08103],[-60.0666,7.10765],[-60.0587,7.12317],[-60.02488,7.1242],[-60.00775,7.1211],[-59.99434,7.11105],[-59.98599,7.10824],[-59.97899,7.11267],[-59.95724,7.13086],[-59.9398,7.14402],[-59.9325,7.15318],[-59.92803,7.16575],[-59.92222,7.19221],[-59.90956,7.19945],[-59.90077,7.20196],[-59.85622,7.20256],[-59.83715,7.19842],[-59.81852,7.18142],[-59.7993,7.1653],[-59.78709,7.15791],[-59.73911,7.12849],[-59.71706,7.11814],[-59.70127,7.11046],[-59.68964,7.10868],[-59.67832,7.10942],[-59.64971,7.11016],[-59.62781,7.10868],[-59.6077,7.09804],[-59.59727,7.08813],[-59.58356,7.07364],[-59.55734,7.0488],[-59.53335,7.02706],[-59.50906,7.01449],[-59.49044,7.00606],[-59.47062,7.00251],[-59.45602,6.99098],[-59.43367,6.98107],[-59.39791,6.96835],[-59.38093,6.96332],[-59.36767,6.96155],[-59.35888,6.9651],[-59.35187,6.96732],[-59.3407,6.97634],[-59.32833,6.99142],[-59.32133,7.00636],[-59.31433,7.01819],[-59.29958,7.02736],[-59.2887,7.03002],[-59.27231,7.02632],[-59.25935,7.02159],[-59.23983,7.01789],[-59.23223,7.0136],[-59.20512,7.00355],[-59.19349,7.00222],[-59.17874,7.00237],[-59.18097,7.02513],[-59.19392,7.05259],[-59.19274,7.09729],[-59.18156,7.18229],[-59.1377,7.28917],[-59.10119,7.35195],[-59.10855,7.39048],[-59.12592,7.41792],[-59.11827,7.45499],[-59.09972,7.47105],[-59.03236,7.53],[-58.944,7.55773],[-58.90602,7.58049],[-58.9046,7.5977],[-58.8863,7.60266],[-58.86069,7.62542],[-58.81123,7.67006],[-58.79934,7.67901],[-58.80223,7.6864],[-58.8063,7.69367],[-58.81241,7.70146],[-58.8178,7.71193],[-58.82159,7.71705],[-58.82238,7.72066],[-58.82472,7.72451],[-58.83106,7.73206],[-58.83468,7.73532],[-58.837,7.73539],[-58.84335,7.73995],[-58.84541,7.74231],[-58.84949,7.74398],[-58.85065,7.74604],[-58.85374,7.74469],[-58.85918,7.74781],[-58.86254,7.74857],[-58.86773,7.75293],[-58.86928,7.75318],[-58.87421,7.75857],[-58.87682,7.76397],[-58.88201,7.76807],[-58.88539,7.77501],[-58.89057,7.77756],[-58.89266,7.78271],[-58.89863,7.78526],[-58.89915,7.78835],[-58.90536,7.79142],[-58.9077,7.79359],[-58.91339,7.79498],[-58.91366,7.79807],[-58.91859,7.80217],[-58.92405,7.81117],[-58.9269,7.81141],[-58.93441,7.81691]]]},"properties":{"Region":"1","name":"Barima-Waini","Area (km)":20339,"Pop1980":18329,"Pop1991":18429,"Pop2002":24275,"Pop2012":27643}}
]}