{"type":"FeatureCollection", "features": [
{"type":"Feature","geometry":{"type":"Polygon","coordinates":[[[-59.68845,1.76473],[-59.69,1.757],[-59.666,1.755],[-59.662,1.737],[-59.653,1.743],[-59.632,1.741],[-59.629,1.728],[-59.617,1.716],[-59.607,1.723],[-59.587,1.727],[-59.584,1.732],[-59.566,1.736],[-59.556,1.724],[-59.55,1.729],[-59.533,1.717],[-59.534,1.709],[-59.526,1.703],[-59.526,1.692],[-59.513,1.681],[-59.511,1.669],[-59.5,1.677],[-59.493,1.674],[-59.494,1.646],[-59.483,1.627],[-59.465,1.618],[-59.447,1.62],[-59.437,1.594],[-59.427,1.587],[-59.431,1.567],[-59.422,1.556],[-59.412,1.552],[-59.396,1.556],[-59.394,1.537],[-59.378,1.521],[-59.381,1.507],[-59.364,1.51],[-59.358,1.518],[-59.339,1.519],[-59.329,1.514],[-59.332,1.506],[-59.321,1.482],[-59.327,1.464],[-59.314,1.461],[-59.302,1.466],[-59.284,1.45],[-59.284,1.437],[-59.274,1.418],[-59.282,1.411],[-59.259,1.397],[-59.253,1.389],[-59.233,1.387],[-59.226,1.378],[-59.207,1.372],[-59.196,1.379],[-59.187,1.375],[-59.171,1.357],[-59.161,1.359],[-59.146,1.347],[-59.131,1.353],[-59.118,1.343],[-59.102,1.349],[-59.089,1.347],[-59.087,1.339],[-59.07,1.33],[-59.057,1.335],[-59.048,1.323],[-59.023,1.331],[-59.013,1.324],[-58.989,1.325],[-58.978,1.302],[-58.966,1.313],[-58.918,1.317],[-58.915,1.306],[-58.923,1.294],[-58.918,1.285],[-58.898,1.28],[-58.886,1.261],[-58.904,1.251],[-58.904,1.242],[-58.912,1.239],[-58.89528,1.22722],[-58.88206,1.22874],[-58.87455,1.22323],[-58.86678,1.20317],[-58.85928,1.20407],[-58.85429,1.18346],[-58.84594,1.18184],[-58.83178,1.18791],[-58.82401,1.18321],[-58.82512,1.17127],[-58.80595,1.18123],[-58.80011,1.17653],[-58.7915,1.19046],[-58.76984,1.1865],[-58.75122,1.20848],[-58.73956,1.1999],[-58.71511,1.23763],[-58.72067,1.25544],[-58.70984,1.28348],[-58.71039,1.2899],[-58.69456,1.29732],[-58.68011,1.29625],[-58.67595,1.28513],[-58.66401,1.27935],[-58.65261,1.28822],[-58.63928,1.28542],[-58.62873,1.2885],[-58.61484,1.2829],[-58.60817,1.27378],[-58.58845,1.2699],[-58.58539,1.26212],[-58.57761,1.2832],[-58.56456,1.2946],[-58.55956,1.29018],[-58.54011,1.28792],[-58.53817,1.26767],[-58.52706,1.26957],[-58.52289,1.25791],[-58.51289,1.27763],[-58.49622,1.26796],[-58.49506,1.29492],[-58.4834,1.30035],[-58.47095,1.31935],[-58.47428,1.34838],[-58.45787,1.37145],[-58.47006,1.37081],[-58.48503,1.38473],[-58.47964,1.39016],[-58.50511,1.40317],[-58.50317,1.42488],[-58.49806,1.43012],[-58.50789,1.44486],[-58.50873,1.46295],[-58.51397,1.47861],[-58.48649,1.51238],[-58.45902,1.54917],[-58.41717,1.60259],[-58.40382,1.63937],[-58.39146,1.67994],[-58.36222,1.75074],[-58.30778,1.8296],[-58.29568,1.8558],[-58.27904,1.90266],[-58.26039,1.947],[-58.24905,1.98756],[-58.23191,2.02912],[-58.19989,2.12837],[-58.18502,2.18051],[-58.16158,2.23819],[-58.13562,2.31048],[-58.12377,2.3334],[-58.11167,2.35027],[-58.05495,2.44824],[-58.03907,2.50994],[-58.03958,2.54645],[-58.04437,2.58196],[-58.04638,2.61898],[-58.05369,2.66405],[-58.05168,2.71164],[-58.0426,2.73404],[-58.02647,2.76023],[-58.00378,2.78742],[-57.95791,2.85943],[-57.94934,2.88536],[-57.95337,2.91053],[-57.97152,2.95383],[-57.98034,2.99461],[-57.9937,3.02532],[-58.02042,3.05905],[-58.03882,3.08523],[-58.05647,3.11895],[-58.07209,3.12877],[-58.09705,3.16099],[-58.1215,3.20478],[-58.13284,3.22919],[-58.1404,3.26266],[-58.14267,3.29034],[-58.13814,3.30267],[-58.14015,3.33463],[-58.13612,3.34596],[-58.1394,3.37112],[-58.1457,3.38269],[-58.15402,3.42195],[-58.16586,3.46372],[-58.16712,3.51655],[-58.17771,3.53643],[-58.18956,3.5475],[-58.19183,3.5714],[-58.21451,3.61416],[-58.22258,3.63681],[-58.23795,3.65341],[-58.26619,3.67907],[-58.28509,3.70347],[-58.28963,3.71378],[-58.28963,3.73088],[-58.30047,3.74799],[-58.31988,3.76937],[-58.33702,3.83225],[-58.33803,3.86016],[-58.34206,3.86695],[-58.34534,3.89487],[-58.36071,3.92605],[-58.3655,3.9517],[-58.35214,3.97735],[-58.35265,4.03242],[-58.36021,4.091],[-58.38138,4.13752],[-58.38567,4.15939],[-58.40382,4.17623],[-58.44339,4.22676],[-58.46482,4.25668],[-58.47656,4.25221],[-58.49997,4.26295],[-58.5247,4.28008],[-58.54793,4.27857],[-58.57266,4.28422],[-58.60589,4.2701],[-58.658,4.25617],[-58.67707,4.25278],[-58.69897,4.21041],[-58.72862,4.17256],[-58.73938,4.15204],[-58.77148,4.13659],[-58.8083,4.10533],[-58.83341,4.07407],[-58.88382,4.03038],[-58.92838,3.99911],[-58.94839,3.99911],[-58.9888,4.01305],[-59.01042,4.04017],[-59.01391,4.05382],[-59.05375,4.0962],[-59.06017,4.10778],[-59.07049,4.14859],[-59.06998,4.16504],[-59.08338,4.1748],[-59.10554,4.18406],[-59.1277,4.18508],[-59.13904,4.1712],[-59.15656,4.16349],[-59.1612,4.15219],[-59.17666,4.14653],[-59.19161,4.15167],[-59.2684,4.15527],[-59.27716,4.14602],[-59.29726,4.15167],[-59.31994,4.15424],[-59.33437,4.14602],[-59.3921,4.15064],[-59.4493,4.15887],[-59.47868,4.17532],[-59.50239,4.19485],[-59.50806,4.21849],[-59.4993,4.23648],[-59.4828,4.25601],[-59.47868,4.27143],[-59.48074,4.29764],[-59.48641,4.32385],[-59.50187,4.36445],[-59.46064,4.40248],[-59.45446,4.42509],[-59.46683,4.43948],[-59.49466,4.45027],[-59.49569,4.47442],[-59.48435,4.49754],[-59.48744,4.51244],[-59.50548,4.52015],[-59.54001,4.50833],[-59.59619,4.45592],[-59.60598,4.4292],[-59.62711,4.38552],[-59.65494,4.37486],[-59.66948,4.37629],[-59.68325,4.36103],[-59.67551,4.34639],[-59.68998,4.33496],[-59.71119,4.30701],[-59.73189,4.28587],[-59.72865,4.26798],[-59.71989,4.27452],[-59.7123,4.27176],[-59.71679,4.26271],[-59.73949,4.2339],[-59.73535,4.22892],[-59.73738,4.20985],[-59.72657,4.19037],[-59.73069,4.18076],[-59.70613,4.16071],[-59.68477,4.14722],[-59.65949,4.14625],[-59.63417,4.14132],[-59.61818,4.13166],[-59.62435,4.12613],[-59.63842,4.09434],[-59.65406,4.06943],[-59.6425,4.0674],[-59.62852,4.05207],[-59.61705,4.0504],[-59.61942,4.03812],[-59.60193,4.03021],[-59.60055,4.01719],[-59.61285,4.01545],[-59.60656,4.0068],[-59.59558,4.01793],[-59.59617,4.00293],[-59.58616,3.99343],[-59.58084,4.00226],[-59.57144,3.9869],[-59.5864,3.97549],[-59.58417,3.96851],[-59.56949,3.96886],[-59.55535,3.97937],[-59.54395,3.97275],[-59.52665,3.96887],[-59.5153,3.94492],[-59.52591,3.93884],[-59.52749,3.92365],[-59.5383,3.93189],[-59.53891,3.92452],[-59.5497,3.91841],[-59.56474,3.91733],[-59.5688,3.88972],[-59.57481,3.89197],[-59.59279,3.88538],[-59.58985,3.86847],[-59.59324,3.86078],[-59.58575,3.83446],[-59.57749,3.83208],[-59.57745,3.8172],[-59.58337,3.82273],[-59.59727,3.81497],[-59.59525,3.79557],[-59.61151,3.8035],[-59.61811,3.79096],[-59.62903,3.78407],[-59.62966,3.79859],[-59.63985,3.78433],[-59.65546,3.78611],[-59.66555,3.78126],[-59.66847,3.76719],[-59.67978,3.75649],[-59.66374,3.7345],[-59.67146,3.72827],[-59.66271,3.71406],[-59.66841,3.70278],[-59.68014,3.69618],[-59.68582,3.69934],[-59.6917,3.68892],[-59.70517,3.68854],[-59.71908,3.67402],[-59.72376,3.6637],[-59.74235,3.66001],[-59.75644,3.64558],[-59.7637,3.62683],[-59.77604,3.62512],[-59.78787,3.61653],[-59.81719,3.619],[-59.83547,3.60661],[-59.85064,3.60449],[-59.85893,3.58037],[-59.86728,3.57776],[-59.85906,3.57086],[-59.86989,3.55885],[-59.84599,3.5542],[-59.83892,3.52921],[-59.83313,3.52186],[-59.81734,3.52088],[-59.80591,3.51083],[-59.80193,3.4953],[-59.8114,3.48584],[-59.82719,3.47796],[-59.81178,3.47668],[-59.81118,3.46828],[-59.82336,3.47218],[-59.83133,3.45155],[-59.83944,3.44291],[-59.84042,3.42475],[-59.82937,3.4225],[-59.81313,3.42836],[-59.82133,3.41695],[-59.81147,3.37964],[-59.80419,3.36931],[-59.80564,3.35409],[-59.82611,3.35669],[-59.83431,3.35041],[-59.82749,3.33366],[-59.84252,3.31876],[-59.84158,3.30862],[-59.84947,3.30659],[-59.85822,3.27898],[-59.86799,3.27953],[-59.88127,3.25901],[-59.87885,3.24513],[-59.88697,3.23764],[-59.87447,3.22906],[-59.88616,3.2161],[-59.90328,3.21602],[-59.9126,3.19503],[-59.90918,3.17603],[-59.90126,3.16039],[-59.90232,3.14985],[-59.92091,3.14904],[-59.91563,3.13988],[-59.91823,3.12643],[-59.90861,3.12456],[-59.90821,3.11288],[-59.91616,3.11164],[-59.92164,3.12148],[-59.93905,3.10012],[-59.94104,3.08646],[-59.95533,3.08225],[-59.95135,3.05777],[-59.952,3.03961],[-59.96245,3.01636],[-59.94763,3.00289],[-59.96501,2.96256],[-59.95905,2.95513],[-59.98421,2.92959],[-59.98636,2.90818],[-59.97817,2.89628],[-59.99009,2.88198],[-59.98264,2.86777],[-59.9918,2.83464],[-59.98699,2.80279],[-59.99332,2.78266],[-59.98734,2.74436],[-59.99286,2.73509],[-59.98951,2.71825],[-59.99082,2.68321],[-59.97863,2.67384],[-59.97145,2.65676],[-59.9782,2.64196],[-59.96478,2.62638],[-59.95891,2.60781],[-59.96715,2.6086],[-59.97232,2.59871],[-59.96391,2.59231],[-59.94191,2.58382],[-59.92911,2.56911],[-59.93822,2.55553],[-59.93331,2.54415],[-59.91841,2.52593],[-59.92034,2.50737],[-59.91263,2.49493],[-59.89707,2.48061],[-59.90082,2.47177],[-59.89358,2.46427],[-59.90082,2.43731],[-59.89197,2.4274],[-59.89841,2.42329],[-59.89617,2.41249],[-59.90901,2.39067],[-59.905,2.37565],[-59.88961,2.35606],[-59.88196,2.35272],[-59.87498,2.36051],[-59.86966,2.35062],[-59.84392,2.3295],[-59.84338,2.3203],[-59.82871,2.32889],[-59.82416,2.31813],[-59.80472,2.30547],[-59.80474,2.29912],[-59.78027,2.28568],[-59.76969,2.29542],[-59.75057,2.28773],[-59.74103,2.29295],[-59.72313,2.27615],[-59.72864,2.26691],[-59.71976,2.23849],[-59.73012,2.23134],[-59.72894,2.19851],[-59.74045,2.18038],[-59.73956,2.14666],[-59.72539,2.13082],[-59.72813,2.12224],[-59.72181,2.11663],[-59.72313,2.09832],[-59.7344,2.09088],[-59.74231,2.07353],[-59.7372,2.05025],[-59.72219,2.02328],[-59.73255,2.01726],[-59.73359,1.98342],[-59.74088,1.97495],[-59.73695,1.96603],[-59.74024,1.94873],[-59.746,1.941],[-59.745,1.929],[-59.756,1.922],[-59.754,1.912],[-59.759,1.901],[-59.746,1.879],[-59.753,1.867],[-59.746,1.852],[-59.72,1.85],[-59.71,1.855],[-59.691,1.854],[-59.677,1.839],[-59.665,1.849],[-59.669,1.861],[-59.662,1.863],[-59.649,1.844],[-59.658,1.825],[-59.654,1.817],[-59.678,1.807],[-59.688,1.779],[-59.68845,1.76473]]]},"properties":{"Region":"9","name":"Upper Takutu-Upper Essequibo","Area (km)":57750,"Pop1980":12873,"Pop1991":15057,"Pop2002":19387,"Pop2012":24238}}
]}