{"type":"FeatureCollection", "features": [
{"type":"Feature","geometry":{"type":"Polygon","coordinates":[[[-59.14478,7.85251],[-59.14355,7.85328],[-59.14433,7.85674],[-59.14234,7.86332],[-59.13755,7.86837],[-59.13288,7.87049],[-59.13112,7.87264],[-59.12997,7.87617],[-59.12154,7.88119],[-59.12146,7.88587],[-59.12438,7.897],[-59.12915,7.90869],[-59.13476,7.91969],[-59.14017,7.92864],[-59.14856,7.9412],[-59.16042,7.95447],[-59.16907,7.96165],[-59.17724,7.96988],[-59.19739,7.98558],[-59.21416,8.00008],[-59.24321,8.01872],[-59.24598,8.01689],[-59.25124,8.01151],[-59.25735,8.00254],[-59.2607,8.00029],[-59.26433,7.9957],[-59.27186,7.98222],[-59.28048,7.96556],[-59.28312,7.95744],[-59.28794,7.93991],[-59.29262,7.92789],[-59.29692,7.91846],[-59.30046,7.91215],[-59.30198,7.90825],[-59.3031,7.90116],[-59.30417,7.89108],[-59.3058,7.88311],[-59.30819,7.87928],[-59.31216,7.87689],[-59.30914,7.87166],[-59.30757,7.866],[-59.30937,7.86259],[-59.31293,7.85987],[-59.31705,7.8548],[-59.31744,7.85253],[-59.31654,7.84761],[-59.26931,7.84935],[-59.2393,7.82525],[-59.23635,7.82404],[-59.23006,7.81724],[-59.22776,7.81349],[-59.22362,7.81219],[-59.21966,7.80837],[-59.21977,7.80455],[-59.21763,7.80183],[-59.2148,7.80156],[-59.20867,7.80282],[-59.20514,7.8023],[-59.19865,7.79878],[-59.19513,7.79585],[-59.18882,7.79419],[-59.1778,7.81685],[-59.17331,7.82107],[-59.16999,7.82582],[-59.16788,7.83228],[-59.16563,7.83406],[-59.16193,7.83919],[-59.15839,7.83692],[-59.1554,7.83739],[-59.15227,7.8498],[-59.14847,7.85219],[-59.14478,7.85251]]]},"properties":{"qc_id":0,"objectid":1,"name":"Waini","ndc_code":104,"region":"Barima-Waini","status":"Not Classified"}},
{"type":"Feature","geometry":{"type":"Polygon","coordinates":[[[-60.17154,7.64016],[-60.1769,7.64563],[-60.17991,7.64618],[-60.18194,7.64901],[-60.18324,7.6496],[-60.18432,7.64962],[-60.18433,7.64962],[-60.18531,7.64961],[-60.18699,7.64951],[-60.18824,7.64942],[-60.18825,7.64942],[-60.18959,7.6495],[-60.18961,7.6495],[-60.19061,7.6494],[-60.1915,7.64939],[-60.19152,7.64939],[-60.19287,7.64954],[-60.19749,7.65062],[-60.19961,7.65139],[-60.20108,7.65162],[-60.20109,7.65162],[-60.20266,7.65125],[-60.20489,7.65064],[-60.20763,7.64863],[-60.20998,7.64775],[-60.21547,7.64639],[-60.21698,7.64638],[-60.21857,7.64683],[-60.22144,7.64946],[-60.22344,7.65807],[-60.22664,7.66199],[-60.22985,7.66325],[-60.24289,7.66394],[-60.24462,7.66488],[-60.2501,7.67191],[-60.25493,7.67509],[-60.25882,7.67548],[-60.26231,7.67948],[-60.26698,7.68279],[-60.2684,7.68533],[-60.26758,7.68837],[-60.26392,7.69602],[-60.26225,7.70395],[-60.26028,7.70741],[-60.25927,7.71187],[-60.25987,7.71363],[-60.26411,7.71865],[-60.27159,7.72309],[-60.27763,7.72413],[-60.28186,7.72611],[-60.28546,7.73029],[-60.29439,7.73627],[-60.29655,7.74259],[-60.29696,7.7481],[-60.29393,7.75704],[-60.28992,7.76494],[-60.29279,7.77214],[-60.29814,7.78036],[-60.30884,7.79006],[-60.31143,7.79361],[-60.31413,7.79922],[-60.31982,7.80524],[-60.32988,7.81047],[-60.3381,7.81122],[-60.33812,7.81122],[-60.34342,7.81111],[-60.34644,7.8108],[-60.34843,7.81063],[-60.34845,7.81063],[-60.35186,7.81097],[-60.35694,7.81162],[-60.3618,7.81279],[-60.36406,7.81531],[-60.36634,7.82248],[-60.3669,7.82731],[-60.36818,7.82791],[-60.37087,7.83305],[-60.37287,7.83219],[-60.37663,7.83313],[-60.37715,7.83666],[-60.3795,7.83981],[-60.37988,7.83669],[-60.38218,7.83318],[-60.38719,7.83085],[-60.38893,7.82886],[-60.39321,7.82971],[-60.3969,7.82727],[-60.39969,7.82766],[-60.40218,7.82627],[-60.40138,7.82358],[-60.40482,7.82079],[-60.40686,7.82288],[-60.40721,7.82547],[-60.4099,7.82423],[-60.41049,7.82532],[-60.41358,7.82482],[-60.41542,7.82637],[-60.41806,7.82642],[-60.42135,7.82507],[-60.42314,7.82901],[-60.42792,7.82881],[-60.42917,7.83075],[-60.4345,7.82712],[-60.43719,7.83085],[-60.43763,7.83613],[-60.44181,7.838],[-60.44819,7.83957],[-60.44959,7.83693],[-60.45257,7.83543],[-60.45576,7.83653],[-60.45731,7.83533],[-60.46522,7.83598],[-60.46507,7.83837],[-60.46697,7.83832],[-60.47105,7.83409],[-60.47294,7.83508],[-60.47588,7.83399],[-60.47586,7.83124],[-60.48002,7.83333],[-60.48169,7.83118],[-60.4838,7.8316],[-60.48836,7.8298],[-60.49075,7.83181],[-60.49501,7.82915],[-60.4957,7.83141],[-60.49908,7.82981],[-60.49934,7.83377],[-60.50117,7.83503],[-60.50346,7.83305],[-60.50778,7.83213],[-60.50798,7.82934],[-60.51035,7.8272],[-60.51406,7.83007],[-60.51601,7.82923],[-60.51646,7.82502],[-60.51929,7.82426],[-60.52079,7.82231],[-60.52572,7.82307],[-60.53123,7.82158],[-60.53069,7.82028],[-60.53517,7.81894],[-60.53738,7.81672],[-60.53971,7.81607],[-60.54151,7.81103],[-60.53922,7.80758],[-60.53539,7.80491],[-60.5371,7.80298],[-60.53473,7.80133],[-60.5345,7.799],[-60.53235,7.79803],[-60.53223,7.79509],[-60.53821,7.79109],[-60.53847,7.78793],[-60.54143,7.78774],[-60.54372,7.78528],[-60.54367,7.78317],[-60.54609,7.78203],[-60.54929,7.78251],[-60.54938,7.78098],[-60.55207,7.77807],[-60.55116,7.7752],[-60.55147,7.76991],[-60.55339,7.7689],[-60.55598,7.77048],[-60.55891,7.77019],[-60.56004,7.76717],[-60.5624,7.7655],[-60.56171,7.76348],[-60.56382,7.76093],[-60.56294,7.75725],[-60.56417,7.75567],[-60.56382,7.75303],[-60.5677,7.74717],[-60.56707,7.74436],[-60.57198,7.74014],[-60.575,7.74197],[-60.57674,7.73838],[-60.57914,7.73652],[-60.58143,7.73838],[-60.58364,7.73422],[-60.58275,7.73214],[-60.5843,7.73028],[-60.58267,7.72822],[-60.57969,7.72833],[-60.57834,7.72634],[-60.57617,7.72627],[-60.57471,7.72296],[-60.57642,7.72081],[-60.57538,7.71856],[-60.57069,7.71482],[-60.57095,7.71157],[-60.56866,7.70912],[-60.56994,7.70696],[-60.56814,7.7056],[-60.57086,7.70231],[-60.57442,7.70125],[-60.57534,7.69888],[-60.57942,7.69625],[-60.57942,7.69221],[-60.57745,7.68892],[-60.5803,7.68848],[-60.58188,7.68654],[-60.58212,7.6787],[-60.58473,7.67845],[-60.58967,7.67953],[-60.59026,7.67714],[-60.59338,7.6739],[-60.59253,7.67291],[-60.59278,7.66753],[-60.58981,7.66575],[-60.59047,7.6642],[-60.58772,7.66065],[-60.59158,7.65721],[-60.58931,7.65409],[-60.59222,7.6497],[-60.58985,7.64365],[-60.59123,7.64169],[-60.59082,7.63695],[-60.58838,7.6353],[-60.59032,7.63148],[-60.59284,7.63127],[-60.59717,7.6342],[-60.59779,7.63736],[-60.60124,7.63965],[-60.60506,7.63787],[-60.6077,7.64039],[-60.61001,7.64105],[-60.61236,7.64347],[-60.61784,7.64268],[-60.62202,7.63825],[-60.6252,7.6331],[-60.6251,7.62635],[-60.6261,7.62331],[-60.62431,7.62092],[-60.6205,7.61898],[-60.61953,7.61694],[-60.62247,7.61234],[-60.62292,7.61002],[-60.62728,7.60971],[-60.6297,7.60325],[-60.63959,7.60072],[-60.63845,7.59719],[-60.64087,7.59603],[-60.6423,7.5928],[-60.64171,7.58916],[-60.6398,7.58635],[-60.63914,7.5832],[-60.6369,7.58253],[-60.63887,7.57758],[-60.64316,7.5744],[-60.64599,7.57523],[-60.64624,7.57097],[-60.65104,7.56955],[-60.65471,7.56668],[-60.65751,7.56637],[-60.66035,7.56457],[-60.66239,7.569],[-60.6645,7.56883],[-60.66557,7.57063],[-60.67242,7.56876],[-60.67335,7.56634],[-60.6756,7.56489],[-60.67924,7.56599],[-60.68252,7.5681],[-60.68349,7.57281],[-60.6856,7.57502],[-60.68574,7.5781],[-60.68944,7.5782],[-60.69234,7.57557],[-60.69044,7.57142],[-60.69079,7.56955],[-60.68857,7.56655],[-60.68885,7.56274],[-60.6901,7.56087],[-60.68768,7.55811],[-60.69262,7.55575],[-60.6938,7.55779],[-60.70213,7.55904],[-60.70469,7.56025],[-60.70743,7.55838],[-60.70656,7.55631],[-60.70846,7.55468],[-60.71002,7.55558],[-60.71165,7.55312],[-60.70957,7.54932],[-60.7122,7.547],[-60.71082,7.54538],[-60.71441,7.54078],[-60.71725,7.54136],[-60.72036,7.53884],[-60.71794,7.53496],[-60.714,7.53441],[-60.71372,7.53137],[-60.71144,7.52971],[-60.71355,7.52566],[-60.70867,7.52303],[-60.70698,7.51732],[-60.70843,7.51708],[-60.7103,7.51386],[-60.70833,7.51065],[-60.70639,7.51072],[-60.70431,7.50677],[-60.70431,7.50158],[-60.70566,7.49557],[-60.70411,7.49384],[-60.70044,7.48723],[-60.69778,7.48584],[-60.69653,7.48256],[-60.69764,7.47906],[-60.69501,7.47775],[-60.69283,7.47453],[-60.68934,7.47453],[-60.6856,7.47585],[-60.68249,7.47036],[-60.68397,7.46925],[-60.68328,7.46274],[-60.6774,7.45928],[-60.67228,7.45375],[-60.67111,7.4554],[-60.66671,7.45689],[-60.66488,7.4599],[-60.65997,7.45838],[-60.65845,7.45655],[-60.65561,7.45565],[-60.65564,7.45399],[-60.65191,7.45215],[-60.64838,7.45292],[-60.64423,7.44925],[-60.63921,7.44724],[-60.64056,7.4443],[-60.638,7.44302],[-60.63904,7.44017],[-60.63713,7.43392],[-60.63977,7.43203],[-60.63964,7.42959],[-60.6424,7.42796],[-60.64121,7.42269],[-60.64311,7.41839],[-60.64154,7.41661],[-60.6381,7.41646],[-60.63677,7.41397],[-60.62871,7.4089],[-60.62744,7.40949],[-60.62447,7.40476],[-60.62533,7.40262],[-60.62266,7.4012],[-60.61943,7.40156],[-60.6173,7.3975],[-60.61398,7.39518],[-60.6098,7.3967],[-60.60722,7.39357],[-60.61256,7.39032],[-60.61119,7.38843],[-60.61158,7.3833],[-60.60888,7.38007],[-60.60731,7.37568],[-60.61134,7.3691],[-60.60879,7.36685],[-60.60642,7.36146],[-60.60153,7.35657],[-60.5988,7.35633],[-60.59584,7.35449],[-60.59374,7.3518],[-60.59341,7.34738],[-60.59803,7.33888],[-60.59145,7.33173],[-60.59341,7.32335],[-60.59119,7.32086],[-60.58982,7.31739],[-60.58805,7.31641],[-60.58813,7.31428],[-60.59142,7.31093],[-60.59243,7.30791],[-60.59913,7.30752],[-60.60141,7.30853],[-60.60695,7.30731],[-60.60817,7.30233],[-60.61048,7.30278],[-60.61202,7.29993],[-60.61543,7.29869],[-60.61493,7.29243],[-60.61291,7.28808],[-60.61404,7.28513],[-60.61632,7.28354],[-60.61617,7.27791],[-60.62272,7.2764],[-60.62719,7.27314],[-60.62782,7.27125],[-60.63037,7.27113],[-60.63226,7.26695],[-60.63617,7.26173],[-60.63466,7.25708],[-60.63443,7.25352],[-60.63671,7.25106],[-60.63668,7.24763],[-60.63795,7.24599],[-60.63499,7.24208],[-60.63546,7.23945],[-60.63214,7.23488],[-60.62868,7.2315],[-60.62771,7.22767],[-60.62876,7.22492],[-60.62545,7.21734],[-60.62447,7.21097],[-60.62088,7.2091],[-60.61824,7.20456],[-60.61229,7.20284],[-60.61072,7.20451],[-60.6063,7.20587],[-60.60378,7.20504],[-60.59941,7.20137],[-60.59798,7.19304],[-60.59914,7.19127],[-60.59943,7.18437],[-60.59605,7.18262],[-60.59374,7.1785],[-60.58858,7.17572],[-60.58381,7.17652],[-60.5817,7.17504],[-60.57794,7.17453],[-60.57604,7.17021],[-60.57219,7.16668],[-60.56846,7.1622],[-60.56623,7.15808],[-60.56155,7.15515],[-60.55868,7.15435],[-60.55737,7.15008],[-60.55794,7.14774],[-60.55542,7.14493],[-60.55162,7.13592],[-60.54934,7.13429],[-60.54765,7.12738],[-60.54507,7.12439],[-60.54184,7.12483],[-60.53959,7.12374],[-60.53716,7.12673],[-60.53969,7.13049],[-60.5358,7.13482],[-60.5274,7.13802],[-60.52666,7.14008],[-60.52955,7.14356],[-60.5277,7.14613],[-60.52856,7.14872],[-60.52517,7.15018],[-60.52257,7.15513],[-60.52022,7.15647],[-60.52192,7.15879],[-60.52198,7.16478],[-60.51986,7.16702],[-60.5162,7.16365],[-60.51134,7.16562],[-60.51204,7.16944],[-60.50927,7.17202],[-60.50292,7.17247],[-60.50527,7.17725],[-60.50374,7.17946],[-60.50475,7.18159],[-60.50251,7.18484],[-60.50154,7.1888],[-60.50023,7.18962],[-60.49776,7.1851],[-60.49231,7.18645],[-60.48943,7.18402],[-60.48827,7.18588],[-60.4839,7.18413],[-60.48267,7.18719],[-60.4753,7.1894],[-60.47236,7.19131],[-60.47116,7.19448],[-60.46705,7.196],[-60.46601,7.19458],[-60.46491,7.19697],[-60.462,7.19972],[-60.4618,7.20186],[-60.4595,7.20477],[-60.4574,7.20283],[-60.45371,7.20471],[-60.45089,7.20387],[-60.4495,7.20481],[-60.444,7.20099],[-60.44248,7.1982],[-60.43921,7.19781],[-60.43846,7.20066],[-60.43574,7.19956],[-60.43312,7.20095],[-60.43027,7.19959],[-60.42804,7.19493],[-60.42519,7.19409],[-60.42477,7.19004],[-60.42289,7.18742],[-60.42066,7.17645],[-60.41528,7.17758],[-60.41253,7.17709],[-60.40942,7.17331],[-60.40632,7.1759],[-60.40334,7.17716],[-60.3991,7.17648],[-60.39518,7.17703],[-60.3922,7.1791],[-60.38553,7.1813],[-60.38314,7.17998],[-60.3809,7.18192],[-60.37522,7.18281],[-60.36711,7.18479],[-60.36494,7.18173],[-60.36391,7.18287],[-60.36068,7.18163],[-60.35692,7.17623],[-60.35696,7.1733],[-60.35397,7.16926],[-60.35023,7.17064],[-60.34728,7.1684],[-60.34878,7.16464],[-60.34702,7.16203],[-60.3473,7.15739],[-60.34481,7.15758],[-60.34504,7.15472],[-60.34014,7.1536],[-60.33269,7.15791],[-60.32347,7.1518],[-60.31795,7.15173],[-60.31442,7.14757],[-60.31125,7.1461],[-60.31045,7.14418],[-60.30761,7.14461],[-60.30759,7.14215],[-60.30371,7.14199],[-60.30344,7.1392],[-60.30038,7.13961],[-60.29844,7.13516],[-60.29703,7.13572],[-60.27638,7.12376],[-60.25612,7.09715],[-60.24226,7.08961],[-60.23124,7.08828],[-60.20591,7.09715],[-60.1916,7.10484],[-60.17805,7.10158],[-60.16091,7.08532],[-60.15004,7.07394],[-60.11711,7.06359],[-60.10191,7.06536],[-60.08299,7.08103],[-60.0666,7.10765],[-60.0587,7.12317],[-60.02488,7.12421],[-60.00775,7.1211],[-59.99434,7.11105],[-59.98599,7.10824],[-59.97899,7.11267],[-59.95724,7.13086],[-59.9398,7.14402],[-59.9325,7.15318],[-59.92803,7.16575],[-59.92222,7.19221],[-59.90956,7.19945],[-59.90077,7.20196],[-59.85622,7.20256],[-59.83715,7.19842],[-59.81852,7.18142],[-59.7993,7.1653],[-59.78709,7.15791],[-59.73911,7.12849],[-59.71706,7.11814],[-59.70127,7.11046],[-59.68964,7.10868],[-59.67832,7.10942],[-59.64971,7.11016],[-59.62781,7.10868],[-59.6077,7.09804],[-59.59727,7.08813],[-59.58356,7.07364],[-59.55734,7.0488],[-59.53335,7.02706],[-59.50906,7.01449],[-59.49044,7.00606],[-59.47062,7.00251],[-59.45602,6.99098],[-59.43367,6.98107],[-59.39791,6.96835],[-59.38093,6.96332],[-59.36767,6.96155],[-59.35888,6.9651],[-59.35187,6.96732],[-59.3407,6.97634],[-59.32833,6.99142],[-59.32133,7.00636],[-59.31433,7.01819],[-59.29958,7.02736],[-59.2887,7.03002],[-59.27231,7.02632],[-59.25935,7.02159],[-59.23983,7.01789],[-59.23223,7.0136],[-59.20512,7.00355],[-59.19349,7.00222],[-59.17874,7.00237],[-59.18097,7.02513],[-59.19392,7.05259],[-59.19274,7.09729],[-59.18156,7.18229],[-59.1377,7.28917],[-59.10119,7.35195],[-59.10855,7.39048],[-59.12592,7.41792],[-59.11827,7.45499],[-59.09972,7.47105],[-59.03236,7.53],[-58.944,7.55773],[-58.90602,7.58049],[-58.9046,7.5977],[-58.8863,7.60266],[-58.86069,7.62542],[-58.81123,7.67006],[-58.79934,7.67901],[-58.80223,7.6864],[-58.80519,7.69075],[-58.8063,7.69367],[-58.81241,7.70146],[-58.81464,7.70621],[-58.81717,7.70934],[-58.8178,7.71193],[-58.82159,7.71705],[-58.82238,7.72066],[-58.82472,7.72451],[-58.83106,7.73206],[-58.83313,7.73289],[-58.83468,7.73532],[-58.837,7.73539],[-58.84335,7.73995],[-58.84541,7.74231],[-58.84949,7.74398],[-58.85065,7.74604],[-58.85374,7.74469],[-58.85918,7.74781],[-58.86254,7.74857],[-58.86773,7.75293],[-58.86928,7.75318],[-58.87421,7.75857],[-58.87682,7.76397],[-58.88201,7.76807],[-58.88539,7.77501],[-58.88695,7.77655],[-58.89057,7.77756],[-58.89213,7.77936],[-58.89266,7.78271],[-58.89863,7.78526],[-58.89915,7.78835],[-58.90536,7.79142],[-58.9077,7.79359],[-58.91339,7.79498],[-58.91366,7.79807],[-58.91859,7.80217],[-58.92197,7.8086],[-58.92405,7.81117],[-58.9269,7.81141],[-58.93519,7.81743],[-58.93622,7.81729],[-58.93908,7.82089],[-58.94169,7.82654],[-58.94637,7.83142],[-58.94793,7.83425],[-58.95286,7.83886],[-58.95559,7.84297],[-58.95715,7.84734],[-58.96015,7.85067],[-58.96588,7.85967],[-58.96639,7.85967],[-58.97237,7.86711],[-58.98197,7.87608],[-58.98509,7.87968],[-58.98846,7.88224],[-58.99341,7.88968],[-59.00459,7.90329],[-59.00614,7.90379],[-59.00797,7.90739],[-59.01004,7.90867],[-59.01407,7.91483],[-59.01862,7.92022],[-59.02329,7.92355],[-59.029,7.92868],[-59.03238,7.93355],[-59.03471,7.93432],[-59.04069,7.9406],[-59.05264,7.95419],[-59.05784,7.95971],[-59.06825,7.97383],[-59.07969,7.98691],[-59.08722,7.99499],[-59.08852,7.99549],[-59.10385,8.01126],[-59.11268,8.01972],[-59.11501,8.02125],[-59.12073,8.02716],[-59.12591,8.03073],[-59.12774,8.03278],[-59.13733,8.03943],[-59.1407,8.04096],[-59.15186,8.04913],[-59.15498,8.05325],[-59.16277,8.05965],[-59.16147,8.05708],[-59.17312,8.06217],[-59.18168,8.0683],[-59.18894,8.07136],[-59.1931,8.07521],[-59.19828,8.07827],[-59.2001,8.08031],[-59.20737,8.08594],[-59.21385,8.08951],[-59.21412,8.0908],[-59.21879,8.09322],[-59.22579,8.09782],[-59.23201,8.10049],[-59.23383,8.10203],[-59.25534,8.1117],[-59.25872,8.11348],[-59.2652,8.11886],[-59.27663,8.12652],[-59.2831,8.13009],[-59.28493,8.1324],[-59.28959,8.13495],[-59.29297,8.13802],[-59.29945,8.14082],[-59.30438,8.14414],[-59.31785,8.14999],[-59.31942,8.15178],[-59.32589,8.15432],[-59.32927,8.15713],[-59.33731,8.16198],[-59.33757,8.16275],[-59.34536,8.16734],[-59.35055,8.17169],[-59.35885,8.17577],[-59.37182,8.18342],[-59.37182,8.18393],[-59.38168,8.18928],[-59.38194,8.19005],[-59.39153,8.19412],[-59.39491,8.19668],[-59.40321,8.20075],[-59.40659,8.20382],[-59.42137,8.21223],[-59.43124,8.21887],[-59.44109,8.22396],[-59.44421,8.22703],[-59.45408,8.23341],[-59.45746,8.23648],[-59.46549,8.23902],[-59.4725,8.24386],[-59.4821,8.24946],[-59.48884,8.25148],[-59.49532,8.25479],[-59.5083,8.26244],[-59.5153,8.26625],[-59.52022,8.26957],[-59.52516,8.27133],[-59.52852,8.27337],[-59.54668,8.28074],[-59.5485,8.28253],[-59.57158,8.29371],[-59.57315,8.29525],[-59.57885,8.2983],[-59.59156,8.30414],[-59.60326,8.31044],[-59.62091,8.32165],[-59.6243,8.32472],[-59.63079,8.32931],[-59.6378,8.33339],[-59.6417,8.33619],[-59.65206,8.34186],[-59.65856,8.34748],[-59.66349,8.35028],[-59.66376,8.35131],[-59.67181,8.35615],[-59.67493,8.35871],[-59.68505,8.36404],[-59.69491,8.36861],[-59.70634,8.37677],[-59.71958,8.38363],[-59.73125,8.38922],[-59.73956,8.39405],[-59.75434,8.39936],[-59.75434,8.39987],[-59.76781,8.40312],[-59.77195,8.40284],[-59.79289,8.40269],[-59.7991,8.40342],[-59.80427,8.40325],[-59.80815,8.40232],[-59.81201,8.39998],[-59.81262,8.39534],[-59.81608,8.39068],[-59.81401,8.39069],[-59.80699,8.38508],[-59.80698,8.38431],[-59.80178,8.38074],[-59.79763,8.37897],[-59.78543,8.37107],[-59.7724,8.36367],[-59.76594,8.35859],[-59.76,8.35304],[-59.76398,8.34978],[-59.76541,8.35098],[-59.77263,8.35286],[-59.77728,8.35297],[-59.78089,8.35179],[-59.78255,8.34817],[-59.78049,8.34483],[-59.78144,8.34253],[-59.78208,8.34236],[-59.77465,8.33823],[-59.77125,8.33758],[-59.76852,8.33624],[-59.76579,8.33423],[-59.76101,8.33223],[-59.75555,8.33024],[-59.75282,8.32666],[-59.752,8.32596],[-59.75135,8.32591],[-59.75005,8.32599],[-59.74279,8.32073],[-59.74156,8.31849],[-59.73979,8.31644],[-59.73584,8.31153],[-59.72241,8.29691],[-59.71559,8.29043],[-59.7135,8.28824],[-59.7014,8.27445],[-59.68631,8.26237],[-59.68293,8.25967],[-59.67042,8.25044],[-59.66866,8.24927],[-59.66715,8.24872],[-59.66713,8.24872],[-59.66599,8.24874],[-59.66475,8.24876],[-59.66474,8.24876],[-59.66328,8.24831],[-59.662,8.24799],[-59.65825,8.24712],[-59.65357,8.24401],[-59.645,8.23616],[-59.63926,8.23306],[-59.6353,8.22928],[-59.62515,8.22244],[-59.61787,8.21851],[-59.60834,8.21419],[-59.60019,8.21114],[-59.595,8.21015],[-59.59048,8.20997],[-59.59047,8.20997],[-59.58731,8.21011],[-59.58482,8.21023],[-59.58258,8.21042],[-59.58168,8.21031],[-59.58061,8.21008],[-59.57889,8.20992],[-59.5624,8.20606],[-59.55085,8.20012],[-59.54091,8.19384],[-59.52917,8.18239],[-59.51814,8.17297],[-59.5111,8.16828],[-59.50566,8.16369],[-59.50229,8.16268],[-59.49866,8.1598],[-59.4995,8.15681],[-59.49596,8.15417],[-59.49289,8.15024],[-59.49076,8.14886],[-59.48146,8.14083],[-59.47332,8.1359],[-59.46042,8.12628],[-59.45438,8.12145],[-59.44724,8.11503],[-59.43847,8.10904],[-59.43433,8.10699],[-59.4324,8.10647],[-59.42955,8.10605],[-59.42719,8.10587],[-59.42718,8.10587],[-59.42477,8.10614],[-59.42236,8.10629],[-59.41966,8.10673],[-59.41367,8.10679],[-59.41365,8.10679],[-59.41085,8.10678],[-59.40882,8.10667],[-59.4052,8.10544],[-59.40149,8.10312],[-59.39145,8.09199],[-59.38646,8.08771],[-59.37983,8.08074],[-59.3676,8.06917],[-59.36168,8.06067],[-59.35039,8.0454],[-59.34348,8.03436],[-59.33969,8.02155],[-59.33857,8.01346],[-59.33883,8.00726],[-59.34117,7.99992],[-59.3424,7.99889],[-59.34253,7.98768],[-59.34386,7.97993],[-59.34678,7.97242],[-59.35119,7.96412],[-59.35632,7.95679],[-59.36077,7.95265],[-59.36322,7.95119],[-59.37264,7.94715],[-59.37856,7.94223],[-59.38228,7.93839],[-59.38641,7.9313],[-59.387,7.92004],[-59.38578,7.91614],[-59.37936,7.90855],[-59.37667,7.9013],[-59.37566,7.89529],[-59.37543,7.88545],[-59.37653,7.88283],[-59.38162,7.87738],[-59.38757,7.87327],[-59.40098,7.8622],[-59.40367,7.85885],[-59.40532,7.85533],[-59.40718,7.84767],[-59.40704,7.84301],[-59.40505,7.83773],[-59.40317,7.83525],[-59.39575,7.82802],[-59.39226,7.8234],[-59.38961,7.8179],[-59.38824,7.80951],[-59.38914,7.80269],[-59.39136,7.79714],[-59.39295,7.79532],[-59.40008,7.79044],[-59.40583,7.7872],[-59.41137,7.78363],[-59.41251,7.78375],[-59.41074,7.78629],[-59.40477,7.78962],[-59.4027,7.79274],[-59.40666,7.79776],[-59.40588,7.80065],[-59.4021,7.80553],[-59.40189,7.8092],[-59.4035,7.81338],[-59.40438,7.81358],[-59.4044,7.81357],[-59.4044,7.81358],[-59.40553,7.81343],[-59.40711,7.81271],[-59.40785,7.8122],[-59.40883,7.81163],[-59.40989,7.81163],[-59.41072,7.81199],[-59.41383,7.8177],[-59.41267,7.82311],[-59.41111,7.82431],[-59.41251,7.82836],[-59.41438,7.83061],[-59.41533,7.83095],[-59.41534,7.83095],[-59.41617,7.83074],[-59.41936,7.82927],[-59.4213,7.82687],[-59.42211,7.82638],[-59.42298,7.82603],[-59.42397,7.82639],[-59.42497,7.83016],[-59.42064,7.83822],[-59.4212,7.84091],[-59.43258,7.85038],[-59.43357,7.85086],[-59.43444,7.85102],[-59.43445,7.85102],[-59.43446,7.85102],[-59.43532,7.85098],[-59.43636,7.85058],[-59.4379,7.8498],[-59.43899,7.84947],[-59.43905,7.84945],[-59.43961,7.84925],[-59.43948,7.84832],[-59.43939,7.84771],[-59.44226,7.84135],[-59.45123,7.82949],[-59.45322,7.82768],[-59.45329,7.82762],[-59.45533,7.82655],[-59.46187,7.82542],[-59.46432,7.82546],[-59.46524,7.82571],[-59.46642,7.82602],[-59.46643,7.82602],[-59.46644,7.82603],[-59.46757,7.82698],[-59.47108,7.82884],[-59.47121,7.82892],[-59.47271,7.82981],[-59.47274,7.82981],[-59.47342,7.82992],[-59.47484,7.83012],[-59.47542,7.83007],[-59.47601,7.83003],[-59.47727,7.82989],[-59.47876,7.82948],[-59.48124,7.82837],[-59.48401,7.82857],[-59.48402,7.82857],[-59.48501,7.82823],[-59.48502,7.82822],[-59.4866,7.82874],[-59.49021,7.83126],[-59.49594,7.8327],[-59.5027,7.83304],[-59.50782,7.83628],[-59.51075,7.83917],[-59.51404,7.84096],[-59.51662,7.84603],[-59.517,7.84893],[-59.51844,7.85044],[-59.51845,7.85045],[-59.52224,7.84562],[-59.52531,7.84424],[-59.52684,7.844],[-59.52821,7.8442],[-59.53113,7.84486],[-59.53363,7.84562],[-59.53486,7.8458],[-59.53488,7.8458],[-59.53588,7.8458],[-59.53699,7.84566],[-59.53811,7.84523],[-59.54379,7.84063],[-59.54498,7.83729],[-59.54649,7.82992],[-59.54793,7.82788],[-59.55226,7.82725],[-59.5641,7.82448],[-59.56716,7.8231],[-59.57395,7.81699],[-59.57376,7.81352],[-59.57198,7.8081],[-59.57594,7.80277],[-59.58265,7.79752],[-59.58356,7.79411],[-59.58125,7.78827],[-59.58094,7.78383],[-59.58175,7.78],[-59.5812,7.77673],[-59.57718,7.76694],[-59.57669,7.7628],[-59.57526,7.75993],[-59.57373,7.75334],[-59.56538,7.75213],[-59.56655,7.74792],[-59.56979,7.74665],[-59.57167,7.74447],[-59.57323,7.74041],[-59.57687,7.72517],[-59.58167,7.72141],[-59.58781,7.71805],[-59.58909,7.71652],[-59.58882,7.71368],[-59.5864,7.70915],[-59.5866,7.70318],[-59.59333,7.69639],[-59.59412,7.69485],[-59.59358,7.68879],[-59.59039,7.68469],[-59.58741,7.68304],[-59.58041,7.68271],[-59.57948,7.68212],[-59.57322,7.67159],[-59.57042,7.66336],[-59.57048,7.65638],[-59.56971,7.64771],[-59.56763,7.64305],[-59.56422,7.64033],[-59.54943,7.63282],[-59.54172,7.62711],[-59.53944,7.62582],[-59.53887,7.62452],[-59.54025,7.62471],[-59.54199,7.62488],[-59.54286,7.62492],[-59.54288,7.62492],[-59.54375,7.62492],[-59.54549,7.62481],[-59.55063,7.62376],[-59.55711,7.61935],[-59.56693,7.61071],[-59.57238,7.60807],[-59.57481,7.60555],[-59.58006,7.60246],[-59.58588,7.6006],[-59.59086,7.59712],[-59.59159,7.59439],[-59.591,7.59097],[-59.5928,7.58881],[-59.59235,7.58719],[-59.58595,7.58442],[-59.58387,7.58162],[-59.58365,7.57734],[-59.58569,7.57451],[-59.59104,7.57161],[-59.59696,7.57022],[-59.59958,7.56755],[-59.60104,7.56161],[-59.60157,7.55378],[-59.60342,7.54372],[-59.61164,7.53246],[-59.61544,7.52887],[-59.61923,7.52668],[-59.62917,7.52337],[-59.63082,7.5228],[-59.63246,7.52221],[-59.63656,7.52071],[-59.63823,7.52021],[-59.64161,7.51929],[-59.64494,7.51827],[-59.64749,7.51765],[-59.66168,7.51331],[-59.66339,7.51296],[-59.66513,7.51271],[-59.666,7.51261],[-59.66685,7.51269],[-59.66848,7.51328],[-59.67237,7.5153],[-59.6749,7.51595],[-59.67662,7.51624],[-59.67748,7.5164],[-59.67835,7.51653],[-59.67837,7.51653],[-59.67923,7.51651],[-59.68177,7.51585],[-59.68784,7.51467],[-59.68956,7.51443],[-59.69069,7.51434],[-59.69179,7.51439],[-59.69871,7.51821],[-59.70913,7.5227],[-59.71495,7.52454],[-59.71972,7.52671],[-59.72135,7.52953],[-59.72137,7.52952],[-59.72137,7.52953],[-59.72277,7.52916],[-59.72427,7.52826],[-59.72557,7.52387],[-59.72631,7.51607],[-59.72972,7.50203],[-59.73595,7.50114],[-59.73638,7.49684],[-59.73421,7.49102],[-59.73119,7.48771],[-59.72656,7.484],[-59.71962,7.48025],[-59.71836,7.47711],[-59.71867,7.47397],[-59.71955,7.47285],[-59.72105,7.47202],[-59.72291,7.47208],[-59.7269,7.47292],[-59.72691,7.47292],[-59.72692,7.47292],[-59.72821,7.47284],[-59.73071,7.47131],[-59.73259,7.47071],[-59.7336,7.47086],[-59.73482,7.47133],[-59.73803,7.47184],[-59.74391,7.47245],[-59.74614,7.47472],[-59.74968,7.47623],[-59.75183,7.47782],[-59.75336,7.47843],[-59.75427,7.47869],[-59.75428,7.47869],[-59.75709,7.47846],[-59.75954,7.47818],[-59.76245,7.47688],[-59.7676,7.47093],[-59.77119,7.46759],[-59.78159,7.4604],[-59.7845,7.45334],[-59.78423,7.44756],[-59.78582,7.4407],[-59.7874,7.43829],[-59.79244,7.43489],[-59.79929,7.43228],[-59.80223,7.43181],[-59.80411,7.43171],[-59.80577,7.43158],[-59.80742,7.43176],[-59.80958,7.43207],[-59.8146,7.43309],[-59.81735,7.43465],[-59.82555,7.43752],[-59.82901,7.43924],[-59.83831,7.44729],[-59.84183,7.44904],[-59.84414,7.44968],[-59.84624,7.44975],[-59.84625,7.44975],[-59.84626,7.44975],[-59.85031,7.44936],[-59.85126,7.44916],[-59.85351,7.44797],[-59.85462,7.44771],[-59.85463,7.4477],[-59.85565,7.44781],[-59.85703,7.44813],[-59.86021,7.45125],[-59.86107,7.45472],[-59.86315,7.45854],[-59.86577,7.46042],[-59.87956,7.46194],[-59.88596,7.46512],[-59.88888,7.46746],[-59.88984,7.47008],[-59.89513,7.47419],[-59.90228,7.47798],[-59.90313,7.48054],[-59.90784,7.4858],[-59.90635,7.49548],[-59.90324,7.50016],[-59.90401,7.50333],[-59.90593,7.50634],[-59.90929,7.50889],[-59.91188,7.51582],[-59.91581,7.52221],[-59.91591,7.52341],[-59.92128,7.5313],[-59.92655,7.54252],[-59.92849,7.54292],[-59.93642,7.54608],[-59.94363,7.5455],[-59.95242,7.54771],[-59.9542,7.54789],[-59.95761,7.54804],[-59.96325,7.54644],[-59.96468,7.54176],[-59.96504,7.53898],[-59.965,7.5346],[-59.96606,7.52866],[-59.96871,7.52538],[-59.97116,7.5244],[-59.97457,7.52351],[-59.97601,7.52311],[-59.98024,7.52113],[-59.98232,7.52043],[-59.98302,7.52019],[-59.98489,7.51978],[-59.9868,7.51906],[-59.98825,7.51752],[-59.98957,7.5156],[-59.99129,7.50923],[-59.99198,7.50269],[-59.99274,7.50021],[-59.9931,7.49998],[-59.99369,7.49961],[-59.99547,7.49889],[-59.99868,7.49994],[-60.00401,7.50025],[-60.00614,7.49989],[-60.01075,7.49737],[-60.01181,7.49594],[-60.01429,7.49521],[-60.02,7.49766],[-60.02534,7.49869],[-60.02748,7.50045],[-60.03212,7.50325],[-60.0325,7.50538],[-60.03534,7.50607],[-60.03752,7.49967],[-60.03836,7.49871],[-60.03939,7.49806],[-60.04682,7.49649],[-60.04819,7.49533],[-60.04918,7.49405],[-60.05373,7.48222],[-60.05448,7.47809],[-60.05579,7.47598],[-60.05605,7.47527],[-60.05639,7.47365],[-60.05603,7.47116],[-60.05436,7.46836],[-60.05272,7.46513],[-60.05455,7.46134],[-60.05856,7.46047],[-60.06242,7.46207],[-60.06565,7.4603],[-60.06737,7.45955],[-60.07119,7.45951],[-60.07205,7.45969],[-60.07276,7.45966],[-60.0743,7.45915],[-60.07493,7.45873],[-60.07546,7.4584],[-60.0757,7.45826],[-60.07655,7.45786],[-60.0778,7.45728],[-60.08127,7.45325],[-60.083,7.45079],[-60.08338,7.44954],[-60.08366,7.4483],[-60.08316,7.44507],[-60.08237,7.4418],[-60.08205,7.43852],[-60.08255,7.43526],[-60.08537,7.431],[-60.08584,7.42876],[-60.08588,7.42603],[-60.08696,7.42425],[-60.0875,7.42388],[-60.09347,7.41984],[-60.09545,7.41874],[-60.09732,7.41821],[-60.10188,7.41926],[-60.1068,7.42226],[-60.11013,7.42183],[-60.11747,7.41773],[-60.1201,7.41741],[-60.12423,7.41789],[-60.13021,7.41985],[-60.13241,7.42029],[-60.13445,7.41986],[-60.13505,7.4192],[-60.13605,7.4174],[-60.13652,7.41671],[-60.13759,7.41579],[-60.13789,7.41566],[-60.13885,7.41559],[-60.14088,7.41542],[-60.14188,7.41264],[-60.14245,7.41142],[-60.14426,7.41091],[-60.14488,7.41069],[-60.14518,7.41017],[-60.14627,7.40786],[-60.14751,7.40625],[-60.1498,7.40509],[-60.15158,7.40466],[-60.1534,7.40355],[-60.15454,7.40211],[-60.1554,7.40123],[-60.15577,7.40074],[-60.1571,7.39721],[-60.15934,7.39423],[-60.16055,7.39404],[-60.16216,7.3947],[-60.16372,7.39968],[-60.16512,7.40187],[-60.17117,7.40631],[-60.17299,7.40691],[-60.17345,7.40702],[-60.17543,7.40699],[-60.1788,7.40736],[-60.18119,7.41006],[-60.18206,7.41181],[-60.18318,7.41583],[-60.18332,7.41698],[-60.18496,7.42427],[-60.18511,7.42501],[-60.18767,7.42893],[-60.18871,7.43258],[-60.18978,7.43431],[-60.19046,7.43644],[-60.19022,7.43879],[-60.18419,7.4454],[-60.17879,7.44977],[-60.17037,7.45621],[-60.16659,7.45967],[-60.16475,7.46175],[-60.16265,7.46532],[-60.16164,7.46762],[-60.16033,7.47501],[-60.16143,7.47889],[-60.16315,7.48008],[-60.16536,7.48096],[-60.16697,7.48119],[-60.16982,7.48184],[-60.17086,7.48198],[-60.17596,7.48145],[-60.1834,7.48169],[-60.18732,7.48108],[-60.1894,7.48066],[-60.19279,7.47921],[-60.19328,7.47913],[-60.19369,7.47906],[-60.19377,7.47904],[-60.19498,7.47922],[-60.19661,7.47955],[-60.19829,7.48074],[-60.1983,7.4813],[-60.19803,7.48348],[-60.19875,7.48628],[-60.19932,7.48816],[-60.1996,7.48966],[-60.19961,7.49082],[-60.19932,7.49158],[-60.1992,7.49188],[-60.19902,7.49236],[-60.19847,7.4928],[-60.19603,7.49379],[-60.19215,7.49357],[-60.185,7.49462],[-60.1814,7.4956],[-60.17965,7.49595],[-60.17225,7.49609],[-60.16925,7.49696],[-60.16744,7.50035],[-60.1705,7.50434],[-60.17297,7.50626],[-60.17488,7.50769],[-60.17939,7.51149],[-60.18209,7.51762],[-60.18302,7.52203],[-60.18325,7.52554],[-60.18114,7.53579],[-60.18135,7.53807],[-60.18221,7.53961],[-60.18414,7.54269],[-60.18395,7.54774],[-60.18319,7.55265],[-60.18386,7.55547],[-60.18854,7.55635],[-60.18982,7.55394],[-60.19145,7.55275],[-60.1966,7.54878],[-60.19859,7.54824],[-60.20163,7.54987],[-60.20457,7.55109],[-60.20825,7.55117],[-60.21214,7.55432],[-60.21706,7.55687],[-60.21906,7.56069],[-60.22173,7.56415],[-60.2228,7.56461],[-60.22514,7.56506],[-60.22852,7.56627],[-60.22905,7.56705],[-60.22957,7.56687],[-60.22982,7.56659],[-60.23039,7.56666],[-60.23087,7.56696],[-60.23075,7.56776],[-60.2305,7.56804],[-60.23078,7.56883],[-60.23158,7.56851],[-60.2329,7.56918],[-60.23316,7.56968],[-60.23336,7.57041],[-60.23341,7.57078],[-60.23339,7.57116],[-60.23319,7.5717],[-60.23233,7.57197],[-60.23158,7.57208],[-60.23133,7.57247],[-60.23144,7.573],[-60.23153,7.57317],[-60.23133,7.57476],[-60.23122,7.57532],[-60.23126,7.57552],[-60.2318,7.5757],[-60.23246,7.57574],[-60.23246,7.5765],[-60.23229,7.57685],[-60.2322,7.57701],[-60.23203,7.57754],[-60.23209,7.5783],[-60.23215,7.57905],[-60.23216,7.57924],[-60.23217,7.57961],[-60.23217,7.57999],[-60.23211,7.58074],[-60.23201,7.58111],[-60.2319,7.58241],[-60.23222,7.58288],[-60.23257,7.58294],[-60.23313,7.58278],[-60.23347,7.58263],[-60.23432,7.5822],[-60.23571,7.5824],[-60.236,7.58286],[-60.2355,7.58342],[-60.23516,7.58359],[-60.23481,7.58373],[-60.23426,7.5839],[-60.23372,7.58404],[-60.23353,7.58408],[-60.2326,7.58422],[-60.23241,7.58424],[-60.23166,7.5843],[-60.23128,7.58434],[-60.23072,7.58441],[-60.23034,7.58446],[-60.22978,7.58451],[-60.2294,7.58454],[-60.22902,7.58454],[-60.22865,7.58461],[-60.2282,7.58495],[-60.22837,7.58567],[-60.22913,7.58578],[-60.23006,7.58661],[-60.23009,7.58737],[-60.23011,7.58775],[-60.23029,7.58867],[-60.23215,7.58944],[-60.23234,7.58948],[-60.23288,7.58965],[-60.23291,7.59052],[-60.23272,7.59126],[-60.23259,7.59219],[-60.23257,7.59238],[-60.23255,7.59275],[-60.23256,7.59294],[-60.23263,7.59332],[-60.23293,7.59378],[-60.23333,7.59419],[-60.23376,7.59531],[-60.23357,7.59564],[-60.23322,7.59609],[-60.23285,7.59652],[-60.23266,7.59684],[-60.23249,7.59718],[-60.23238,7.59754],[-60.23231,7.59791],[-60.23228,7.5981],[-60.23225,7.59847],[-60.23223,7.59866],[-60.23221,7.59923],[-60.2322,7.5996],[-60.2322,7.59998],[-60.2322,7.60055],[-60.23222,7.60093],[-60.23223,7.60111],[-60.23228,7.60224],[-60.23227,7.60243],[-60.23221,7.60318],[-60.23216,7.60356],[-60.23201,7.60429],[-60.23119,7.60553],[-60.23083,7.60565],[-60.23064,7.60566],[-60.23001,7.60627],[-60.22996,7.60665],[-60.22996,7.60703],[-60.23037,7.60847],[-60.23029,7.6092],[-60.23019,7.60936],[-60.23009,7.60991],[-60.22829,7.61159],[-60.22662,7.61235],[-60.22204,7.61518],[-60.21838,7.61711],[-60.21221,7.618],[-60.20962,7.61705],[-60.20476,7.61708],[-60.20156,7.61841],[-60.2005,7.62018],[-60.19973,7.62203],[-60.19922,7.62457],[-60.19696,7.62431],[-60.19548,7.6242],[-60.19511,7.62591],[-60.19522,7.62699],[-60.19392,7.62849],[-60.19001,7.6294],[-60.18343,7.62751],[-60.18223,7.6293],[-60.18367,7.63048],[-60.18606,7.63185],[-60.18226,7.63426],[-60.17721,7.63477],[-60.1758,7.63376],[-60.17259,7.63552],[-60.17142,7.6363],[-60.17125,7.63757],[-60.17232,7.63932],[-60.17154,7.64016]],[[-59.14478,7.85251],[-59.14847,7.85219],[-59.15227,7.8498],[-59.1554,7.83739],[-59.15839,7.83692],[-59.16193,7.83919],[-59.16563,7.83406],[-59.16788,7.83228],[-59.16999,7.82582],[-59.17331,7.82107],[-59.1778,7.81685],[-59.18882,7.79419],[-59.19513,7.79585],[-59.19865,7.79878],[-59.20514,7.8023],[-59.20867,7.80282],[-59.2148,7.80156],[-59.21763,7.80183],[-59.21977,7.80455],[-59.21966,7.80837],[-59.22362,7.81219],[-59.22776,7.81349],[-59.23006,7.81724],[-59.23635,7.82404],[-59.2393,7.82525],[-59.26931,7.84935],[-59.31654,7.84761],[-59.31744,7.85253],[-59.31705,7.8548],[-59.31293,7.85987],[-59.30937,7.86259],[-59.30757,7.866],[-59.30914,7.87166],[-59.31216,7.87689],[-59.30819,7.87928],[-59.3058,7.88311],[-59.30417,7.89108],[-59.3031,7.90116],[-59.30198,7.90825],[-59.30046,7.91215],[-59.29692,7.91846],[-59.29262,7.92789],[-59.28794,7.93991],[-59.28312,7.95744],[-59.28048,7.96556],[-59.27186,7.98222],[-59.26433,7.9957],[-59.2607,8.00029],[-59.25735,8.00254],[-59.25124,8.01151],[-59.24598,8.01689],[-59.24321,8.01872],[-59.21416,8.00008],[-59.19739,7.98558],[-59.17724,7.96988],[-59.16907,7.96165],[-59.16042,7.95447],[-59.14856,7.9412],[-59.14017,7.92864],[-59.13476,7.91969],[-59.12915,7.90869],[-59.12438,7.897],[-59.12146,7.88587],[-59.12154,7.88119],[-59.12997,7.87617],[-59.13112,7.87264],[-59.13288,7.87049],[-59.13755,7.86837],[-59.14234,7.86332],[-59.14433,7.85674],[-59.14355,7.85328],[-59.14478,7.85251]]]},"properties":{"qc_id":2,"objectid":3,"name":"Rest of Region 1","ndc_code":105,"region":"Barima-Waini","status":"Not Classified"}},
{"type":"Feature","geometry":{"type":"Polygon","coordinates":[[[-59.92655,7.54252],[-59.92548,7.54546],[-59.92074,7.54767],[-59.91805,7.55066],[-59.9181,7.56584],[-59.91981,7.57058],[-59.91837,7.57369],[-59.91829,7.58042],[-59.92067,7.58698],[-59.9216,7.59295],[-59.92106,7.59761],[-59.91947,7.60073],[-59.91901,7.60609],[-59.92046,7.60919],[-59.92081,7.61285],[-59.92634,7.61571],[-59.92947,7.62032],[-59.93001,7.62381],[-59.92833,7.62629],[-59.92374,7.62777],[-59.92068,7.63156],[-59.91776,7.63664],[-59.916,7.63759],[-59.91504,7.6377],[-59.91503,7.6377],[-59.91502,7.6377],[-59.91403,7.63754],[-59.91312,7.63716],[-59.90937,7.63418],[-59.90888,7.63404],[-59.90844,7.63401],[-59.90842,7.63401],[-59.90816,7.63418],[-59.90791,7.63479],[-59.90812,7.63679],[-59.90764,7.63766],[-59.90684,7.6377],[-59.90682,7.63771],[-59.90463,7.63559],[-59.90368,7.63509],[-59.9032,7.63499],[-59.90319,7.63499],[-59.90285,7.63523],[-59.9026,7.63818],[-59.90216,7.63911],[-59.90138,7.63901],[-59.90084,7.63819],[-59.90033,7.63809],[-59.90031,7.63809],[-59.89838,7.64158],[-59.89752,7.64202],[-59.89751,7.64203],[-59.89667,7.64158],[-59.89672,7.64058],[-59.89766,7.63883],[-59.89751,7.63855],[-59.89708,7.63855],[-59.89629,7.63911],[-59.89486,7.64049],[-59.89246,7.64222],[-59.89183,7.6441],[-59.89109,7.64443],[-59.89108,7.64443],[-59.8901,7.64406],[-59.88923,7.64359],[-59.88824,7.64333],[-59.88791,7.64357],[-59.88753,7.6439],[-59.88738,7.64488],[-59.88815,7.64755],[-59.88652,7.64873],[-59.88557,7.64897],[-59.88356,7.64905],[-59.88354,7.64905],[-59.88285,7.6487],[-59.88239,7.64671],[-59.88163,7.646],[-59.88092,7.64632],[-59.87941,7.64761],[-59.8777,7.64838],[-59.87664,7.65004],[-59.87585,7.65066],[-59.87497,7.65112],[-59.87496,7.65112],[-59.87495,7.65112],[-59.874,7.65105],[-59.87383,7.65002],[-59.8732,7.64938],[-59.87234,7.64967],[-59.87105,7.65241],[-59.86978,7.65395],[-59.86883,7.65405],[-59.86883,7.65404],[-59.86881,7.65405],[-59.86808,7.65343],[-59.86799,7.65145],[-59.86721,7.65111],[-59.8672,7.65111],[-59.86622,7.65141],[-59.86325,7.65155],[-59.86145,7.65242],[-59.86057,7.65262],[-59.86055,7.65262],[-59.86008,7.65171],[-59.85997,7.6507],[-59.85573,7.64835],[-59.85532,7.64639],[-59.85439,7.64633],[-59.85341,7.64655],[-59.85247,7.64687],[-59.84973,7.64805],[-59.84878,7.64833],[-59.8478,7.64847],[-59.84778,7.64847],[-59.84679,7.64842],[-59.84481,7.64817],[-59.84384,7.64797],[-59.84288,7.64782],[-59.84287,7.64782],[-59.84189,7.64804],[-59.84109,7.64866],[-59.8403,7.64916],[-59.8403,7.64917],[-59.83932,7.64888],[-59.83672,7.64744],[-59.83593,7.64674],[-59.83625,7.6449],[-59.83553,7.6447],[-59.83552,7.6447],[-59.83366,7.6455],[-59.83168,7.6458],[-59.83088,7.64637],[-59.83035,7.64728],[-59.82982,7.64753],[-59.82981,7.64753],[-59.82898,7.64681],[-59.8281,7.64634],[-59.827,7.64639],[-59.8258,7.647],[-59.8261,7.64966],[-59.83187,7.66027],[-59.8338,7.66675],[-59.8371,7.6714],[-59.83992,7.67352],[-59.83954,7.67726],[-59.83707,7.67854],[-59.8359,7.67861],[-59.83493,7.67864],[-59.83491,7.67864],[-59.83247,7.67846],[-59.83247,7.67845],[-59.83057,7.67848],[-59.82649,7.67906],[-59.82477,7.67927],[-59.82476,7.67927],[-59.8219,7.67914],[-59.81844,7.67733],[-59.81276,7.67208],[-59.80796,7.6696],[-59.80518,7.66867],[-59.8025,7.66827],[-59.8004,7.66831],[-59.79501,7.66857],[-59.77408,7.67142],[-59.76165,7.67681],[-59.7567,7.68035],[-59.75362,7.68424],[-59.75187,7.68802],[-59.75301,7.69323],[-59.75652,7.6957],[-59.75954,7.69644],[-59.7621,7.69849],[-59.77203,7.70191],[-59.77612,7.70546],[-59.78338,7.70956],[-59.78558,7.71491],[-59.78619,7.72094],[-59.78389,7.73032],[-59.78401,7.73356],[-59.78609,7.73852],[-59.78889,7.74192],[-59.79006,7.75008],[-59.7921,7.75205],[-59.7942,7.75353],[-59.79627,7.75351],[-59.79866,7.7538],[-59.79868,7.7538],[-59.80075,7.75378],[-59.80284,7.75347],[-59.80552,7.75286],[-59.80731,7.75255],[-59.80732,7.75255],[-59.80911,7.75313],[-59.80912,7.75313],[-59.81239,7.75281],[-59.81686,7.75159],[-59.81687,7.75159],[-59.81956,7.75246],[-59.82135,7.75305],[-59.82137,7.75305],[-59.82404,7.75303],[-59.82912,7.7524],[-59.83269,7.75148],[-59.83598,7.75117],[-59.83772,7.75167],[-59.83897,7.75204],[-59.84257,7.7547],[-59.84259,7.7547],[-59.84586,7.75467],[-59.85121,7.75196],[-59.8545,7.75194],[-59.85452,7.75194],[-59.85691,7.75251],[-59.85989,7.75339],[-59.86257,7.75278],[-59.86495,7.75157],[-59.8745,7.75061],[-59.87815,7.74996],[-59.87986,7.74939],[-59.88086,7.7493],[-59.88177,7.74966],[-59.88343,7.7497],[-59.88344,7.7497],[-59.8843,7.74921],[-59.88498,7.7485],[-59.889,7.74676],[-59.89087,7.74171],[-59.89196,7.74072],[-59.89311,7.7402],[-59.89415,7.74006],[-59.89416,7.74006],[-59.89632,7.74038],[-59.89914,7.74103],[-59.90047,7.74121],[-59.90048,7.74121],[-59.90172,7.74115],[-59.9026,7.74093],[-59.90712,7.73791],[-59.90953,7.73774],[-59.9166,7.73494],[-59.92426,7.7291],[-59.92966,7.72726],[-59.93209,7.72366],[-59.93606,7.72134],[-59.94243,7.713],[-59.94723,7.7079],[-59.95238,7.70402],[-59.95316,7.70251],[-59.95837,7.69735],[-59.9659,7.6909],[-59.97001,7.68802],[-59.9829,7.68327],[-59.98663,7.68248],[-59.99053,7.68214],[-59.99672,7.68117],[-59.99874,7.68093],[-59.99876,7.68093],[-59.99967,7.6817],[-60.0003,7.68233],[-60.00116,7.68202],[-60.00202,7.68186],[-60.00396,7.68184],[-60.00585,7.68238],[-60.00892,7.68353],[-60.0145,7.68496],[-60.01662,7.68509],[-60.01664,7.68509],[-60.01862,7.68507],[-60.02171,7.68442],[-60.02716,7.68255],[-60.03126,7.68022],[-60.03336,7.67936],[-60.03469,7.67888],[-60.0347,7.67888],[-60.03552,7.67942],[-60.03742,7.68101],[-60.04042,7.68311],[-60.04176,7.68463],[-60.04357,7.69288],[-60.0454,7.69697],[-60.04766,7.69917],[-60.05438,7.71122],[-60.06071,7.71203],[-60.06148,7.71674],[-60.05789,7.72447],[-60.05849,7.72838],[-60.05945,7.72955],[-60.06041,7.73037],[-60.0614,7.73041],[-60.06239,7.73021],[-60.06313,7.72972],[-60.06453,7.7291],[-60.06455,7.72911],[-60.06559,7.72939],[-60.0667,7.73063],[-60.06746,7.73273],[-60.06712,7.74026],[-60.06917,7.74592],[-60.07198,7.74867],[-60.07278,7.74896],[-60.0728,7.74896],[-60.07392,7.74878],[-60.07627,7.74762],[-60.07813,7.74627],[-60.08379,7.74121],[-60.08865,7.73448],[-60.0907,7.72962],[-60.0891,7.72456],[-60.08937,7.72139],[-60.09109,7.71835],[-60.0966,7.71209],[-60.09795,7.70868],[-60.10106,7.70495],[-60.10818,7.70143],[-60.11243,7.69473],[-60.11818,7.69159],[-60.12019,7.68881],[-60.12573,7.68719],[-60.12774,7.68362],[-60.12747,7.67768],[-60.126,7.67519],[-60.12662,7.67306],[-60.12986,7.66934],[-60.13251,7.66343],[-60.13585,7.65979],[-60.13698,7.65473],[-60.13662,7.65181],[-60.13753,7.65146],[-60.13754,7.65146],[-60.13849,7.65259],[-60.14141,7.65395],[-60.14142,7.65395],[-60.14225,7.65367],[-60.14263,7.65254],[-60.1443,7.65137],[-60.14696,7.64868],[-60.15088,7.64407],[-60.15081,7.64165],[-60.14891,7.63571],[-60.14957,7.63121],[-60.15041,7.63058],[-60.15171,7.63032],[-60.15265,7.63062],[-60.15343,7.6316],[-60.15597,7.63541],[-60.15925,7.63557],[-60.16116,7.63704],[-60.1642,7.64495],[-60.16531,7.64544],[-60.16532,7.64544],[-60.16629,7.64537],[-60.16725,7.64523],[-60.16779,7.64447],[-60.16749,7.64042],[-60.16812,7.63907],[-60.16905,7.63882],[-60.16906,7.63883],[-60.16907,7.63882],[-60.17029,7.63934],[-60.17154,7.64016],[-60.17232,7.63932],[-60.17125,7.63757],[-60.17142,7.6363],[-60.17259,7.63552],[-60.1758,7.63376],[-60.17721,7.63477],[-60.18226,7.63426],[-60.18606,7.63185],[-60.18367,7.63048],[-60.18223,7.6293],[-60.18343,7.62751],[-60.19001,7.6294],[-60.19392,7.62849],[-60.19522,7.62699],[-60.19511,7.62591],[-60.19548,7.6242],[-60.19696,7.62431],[-60.19922,7.62457],[-60.19973,7.62203],[-60.2005,7.62018],[-60.20156,7.61841],[-60.20476,7.61708],[-60.20962,7.61705],[-60.21221,7.618],[-60.21838,7.61711],[-60.22204,7.61518],[-60.22662,7.61235],[-60.22829,7.61159],[-60.23009,7.60991],[-60.23019,7.60936],[-60.23029,7.6092],[-60.23037,7.60847],[-60.22996,7.60703],[-60.22996,7.60665],[-60.23001,7.60627],[-60.23064,7.60566],[-60.23083,7.60565],[-60.23119,7.60553],[-60.23201,7.60429],[-60.23216,7.60356],[-60.23221,7.60318],[-60.23227,7.60243],[-60.23228,7.60224],[-60.23223,7.60111],[-60.23222,7.60093],[-60.2322,7.60055],[-60.2322,7.59998],[-60.2322,7.5996],[-60.23221,7.59923],[-60.23223,7.59866],[-60.23225,7.59847],[-60.23228,7.5981],[-60.23231,7.59791],[-60.23238,7.59754],[-60.23249,7.59718],[-60.23266,7.59684],[-60.23285,7.59652],[-60.23322,7.59609],[-60.23357,7.59564],[-60.23376,7.59531],[-60.23333,7.59419],[-60.23293,7.59378],[-60.23263,7.59332],[-60.23256,7.59294],[-60.23255,7.59275],[-60.23257,7.59238],[-60.23259,7.59219],[-60.23272,7.59126],[-60.23291,7.59052],[-60.23288,7.58965],[-60.23234,7.58948],[-60.23215,7.58944],[-60.23029,7.58867],[-60.23011,7.58775],[-60.23009,7.58737],[-60.23006,7.58661],[-60.22913,7.58578],[-60.22837,7.58567],[-60.2282,7.58495],[-60.22865,7.58461],[-60.22902,7.58454],[-60.2294,7.58454],[-60.22978,7.58451],[-60.23034,7.58446],[-60.23072,7.58441],[-60.23128,7.58434],[-60.23166,7.5843],[-60.23241,7.58424],[-60.2326,7.58422],[-60.23353,7.58408],[-60.23372,7.58404],[-60.23426,7.5839],[-60.23481,7.58373],[-60.23516,7.58359],[-60.2355,7.58342],[-60.236,7.58286],[-60.23571,7.5824],[-60.23432,7.5822],[-60.23347,7.58263],[-60.23313,7.58278],[-60.23257,7.58294],[-60.23222,7.58288],[-60.2319,7.58241],[-60.23201,7.58111],[-60.23211,7.58074],[-60.23217,7.57999],[-60.23217,7.57961],[-60.23216,7.57924],[-60.23215,7.57905],[-60.23209,7.5783],[-60.23203,7.57754],[-60.2322,7.57701],[-60.23229,7.57685],[-60.23246,7.5765],[-60.23246,7.57574],[-60.2318,7.5757],[-60.23126,7.57552],[-60.23122,7.57532],[-60.23133,7.57476],[-60.23153,7.57317],[-60.23144,7.573],[-60.23133,7.57247],[-60.23158,7.57208],[-60.23233,7.57197],[-60.23319,7.5717],[-60.23339,7.57116],[-60.23341,7.57078],[-60.23336,7.57041],[-60.23316,7.56968],[-60.2329,7.56918],[-60.23158,7.56851],[-60.23078,7.56883],[-60.2305,7.56804],[-60.23075,7.56776],[-60.23087,7.56696],[-60.23039,7.56666],[-60.22982,7.56659],[-60.22957,7.56687],[-60.22905,7.56705],[-60.22852,7.56627],[-60.22514,7.56506],[-60.2228,7.56461],[-60.22173,7.56415],[-60.21906,7.56069],[-60.21706,7.55687],[-60.21214,7.55432],[-60.20825,7.55117],[-60.20457,7.55109],[-60.20163,7.54987],[-60.19859,7.54824],[-60.1966,7.54878],[-60.19145,7.55275],[-60.18982,7.55394],[-60.18854,7.55635],[-60.18386,7.55547],[-60.18319,7.55265],[-60.18395,7.54774],[-60.18414,7.54269],[-60.18221,7.53961],[-60.18135,7.53807],[-60.18114,7.53579],[-60.18325,7.52554],[-60.18302,7.52203],[-60.18209,7.51762],[-60.17939,7.51149],[-60.17488,7.50769],[-60.17297,7.50626],[-60.1705,7.50434],[-60.16744,7.50035],[-60.16925,7.49696],[-60.17225,7.49609],[-60.17965,7.49595],[-60.1814,7.4956],[-60.185,7.49462],[-60.19215,7.49357],[-60.19603,7.49379],[-60.19847,7.4928],[-60.19902,7.49236],[-60.1992,7.49188],[-60.19932,7.49158],[-60.19961,7.49082],[-60.1996,7.48966],[-60.19932,7.48816],[-60.19875,7.48628],[-60.19803,7.48348],[-60.1983,7.4813],[-60.19829,7.48074],[-60.19661,7.47955],[-60.19498,7.47922],[-60.19377,7.47904],[-60.19369,7.47906],[-60.19328,7.47913],[-60.19279,7.47921],[-60.1894,7.48066],[-60.18732,7.48108],[-60.1834,7.48169],[-60.17596,7.48145],[-60.17086,7.48198],[-60.16982,7.48184],[-60.16697,7.48119],[-60.16536,7.48096],[-60.16315,7.48008],[-60.16143,7.47889],[-60.16033,7.47501],[-60.16164,7.46762],[-60.16265,7.46532],[-60.16475,7.46175],[-60.16659,7.45967],[-60.17037,7.45621],[-60.17879,7.44977],[-60.18419,7.4454],[-60.19022,7.43879],[-60.19046,7.43644],[-60.18978,7.43431],[-60.18871,7.43258],[-60.18767,7.42893],[-60.18511,7.42501],[-60.18496,7.42427],[-60.18332,7.41698],[-60.18318,7.41583],[-60.18206,7.41181],[-60.18119,7.41006],[-60.1788,7.40736],[-60.17543,7.40699],[-60.17345,7.40702],[-60.17299,7.40691],[-60.17117,7.40631],[-60.16512,7.40187],[-60.16372,7.39968],[-60.16216,7.3947],[-60.16055,7.39404],[-60.15934,7.39423],[-60.1571,7.39721],[-60.15577,7.40074],[-60.1554,7.40123],[-60.15454,7.40211],[-60.1534,7.40355],[-60.15158,7.40466],[-60.1498,7.40509],[-60.14751,7.40625],[-60.14627,7.40786],[-60.14518,7.41017],[-60.14488,7.41069],[-60.14426,7.41091],[-60.14245,7.41142],[-60.14188,7.41264],[-60.14088,7.41542],[-60.13885,7.41559],[-60.13789,7.41566],[-60.13759,7.41579],[-60.13652,7.41671],[-60.13605,7.4174],[-60.13505,7.4192],[-60.13445,7.41986],[-60.13241,7.42029],[-60.13021,7.41985],[-60.12423,7.41789],[-60.1201,7.41741],[-60.11747,7.41773],[-60.11013,7.42183],[-60.1068,7.42226],[-60.10188,7.41926],[-60.09732,7.41821],[-60.09545,7.41874],[-60.09347,7.41984],[-60.0875,7.42388],[-60.08696,7.42425],[-60.08588,7.42603],[-60.08584,7.42876],[-60.08537,7.431],[-60.08255,7.43526],[-60.08205,7.43852],[-60.08237,7.4418],[-60.08316,7.44507],[-60.08366,7.4483],[-60.08338,7.44954],[-60.083,7.45079],[-60.08127,7.45325],[-60.0778,7.45728],[-60.07655,7.45786],[-60.0757,7.45826],[-60.07546,7.4584],[-60.07493,7.45873],[-60.0743,7.45915],[-60.07276,7.45966],[-60.07205,7.45969],[-60.07119,7.45951],[-60.06737,7.45955],[-60.06565,7.4603],[-60.06242,7.46207],[-60.05856,7.46047],[-60.05455,7.46134],[-60.05272,7.46513],[-60.05436,7.46836],[-60.05603,7.47116],[-60.05639,7.47365],[-60.05605,7.47527],[-60.05579,7.47598],[-60.05448,7.47809],[-60.05373,7.48222],[-60.04918,7.49405],[-60.04819,7.49533],[-60.04682,7.49649],[-60.03939,7.49806],[-60.03836,7.49871],[-60.03752,7.49967],[-60.03534,7.50607],[-60.0325,7.50538],[-60.03212,7.50325],[-60.02748,7.50045],[-60.02534,7.49869],[-60.02,7.49766],[-60.01429,7.49521],[-60.01181,7.49594],[-60.01075,7.49737],[-60.00614,7.49989],[-60.00401,7.50025],[-59.99868,7.49994],[-59.99547,7.49889],[-59.99369,7.49961],[-59.9931,7.49998],[-59.99274,7.50021],[-59.99198,7.50269],[-59.99129,7.50923],[-59.98957,7.5156],[-59.98825,7.51752],[-59.9868,7.51906],[-59.98489,7.51978],[-59.98302,7.52019],[-59.98232,7.52043],[-59.98024,7.52113],[-59.97601,7.52311],[-59.97457,7.52351],[-59.97116,7.5244],[-59.96871,7.52538],[-59.96606,7.52866],[-59.965,7.5346],[-59.96504,7.53898],[-59.96468,7.54176],[-59.96325,7.54644],[-59.95761,7.54804],[-59.9542,7.54789],[-59.95242,7.54771],[-59.94363,7.5455],[-59.93642,7.54608],[-59.92849,7.54292],[-59.92655,7.54252]]]},"properties":{"qc_id":4,"objectid":5,"name":"Matthews Ridge / Arakaka (Matakai) / Port Kaituma","ndc_code":102,"region":"Barima-Waini","status":"Neighbourhood Democratic Council"}},
{"type":"Feature","geometry":{"type":"Polygon","coordinates":[[[-59.78144,8.34253],[-59.80253,8.35236],[-59.80505,8.35299],[-59.81356,8.35715],[-59.81895,8.35821],[-59.82208,8.36064],[-59.82539,8.35944],[-59.82978,8.35985],[-59.83099,8.35873],[-59.83732,8.36014],[-59.83938,8.35936],[-59.84574,8.36343],[-59.84689,8.36569],[-59.85264,8.36943],[-59.85419,8.36968],[-59.8581,8.37311],[-59.8582,8.37514],[-59.86227,8.37696],[-59.86375,8.37875],[-59.86429,8.38208],[-59.86826,8.38387],[-59.87212,8.39005],[-59.87765,8.3959],[-59.88236,8.40403],[-59.88736,8.41431],[-59.88847,8.41783],[-59.89042,8.42014],[-59.8947,8.42847],[-59.89613,8.42949],[-59.90192,8.44207],[-59.90886,8.45386],[-59.91597,8.46208],[-59.92135,8.47061],[-59.92263,8.47034],[-59.92995,8.48033],[-59.93375,8.48403],[-59.93681,8.48883],[-59.94431,8.49597],[-59.95188,8.50091],[-59.95724,8.5067],[-59.96516,8.51365],[-59.96802,8.51759],[-59.97385,8.52163],[-59.97503,8.52604],[-59.97938,8.53094],[-59.98672,8.52838],[-59.98111,8.51833],[-59.94389,8.4725],[-59.92944,8.45444],[-59.915,8.43667],[-59.90056,8.41861],[-59.88611,8.40083],[-59.87194,8.38278],[-59.8575,8.365],[-59.84306,8.34694],[-59.82861,8.32917],[-59.815,8.31139],[-59.81417,8.30917],[-59.80917,8.30083],[-59.8075,8.29583],[-59.80472,8.29167],[-59.80139,8.275],[-59.80444,8.27083],[-59.80861,8.26833],[-59.81944,8.25861],[-59.82306,8.24778],[-59.82389,8.24167],[-59.82556,8.23611],[-59.83194,8.22889],[-59.84333,8.22667],[-59.84678,8.22552],[-59.84679,8.22551],[-59.84676,8.22552],[-59.84816,8.22415],[-59.84909,8.22034],[-59.84894,8.20876],[-59.84641,8.19567],[-59.84409,8.19135],[-59.8423,8.17855],[-59.84043,8.17003],[-59.84126,8.16204],[-59.84324,8.15926],[-59.84417,8.15685],[-59.84532,8.15267],[-59.84552,8.15188],[-59.84563,8.1512],[-59.84411,8.15125],[-59.84331,8.15132],[-59.84112,8.15163],[-59.83654,8.14977],[-59.8347,8.14858],[-59.83287,8.14782],[-59.83211,8.14744],[-59.831,8.14708],[-59.82975,8.14686],[-59.82937,8.14686],[-59.82825,8.14682],[-59.82822,8.14682],[-59.82671,8.14755],[-59.82624,8.14777],[-59.82526,8.14788],[-59.82417,8.148],[-59.82343,8.14806],[-59.82266,8.14811],[-59.82258,8.14801],[-59.82257,8.14801],[-59.82114,8.14636],[-59.81713,8.14187],[-59.8166,8.14126],[-59.81591,8.14054],[-59.81551,8.13996],[-59.81513,8.1394],[-59.81481,8.13881],[-59.81448,8.13822],[-59.81391,8.1369],[-59.81729,8.13349],[-59.81679,8.12975],[-59.81393,8.12784],[-59.81375,8.1278],[-59.81191,8.12759],[-59.81038,8.12863],[-59.80953,8.1297],[-59.80863,8.12998],[-59.80859,8.13008],[-59.80816,8.1319],[-59.80795,8.13278],[-59.80611,8.14845],[-59.80314,8.1595],[-59.79973,8.16949],[-59.79743,8.17904],[-59.79773,8.18515],[-59.7971,8.19199],[-59.79466,8.19421],[-59.79333,8.19452],[-59.79332,8.19452],[-59.79168,8.19449],[-59.78872,8.19406],[-59.78612,8.19332],[-59.78067,8.18945],[-59.77314,8.18637],[-59.77159,8.18625],[-59.76869,8.18632],[-59.76612,8.18683],[-59.76473,8.18741],[-59.76217,8.18984],[-59.75779,8.19618],[-59.7541,8.20344],[-59.74936,8.20858],[-59.73985,8.21559],[-59.73822,8.21773],[-59.715,8.24174],[-59.70543,8.2504],[-59.70193,8.25209],[-59.69651,8.25619],[-59.68631,8.26237],[-59.7014,8.27445],[-59.7135,8.28824],[-59.71559,8.29043],[-59.72241,8.29691],[-59.73584,8.31153],[-59.73979,8.31644],[-59.74156,8.31849],[-59.74279,8.32073],[-59.75005,8.32599],[-59.75135,8.32591],[-59.752,8.32596],[-59.75282,8.32666],[-59.75555,8.33024],[-59.76101,8.33223],[-59.76579,8.33423],[-59.76852,8.33624],[-59.77125,8.33758],[-59.77465,8.33823],[-59.78208,8.34236],[-59.78144,8.34253]]]},"properties":{"qc_id":1,"objectid":2,"name":"Mabaruma / Kumaka / Hosororo","ndc_code":101,"region":"Barima-Waini","status":"Neighbourhood Democratic Council"}},
{"type":"Feature","geometry":{"type":"Polygon","coordinates":[[[-59.68631,8.26237],[-59.69651,8.25619],[-59.70193,8.25209],[-59.70543,8.2504],[-59.715,8.24174],[-59.73822,8.21773],[-59.73985,8.21559],[-59.74936,8.20858],[-59.7541,8.20344],[-59.75779,8.19618],[-59.76217,8.18984],[-59.76473,8.18741],[-59.76612,8.18683],[-59.76869,8.18632],[-59.77159,8.18625],[-59.77314,8.18637],[-59.78067,8.18945],[-59.78612,8.19332],[-59.78872,8.19406],[-59.79168,8.19449],[-59.79332,8.19452],[-59.79333,8.19452],[-59.79466,8.19421],[-59.7971,8.19199],[-59.79773,8.18515],[-59.79743,8.17904],[-59.79973,8.16949],[-59.80314,8.1595],[-59.80611,8.14845],[-59.80795,8.13278],[-59.80816,8.1319],[-59.80859,8.13008],[-59.80863,8.12998],[-59.80953,8.1297],[-59.81038,8.12863],[-59.81191,8.12759],[-59.81375,8.1278],[-59.81393,8.12784],[-59.81679,8.12975],[-59.81729,8.13349],[-59.81391,8.1369],[-59.81448,8.13822],[-59.81481,8.13881],[-59.81513,8.1394],[-59.81551,8.13996],[-59.81591,8.14054],[-59.8166,8.14126],[-59.81713,8.14187],[-59.82114,8.14636],[-59.82257,8.14801],[-59.82258,8.14801],[-59.82266,8.14811],[-59.82343,8.14806],[-59.82417,8.148],[-59.82526,8.14788],[-59.82624,8.14777],[-59.82671,8.14755],[-59.82822,8.14682],[-59.82825,8.14682],[-59.82937,8.14686],[-59.82975,8.14686],[-59.831,8.14708],[-59.83211,8.14744],[-59.83287,8.14782],[-59.8347,8.14858],[-59.83654,8.14977],[-59.84112,8.15163],[-59.84331,8.15132],[-59.84411,8.15125],[-59.84563,8.1512],[-59.84552,8.15188],[-59.84532,8.15267],[-59.84417,8.15685],[-59.84324,8.15926],[-59.84126,8.16204],[-59.84043,8.17003],[-59.8423,8.17855],[-59.84409,8.19135],[-59.84641,8.19567],[-59.84894,8.20876],[-59.84909,8.22034],[-59.84816,8.22415],[-59.84676,8.22552],[-59.84679,8.22551],[-59.84831,8.225],[-59.8547,8.22444],[-59.86165,8.22472],[-59.8672,8.22361],[-59.87193,8.22194],[-59.87915,8.22222],[-59.88887,8.21861],[-59.90026,8.21639],[-59.9079,8.2174],[-59.92976,8.21531],[-59.94601,8.21346],[-59.94552,8.20537],[-59.94595,8.19762],[-59.94839,8.195],[-59.96502,8.19156],[-59.97274,8.18862],[-59.97601,8.18797],[-59.97972,8.18118],[-59.98263,8.16842],[-59.9864,8.16347],[-59.99339,8.1582],[-59.99451,8.15497],[-59.99331,8.15157],[-59.98816,8.14529],[-59.98181,8.13883],[-59.98061,8.13271],[-59.98593,8.1271],[-59.99125,8.12387],[-59.99417,8.11963],[-59.99585,8.10936],[-59.99983,8.10025],[-60,8.096],[-59.99844,8.08972],[-59.99949,8.08326],[-59.9995,8.07533],[-60.00576,8.07209],[-60.0064,8.06948],[-60.00534,8.06506],[-60.00578,8.06009],[-60.00876,8.05606],[-60.01947,8.0489],[-60.02378,8.04506],[-60.03188,8.03333],[-60.0362,8.03293],[-60.04094,8.03613],[-60.04464,8.03278],[-60.04841,8.02717],[-60.05253,8.0248],[-60.06126,8.02343],[-60.06752,8.02505],[-60.07109,8.02798],[-60.07288,8.02823],[-60.07783,8.03244],[-60.08215,8.03244],[-60.08269,8.03028],[-60.08605,8.03161],[-60.08891,8.03584],[-60.09726,8.0355],[-60.10029,8.03484],[-60.10228,8.03301],[-60.10411,8.02946],[-60.10903,8.03049],[-60.11281,8.02834],[-60.11672,8.02801],[-60.12008,8.02908],[-60.12171,8.02805],[-60.12215,8.02053],[-60.1242,8.01648],[-60.12714,8.01442],[-60.12894,8.01141],[-60.13117,8.00414],[-60.1342,7.99887],[-60.13468,7.99647],[-60.14032,7.9929],[-60.14032,7.99038],[-60.14273,7.99014],[-60.14843,7.9868],[-60.14952,7.98473],[-60.15326,7.98438],[-60.15527,7.98242],[-60.16082,7.98014],[-60.16499,7.97401],[-60.16729,7.9724],[-60.17178,7.97382],[-60.17396,7.97267],[-60.17707,7.96899],[-60.18345,7.96432],[-60.18834,7.96293],[-60.19001,7.96138],[-60.19219,7.96579],[-60.1961,7.9655],[-60.19776,7.96733],[-60.19845,7.96486],[-60.19661,7.96308],[-60.19943,7.95906],[-60.20317,7.95853],[-60.21024,7.95868],[-60.21397,7.95942],[-60.21905,7.95776],[-60.22278,7.954],[-60.23203,7.94594],[-60.23464,7.94421],[-60.23349,7.93979],[-60.22997,7.93791],[-60.23101,7.93498],[-60.23348,7.93485],[-60.23348,7.93273],[-60.23595,7.93175],[-60.23802,7.93272],[-60.24207,7.93167],[-60.2439,7.92811],[-60.24287,7.92254],[-60.24523,7.92116],[-60.24466,7.91898],[-60.24568,7.91306],[-60.24735,7.91294],[-60.24775,7.9107],[-60.25051,7.9142],[-60.25309,7.91511],[-60.25493,7.91305],[-60.25724,7.90608],[-60.25988,7.9055],[-60.26023,7.90154],[-60.26231,7.90354],[-60.26356,7.90141],[-60.26259,7.89872],[-60.26701,7.89584],[-60.26874,7.89704],[-60.27023,7.89497],[-60.27403,7.8922],[-60.27466,7.88944],[-60.2788,7.88507],[-60.28145,7.885],[-60.28277,7.8827],[-60.28484,7.88223],[-60.28604,7.88436],[-60.28785,7.88303],[-60.28714,7.88016],[-60.28806,7.87844],[-60.29116,7.87958],[-60.29388,7.879],[-60.29421,7.87572],[-60.29662,7.87571],[-60.30111,7.87139],[-60.30375,7.87254],[-60.30645,7.87104],[-60.31214,7.86947],[-60.31356,7.86706],[-60.3145,7.86119],[-60.31761,7.85958],[-60.31755,7.85745],[-60.32037,7.8571],[-60.32077,7.85463],[-60.32681,7.85295],[-60.32802,7.85036],[-60.33096,7.84962],[-60.3329,7.84167],[-60.33756,7.83839],[-60.34405,7.83705],[-60.34783,7.83391],[-60.34823,7.83128],[-60.35263,7.82894],[-60.35691,7.82883],[-60.35823,7.82637],[-60.36085,7.82477],[-60.36245,7.82523],[-60.36354,7.8282],[-60.36688,7.82731],[-60.36632,7.82248],[-60.36404,7.81531],[-60.36178,7.81279],[-60.35692,7.81162],[-60.35185,7.81097],[-60.35088,7.81094],[-60.34843,7.81063],[-60.34644,7.8108],[-60.34342,7.81111],[-60.33812,7.81122],[-60.3381,7.81122],[-60.32988,7.81047],[-60.31982,7.80524],[-60.31413,7.79922],[-60.31143,7.79361],[-60.30884,7.79006],[-60.29814,7.78036],[-60.29279,7.77214],[-60.28992,7.76494],[-60.29393,7.75704],[-60.29696,7.7481],[-60.29655,7.74259],[-60.29439,7.73627],[-60.28546,7.73029],[-60.28186,7.72611],[-60.27763,7.72413],[-60.27159,7.72309],[-60.26411,7.71865],[-60.25987,7.71363],[-60.25927,7.71187],[-60.26028,7.70741],[-60.26225,7.70395],[-60.26392,7.69602],[-60.26758,7.68837],[-60.2684,7.68533],[-60.26698,7.68279],[-60.26231,7.67948],[-60.25882,7.67548],[-60.25493,7.67509],[-60.2501,7.67191],[-60.24462,7.66488],[-60.24289,7.66394],[-60.22985,7.66325],[-60.22664,7.66199],[-60.22344,7.65807],[-60.22144,7.64946],[-60.21857,7.64683],[-60.21698,7.64638],[-60.21547,7.64639],[-60.20998,7.64775],[-60.20763,7.64863],[-60.20489,7.65064],[-60.20266,7.65125],[-60.20109,7.65162],[-60.20108,7.65162],[-60.19961,7.65139],[-60.19749,7.65062],[-60.19287,7.64954],[-60.19152,7.64939],[-60.1915,7.64939],[-60.19061,7.6494],[-60.18961,7.6495],[-60.18959,7.6495],[-60.18825,7.64942],[-60.18824,7.64942],[-60.18699,7.64951],[-60.18531,7.64961],[-60.18433,7.64962],[-60.18432,7.64962],[-60.18324,7.6496],[-60.18194,7.64901],[-60.17991,7.64618],[-60.1769,7.64563],[-60.17154,7.64016],[-60.17029,7.63934],[-60.16907,7.63882],[-60.16906,7.63883],[-60.16905,7.63882],[-60.16812,7.63907],[-60.16749,7.64042],[-60.16779,7.64447],[-60.16725,7.64523],[-60.16629,7.64537],[-60.16532,7.64544],[-60.16531,7.64544],[-60.1642,7.64495],[-60.16116,7.63704],[-60.15925,7.63557],[-60.15597,7.63541],[-60.15343,7.6316],[-60.15265,7.63062],[-60.15171,7.63032],[-60.15041,7.63058],[-60.14957,7.63121],[-60.14891,7.63571],[-60.15081,7.64165],[-60.15088,7.64407],[-60.14696,7.64868],[-60.1443,7.65137],[-60.14263,7.65254],[-60.14225,7.65367],[-60.14142,7.65395],[-60.14141,7.65395],[-60.13849,7.65259],[-60.13754,7.65146],[-60.13753,7.65146],[-60.13662,7.65181],[-60.13698,7.65473],[-60.13585,7.65979],[-60.13251,7.66343],[-60.12986,7.66934],[-60.12662,7.67306],[-60.126,7.67519],[-60.12747,7.67768],[-60.12774,7.68362],[-60.12573,7.68719],[-60.12019,7.68881],[-60.11818,7.69159],[-60.11243,7.69473],[-60.10818,7.70143],[-60.10106,7.70495],[-60.09795,7.70868],[-60.0966,7.71209],[-60.09109,7.71835],[-60.08937,7.72139],[-60.0891,7.72456],[-60.0907,7.72962],[-60.08865,7.73448],[-60.08379,7.74121],[-60.07813,7.74627],[-60.07627,7.74762],[-60.07392,7.74878],[-60.0728,7.74896],[-60.07278,7.74896],[-60.07198,7.74867],[-60.06917,7.74592],[-60.06712,7.74026],[-60.06746,7.73273],[-60.0667,7.73063],[-60.06559,7.72939],[-60.06455,7.72911],[-60.06453,7.7291],[-60.06313,7.72972],[-60.06239,7.73021],[-60.0614,7.73041],[-60.06041,7.73037],[-60.05945,7.72955],[-60.05849,7.72838],[-60.05789,7.72447],[-60.06148,7.71674],[-60.06071,7.71203],[-60.05438,7.71122],[-60.04766,7.69917],[-60.0454,7.69697],[-60.04357,7.69288],[-60.04176,7.68463],[-60.04042,7.68311],[-60.03742,7.68101],[-60.03552,7.67942],[-60.0347,7.67888],[-60.03469,7.67888],[-60.03336,7.67936],[-60.03126,7.68022],[-60.02716,7.68255],[-60.02171,7.68442],[-60.01862,7.68507],[-60.01664,7.68509],[-60.01662,7.68509],[-60.0145,7.68496],[-60.00892,7.68353],[-60.00585,7.68238],[-60.00396,7.68184],[-60.00202,7.68186],[-60.00116,7.68202],[-60.0003,7.68233],[-59.99967,7.6817],[-59.99876,7.68093],[-59.99874,7.68093],[-59.99672,7.68117],[-59.99053,7.68214],[-59.98663,7.68248],[-59.9829,7.68327],[-59.97001,7.68802],[-59.9659,7.6909],[-59.95837,7.69735],[-59.95316,7.70251],[-59.95238,7.70402],[-59.94723,7.7079],[-59.94243,7.713],[-59.93606,7.72134],[-59.93209,7.72366],[-59.92966,7.72726],[-59.92426,7.7291],[-59.9166,7.73494],[-59.90953,7.73774],[-59.90712,7.73791],[-59.9026,7.74093],[-59.90172,7.74115],[-59.90048,7.74121],[-59.90047,7.74121],[-59.89914,7.74103],[-59.89632,7.74038],[-59.89416,7.74006],[-59.89415,7.74006],[-59.89311,7.7402],[-59.89196,7.74072],[-59.89087,7.74171],[-59.889,7.74676],[-59.88498,7.7485],[-59.8843,7.74921],[-59.88344,7.7497],[-59.88343,7.7497],[-59.88177,7.74966],[-59.88086,7.7493],[-59.87986,7.74939],[-59.87815,7.74996],[-59.8745,7.75061],[-59.86495,7.75157],[-59.86257,7.75278],[-59.85989,7.75339],[-59.85691,7.75251],[-59.85452,7.75194],[-59.8545,7.75194],[-59.85121,7.75196],[-59.84586,7.75467],[-59.84259,7.7547],[-59.84257,7.7547],[-59.83897,7.75204],[-59.83772,7.75167],[-59.83598,7.75117],[-59.83269,7.75148],[-59.82912,7.7524],[-59.82404,7.75303],[-59.82137,7.75305],[-59.82135,7.75305],[-59.81956,7.75246],[-59.81687,7.75159],[-59.81686,7.75159],[-59.81239,7.75281],[-59.80912,7.75313],[-59.80911,7.75313],[-59.80732,7.75255],[-59.80731,7.75255],[-59.80552,7.75286],[-59.80284,7.75347],[-59.80075,7.75378],[-59.79868,7.7538],[-59.79866,7.7538],[-59.79627,7.75351],[-59.7942,7.75353],[-59.7921,7.75205],[-59.79006,7.75008],[-59.78889,7.74192],[-59.78609,7.73852],[-59.78401,7.73356],[-59.78389,7.73032],[-59.78619,7.72094],[-59.78558,7.71491],[-59.78338,7.70956],[-59.77612,7.70546],[-59.77203,7.70191],[-59.7621,7.69849],[-59.75954,7.69644],[-59.75652,7.6957],[-59.75301,7.69323],[-59.75187,7.68802],[-59.75362,7.68424],[-59.7567,7.68035],[-59.76165,7.67681],[-59.77408,7.67142],[-59.79501,7.66857],[-59.8004,7.66831],[-59.8025,7.66827],[-59.80518,7.66867],[-59.80796,7.6696],[-59.81276,7.67208],[-59.81844,7.67733],[-59.8219,7.67914],[-59.82476,7.67927],[-59.82477,7.67927],[-59.82649,7.67906],[-59.83057,7.67848],[-59.83247,7.67845],[-59.83247,7.67846],[-59.83491,7.67864],[-59.83493,7.67864],[-59.8359,7.67861],[-59.83707,7.67854],[-59.83954,7.67726],[-59.83992,7.67352],[-59.8371,7.6714],[-59.8338,7.66675],[-59.83187,7.66027],[-59.8261,7.64966],[-59.8258,7.647],[-59.827,7.64639],[-59.8281,7.64634],[-59.82898,7.64681],[-59.82981,7.64753],[-59.82982,7.64753],[-59.83035,7.64728],[-59.83088,7.64637],[-59.83168,7.6458],[-59.83366,7.6455],[-59.83552,7.6447],[-59.83553,7.6447],[-59.83625,7.6449],[-59.83593,7.64674],[-59.83672,7.64744],[-59.83932,7.64888],[-59.8403,7.64917],[-59.8403,7.64916],[-59.84109,7.64866],[-59.84189,7.64804],[-59.84287,7.64782],[-59.84288,7.64782],[-59.84384,7.64797],[-59.84481,7.64817],[-59.84679,7.64842],[-59.84778,7.64847],[-59.8478,7.64847],[-59.84878,7.64833],[-59.84973,7.64805],[-59.85247,7.64687],[-59.85341,7.64655],[-59.85439,7.64633],[-59.85532,7.64639],[-59.85573,7.64835],[-59.85997,7.6507],[-59.86008,7.65171],[-59.86055,7.65262],[-59.86057,7.65262],[-59.86145,7.65242],[-59.86325,7.65155],[-59.86622,7.65141],[-59.8672,7.65111],[-59.86721,7.65111],[-59.86799,7.65145],[-59.86808,7.65343],[-59.86881,7.65405],[-59.86883,7.65404],[-59.86883,7.65405],[-59.86978,7.65395],[-59.87105,7.65241],[-59.87234,7.64967],[-59.8732,7.64938],[-59.87383,7.65002],[-59.874,7.65105],[-59.87495,7.65112],[-59.87496,7.65112],[-59.87497,7.65112],[-59.87585,7.65066],[-59.87664,7.65004],[-59.8777,7.64838],[-59.87941,7.64761],[-59.88092,7.64632],[-59.88163,7.646],[-59.88239,7.64671],[-59.88285,7.6487],[-59.88354,7.64905],[-59.88356,7.64905],[-59.88557,7.64897],[-59.88652,7.64873],[-59.88815,7.64755],[-59.88738,7.64488],[-59.88753,7.6439],[-59.88791,7.64357],[-59.88824,7.64333],[-59.88923,7.64359],[-59.8901,7.64406],[-59.89108,7.64443],[-59.89109,7.64443],[-59.89183,7.6441],[-59.89246,7.64222],[-59.89486,7.64049],[-59.89629,7.63911],[-59.89708,7.63855],[-59.89751,7.63855],[-59.89766,7.63883],[-59.89672,7.64058],[-59.89667,7.64158],[-59.89751,7.64203],[-59.89752,7.64202],[-59.89838,7.64158],[-59.90031,7.63809],[-59.90033,7.63809],[-59.90084,7.63819],[-59.90138,7.63901],[-59.90216,7.63911],[-59.9026,7.63818],[-59.90285,7.63523],[-59.90319,7.63499],[-59.9032,7.63499],[-59.90368,7.63509],[-59.90463,7.63559],[-59.90682,7.63771],[-59.90684,7.6377],[-59.90764,7.63766],[-59.90812,7.63679],[-59.90791,7.63479],[-59.90816,7.63418],[-59.90842,7.63401],[-59.90844,7.63401],[-59.90888,7.63404],[-59.90937,7.63418],[-59.91312,7.63716],[-59.91403,7.63754],[-59.91502,7.6377],[-59.91503,7.6377],[-59.91504,7.6377],[-59.916,7.63759],[-59.91776,7.63664],[-59.92068,7.63156],[-59.92374,7.62777],[-59.92833,7.62629],[-59.93001,7.62381],[-59.92947,7.62032],[-59.92634,7.61571],[-59.92081,7.61285],[-59.92046,7.60919],[-59.91901,7.60609],[-59.91947,7.60073],[-59.92106,7.59761],[-59.9216,7.59295],[-59.92067,7.58698],[-59.91829,7.58042],[-59.91837,7.57369],[-59.91981,7.57058],[-59.9181,7.56584],[-59.91805,7.55066],[-59.92074,7.54767],[-59.92548,7.54546],[-59.92655,7.54252],[-59.92128,7.5313],[-59.91591,7.52341],[-59.91581,7.52221],[-59.91188,7.51582],[-59.90929,7.50889],[-59.90593,7.50634],[-59.90401,7.50333],[-59.90324,7.50016],[-59.90635,7.49548],[-59.90784,7.4858],[-59.90313,7.48054],[-59.90228,7.47798],[-59.89513,7.47419],[-59.88984,7.47008],[-59.88888,7.46746],[-59.88596,7.46512],[-59.87956,7.46194],[-59.86577,7.46042],[-59.86315,7.45854],[-59.86107,7.45472],[-59.86021,7.45125],[-59.85703,7.44813],[-59.85565,7.44781],[-59.85463,7.4477],[-59.85462,7.44771],[-59.85351,7.44797],[-59.85126,7.44916],[-59.85031,7.44936],[-59.84626,7.44975],[-59.84625,7.44975],[-59.84624,7.44975],[-59.84414,7.44968],[-59.84183,7.44904],[-59.83831,7.44729],[-59.82901,7.43924],[-59.82555,7.43752],[-59.81735,7.43465],[-59.8146,7.43309],[-59.80958,7.43207],[-59.80742,7.43176],[-59.80577,7.43158],[-59.80411,7.43171],[-59.80223,7.43181],[-59.79929,7.43228],[-59.79244,7.43489],[-59.7874,7.43829],[-59.78582,7.4407],[-59.78423,7.44756],[-59.7845,7.45334],[-59.78159,7.4604],[-59.77119,7.46759],[-59.7676,7.47093],[-59.76245,7.47688],[-59.75954,7.47818],[-59.75709,7.47846],[-59.75428,7.47869],[-59.75427,7.47869],[-59.75336,7.47843],[-59.75183,7.47782],[-59.74968,7.47623],[-59.74614,7.47472],[-59.74391,7.47245],[-59.73803,7.47184],[-59.73482,7.47133],[-59.7336,7.47086],[-59.73259,7.47071],[-59.73071,7.47131],[-59.72821,7.47284],[-59.72692,7.47292],[-59.72691,7.47292],[-59.7269,7.47292],[-59.72291,7.47208],[-59.72105,7.47202],[-59.71955,7.47285],[-59.71867,7.47397],[-59.71836,7.47711],[-59.71962,7.48025],[-59.72656,7.484],[-59.73119,7.48771],[-59.73421,7.49102],[-59.73638,7.49684],[-59.73595,7.50114],[-59.72972,7.50203],[-59.72631,7.51607],[-59.72557,7.52387],[-59.72427,7.52826],[-59.72277,7.52916],[-59.72137,7.52953],[-59.72137,7.52952],[-59.72135,7.52953],[-59.71972,7.52671],[-59.71495,7.52454],[-59.70913,7.5227],[-59.69871,7.51821],[-59.69179,7.51439],[-59.69069,7.51434],[-59.68956,7.51443],[-59.68784,7.51467],[-59.68177,7.51585],[-59.67923,7.51651],[-59.67837,7.51653],[-59.67835,7.51653],[-59.67748,7.5164],[-59.67662,7.51624],[-59.6749,7.51595],[-59.67237,7.5153],[-59.66848,7.51328],[-59.66685,7.51269],[-59.666,7.51261],[-59.66513,7.51271],[-59.66339,7.51296],[-59.66168,7.51331],[-59.64749,7.51765],[-59.64494,7.51827],[-59.64161,7.51929],[-59.63823,7.52021],[-59.63656,7.52071],[-59.63246,7.52221],[-59.63082,7.5228],[-59.62917,7.52337],[-59.61923,7.52668],[-59.61544,7.52887],[-59.61164,7.53246],[-59.60342,7.54372],[-59.60157,7.55378],[-59.60104,7.56161],[-59.59958,7.56755],[-59.59696,7.57022],[-59.59104,7.57161],[-59.58569,7.57451],[-59.58365,7.57734],[-59.58387,7.58162],[-59.58595,7.58442],[-59.59235,7.58719],[-59.5928,7.58881],[-59.591,7.59097],[-59.59159,7.59439],[-59.59086,7.59712],[-59.58588,7.6006],[-59.58006,7.60246],[-59.57481,7.60555],[-59.57238,7.60807],[-59.56693,7.61071],[-59.55711,7.61935],[-59.55063,7.62376],[-59.54549,7.62481],[-59.54375,7.62492],[-59.54288,7.62492],[-59.54286,7.62492],[-59.54199,7.62488],[-59.54025,7.62471],[-59.53887,7.62452],[-59.53944,7.62582],[-59.54172,7.62711],[-59.54943,7.63282],[-59.56422,7.64033],[-59.56763,7.64305],[-59.56971,7.64771],[-59.57048,7.65638],[-59.57042,7.66336],[-59.57322,7.67159],[-59.57948,7.68212],[-59.58041,7.68271],[-59.58741,7.68304],[-59.59039,7.68469],[-59.59358,7.68879],[-59.59412,7.69485],[-59.59333,7.69639],[-59.5866,7.70318],[-59.5864,7.70915],[-59.58882,7.71368],[-59.58909,7.71652],[-59.58781,7.71805],[-59.58167,7.72141],[-59.57687,7.72517],[-59.57323,7.74041],[-59.57167,7.74447],[-59.56979,7.74665],[-59.56655,7.74792],[-59.56538,7.75213],[-59.57373,7.75334],[-59.57526,7.75993],[-59.57669,7.7628],[-59.57718,7.76694],[-59.5812,7.77673],[-59.58175,7.78],[-59.58094,7.78383],[-59.58125,7.78827],[-59.58356,7.79411],[-59.58265,7.79752],[-59.57594,7.80277],[-59.57198,7.8081],[-59.57376,7.81352],[-59.57395,7.81699],[-59.56716,7.8231],[-59.5641,7.82448],[-59.55226,7.82725],[-59.54793,7.82788],[-59.54649,7.82992],[-59.54498,7.83729],[-59.54379,7.84063],[-59.53811,7.84523],[-59.53699,7.84566],[-59.53588,7.8458],[-59.53488,7.8458],[-59.53486,7.8458],[-59.53363,7.84562],[-59.53113,7.84486],[-59.52821,7.8442],[-59.52684,7.844],[-59.52531,7.84424],[-59.52224,7.84562],[-59.51845,7.85045],[-59.51844,7.85044],[-59.517,7.84893],[-59.51662,7.84603],[-59.51404,7.84096],[-59.51075,7.83917],[-59.50782,7.83628],[-59.5027,7.83304],[-59.49594,7.8327],[-59.49021,7.83126],[-59.4866,7.82874],[-59.48502,7.82822],[-59.48501,7.82823],[-59.48402,7.82857],[-59.48401,7.82857],[-59.48124,7.82837],[-59.47876,7.82948],[-59.47727,7.82989],[-59.47601,7.83003],[-59.47542,7.83007],[-59.47484,7.83012],[-59.47342,7.82992],[-59.47274,7.82981],[-59.47271,7.82981],[-59.47121,7.82892],[-59.47108,7.82884],[-59.46757,7.82698],[-59.46644,7.82603],[-59.46643,7.82602],[-59.46642,7.82602],[-59.46524,7.82571],[-59.46432,7.82546],[-59.46187,7.82542],[-59.45533,7.82655],[-59.45329,7.82762],[-59.45322,7.82768],[-59.45123,7.82949],[-59.44226,7.84135],[-59.43939,7.84771],[-59.43948,7.84832],[-59.43961,7.84925],[-59.43905,7.84945],[-59.43899,7.84947],[-59.4379,7.8498],[-59.43636,7.85058],[-59.43532,7.85098],[-59.43446,7.85102],[-59.43445,7.85102],[-59.43444,7.85102],[-59.43357,7.85086],[-59.43258,7.85038],[-59.4212,7.84091],[-59.42064,7.83822],[-59.42497,7.83016],[-59.42397,7.82639],[-59.42298,7.82603],[-59.42211,7.82638],[-59.4213,7.82687],[-59.41936,7.82927],[-59.41617,7.83074],[-59.41534,7.83095],[-59.41533,7.83095],[-59.41438,7.83061],[-59.41251,7.82836],[-59.41111,7.82431],[-59.41267,7.82311],[-59.41383,7.8177],[-59.41072,7.81199],[-59.40989,7.81163],[-59.40883,7.81163],[-59.40785,7.8122],[-59.40711,7.81271],[-59.40553,7.81343],[-59.4044,7.81358],[-59.4044,7.81357],[-59.40438,7.81358],[-59.4035,7.81338],[-59.40189,7.8092],[-59.4021,7.80553],[-59.40588,7.80065],[-59.40666,7.79776],[-59.4027,7.79274],[-59.40477,7.78962],[-59.41074,7.78629],[-59.41251,7.78375],[-59.41137,7.78363],[-59.40583,7.7872],[-59.40008,7.79044],[-59.39295,7.79532],[-59.39136,7.79714],[-59.38914,7.80269],[-59.38824,7.80951],[-59.38961,7.8179],[-59.39226,7.8234],[-59.39575,7.82802],[-59.40317,7.83525],[-59.40505,7.83773],[-59.40704,7.84301],[-59.40718,7.84767],[-59.40532,7.85533],[-59.40367,7.85885],[-59.40098,7.8622],[-59.38757,7.87327],[-59.38162,7.87738],[-59.37653,7.88283],[-59.37543,7.88545],[-59.37566,7.89529],[-59.37667,7.9013],[-59.37936,7.90855],[-59.38578,7.91614],[-59.387,7.92004],[-59.38641,7.9313],[-59.38228,7.93839],[-59.37856,7.94223],[-59.37264,7.94715],[-59.36322,7.95119],[-59.36077,7.95265],[-59.35632,7.95679],[-59.35119,7.96412],[-59.34678,7.97242],[-59.34386,7.97993],[-59.34253,7.98768],[-59.3424,7.99889],[-59.34117,7.99992],[-59.33883,8.00726],[-59.33857,8.01346],[-59.33969,8.02155],[-59.34348,8.03436],[-59.35039,8.0454],[-59.36168,8.06067],[-59.3676,8.06917],[-59.37983,8.08074],[-59.38646,8.08771],[-59.39145,8.09199],[-59.40149,8.10312],[-59.4052,8.10544],[-59.40882,8.10667],[-59.41085,8.10678],[-59.41365,8.10679],[-59.41367,8.10679],[-59.41966,8.10673],[-59.42236,8.10629],[-59.42477,8.10614],[-59.42718,8.10587],[-59.42719,8.10587],[-59.42955,8.10605],[-59.4324,8.10647],[-59.43433,8.10699],[-59.43847,8.10904],[-59.44724,8.11503],[-59.45438,8.12145],[-59.46042,8.12628],[-59.47332,8.1359],[-59.48146,8.14083],[-59.49076,8.14886],[-59.49289,8.15024],[-59.49596,8.15417],[-59.4995,8.15681],[-59.49866,8.1598],[-59.50229,8.16268],[-59.50566,8.16369],[-59.5111,8.16828],[-59.51814,8.17297],[-59.52917,8.18239],[-59.54091,8.19384],[-59.55085,8.20012],[-59.5624,8.20606],[-59.57889,8.20992],[-59.58061,8.21008],[-59.58168,8.21031],[-59.58258,8.21042],[-59.58482,8.21023],[-59.58731,8.21011],[-59.59047,8.20997],[-59.59048,8.20997],[-59.595,8.21015],[-59.60019,8.21114],[-59.60834,8.21419],[-59.61787,8.21851],[-59.62515,8.22244],[-59.6353,8.22928],[-59.63926,8.23306],[-59.645,8.23616],[-59.65357,8.24401],[-59.65825,8.24712],[-59.662,8.24799],[-59.66328,8.24831],[-59.66474,8.24876],[-59.66475,8.24876],[-59.66599,8.24874],[-59.66713,8.24872],[-59.66715,8.24872],[-59.66866,8.24927],[-59.67042,8.25044],[-59.68293,8.25967],[-59.68631,8.26237]]]},"properties":{"qc_id":3,"objectid":4,"name":"Barima / Amakura","ndc_code":103,"region":"Barima-Waini","status":"Not Classified"}}
]}