{"type":"FeatureCollection", "features": [
{"type":"Feature","geometry":{"type":"Polygon","coordinates":[[[-59.57523,5.08154],[-59.59508,5.09063],[-59.61507,5.07985],[-59.61713,5.08594],[-59.63705,5.07354],[-59.64871,5.07769],[-59.66088,5.06349],[-59.66095,5.05039],[-59.67222,5.03895],[-59.65981,5.01932],[-59.64287,5.00573],[-59.63859,5.00926],[-59.61211,5.0007],[-59.59563,4.99035],[-59.5841,4.98881],[-59.5758,4.97362],[-59.55036,4.98381],[-59.53359,5.01346],[-59.508,5.01338],[-59.5056,5.02098],[-59.52187,5.03773],[-59.52804,5.06126],[-59.54087,5.05995],[-59.54197,5.06885],[-59.56474,5.07394],[-59.57523,5.08154]]]},"properties":{"NCID":"806","REGION":"Potaro-Siparuni","VILLAGES":"Chenapau River","STATUS":"Not Classified","Males_2012":133,"Fem_2012":97,"Tot_2012":230}},
{"type":"Feature","geometry":{"type":"Polygon","coordinates":[[[-59.98978,4.97125],[-59.96418,4.96425],[-59.92874,4.96217],[-59.91529,5.00845],[-59.89525,5.03807],[-59.89255,5.05248],[-59.92976,5.05505],[-59.9607,5.04293],[-59.97571,5.04034],[-59.97952,5.01527],[-59.98831,5.00605],[-59.98978,4.97125]]]},"properties":{"NCID":"807","REGION":"Potaro-Siparuni","VILLAGES":"Kaibarupai","STATUS":"Not Classified","Males_2012":97,"Fem_2012":107,"Tot_2012":204}},
{"type":"Feature","geometry":{"type":"Polygon","coordinates":[[[-59.98978,4.97125],[-59.98959,4.94967],[-60.00102,4.91732],[-60.00707,4.88716],[-60.00495,4.88161],[-59.95372,4.86041],[-59.9442,4.87937],[-59.91864,4.90755],[-59.88895,4.88586],[-59.87204,4.85991],[-59.86204,4.85315],[-59.84112,4.87109],[-59.83952,4.90941],[-59.83062,4.9248],[-59.79638,4.95004],[-59.77115,4.99021],[-59.76488,5.00859],[-59.76642,5.02019],[-59.78139,5.02687],[-59.79901,5.04252],[-59.81923,5.0548],[-59.84059,5.07268],[-59.85555,5.0771],[-59.87307,5.07103],[-59.89255,5.05248],[-59.89525,5.03807],[-59.91529,5.00845],[-59.92874,4.96217],[-59.96418,4.96425],[-59.98978,4.97125]]]},"properties":{"NCID":"805","REGION":"Potaro-Siparuni","VILLAGES":"Kopanang, Waipa, Kenepai","STATUS":"Not Classified","Males_2012":74,"Fem_2012":54,"Tot_2012":128}},
{"type":"Feature","geometry":{"type":"Polygon","coordinates":[[[-59.59196,4.46105],[-59.60725,4.47441],[-59.61708,4.48583],[-59.64766,4.50745],[-59.68146,4.51457],[-59.71252,4.53876],[-59.74542,4.5378],[-59.74501,4.53114],[-59.77294,4.4773],[-59.77254,4.46529],[-59.78327,4.45944],[-59.78757,4.44609],[-59.78342,4.45034],[-59.75023,4.42057],[-59.73512,4.42327],[-59.72192,4.39868],[-59.69466,4.37999],[-59.68389,4.38515],[-59.66081,4.37422],[-59.62711,4.38552],[-59.59196,4.46105]]]},"properties":{"NCID":"802","REGION":"Potaro-Siparuni","VILLAGES":"Monkey Mountain","STATUS":"Not Classified","Males_2012":143,"Fem_2012":152,"Tot_2012":295}},
{"type":"Feature","geometry":{"type":"Polygon","coordinates":[[[-59.71175,4.79759],[-59.71898,4.77636],[-59.73962,4.75667],[-59.75632,4.72915],[-59.76868,4.69145],[-59.78112,4.67219],[-59.7774,4.64205],[-59.76175,4.61735],[-59.74061,4.60803],[-59.73297,4.59596],[-59.72226,4.6128],[-59.70121,4.62779],[-59.67545,4.63808],[-59.64387,4.66056],[-59.61581,4.68498],[-59.60807,4.7058],[-59.58286,4.74066],[-59.61269,4.76651],[-59.65828,4.7757],[-59.67249,4.78314],[-59.67856,4.80708],[-59.69611,4.80963],[-59.71175,4.79759]]]},"properties":{"NCID":"803","REGION":"Potaro-Siparuni","VILLAGES":"Paramakatoi","STATUS":"Not Classified","Males_2012":415,"Fem_2012":416,"Tot_2012":831}},
{"type":"Feature","geometry":{"type":"Polygon","coordinates":[[[-60.00495,4.88161],[-60.01347,4.84322],[-60.02519,4.83183],[-60.0282,4.8178],[-60.02197,4.81289],[-60.03364,4.80376],[-60.03592,4.79043],[-60.02218,4.78349],[-60.02657,4.76588],[-60.02552,4.74283],[-60.03926,4.72442],[-60.02662,4.71406],[-60.02594,4.70555],[-60.05873,4.67799],[-60.07542,4.65548],[-60.06942,4.64307],[-60.07573,4.63374],[-60.06979,4.61812],[-60.08902,4.60598],[-60.11258,4.60252],[-60.12342,4.60501],[-60.13115,4.59576],[-60.12295,4.58062],[-60.13553,4.58068],[-60.14551,4.5661],[-60.15079,4.57617],[-60.16074,4.5556],[-60.15576,4.55248],[-60.16114,4.51773],[-60.14955,4.51147],[-60.13666,4.51434],[-60.12229,4.50271],[-60.10817,4.50458],[-60.09818,4.51324],[-60.10496,4.52362],[-60.09108,4.53335],[-60.07819,4.52434],[-60.06592,4.52331],[-60.07119,4.49348],[-60.04508,4.49472],[-60.01717,4.48969],[-60.00917,4.49588],[-59.98963,4.48594],[-59.97599,4.49124],[-59.97094,4.50955],[-59.95192,4.49996],[-59.93732,4.50049],[-59.92538,4.48789],[-59.93031,4.48078],[-59.91102,4.47641],[-59.91613,4.46875],[-59.90487,4.46059],[-59.89823,4.47859],[-59.87559,4.47309],[-59.87813,4.48425],[-59.87181,4.48541],[-59.87183,4.47711],[-59.86306,4.471],[-59.86061,4.47472],[-59.85475,4.47521],[-59.85245,4.4787],[-59.8525,4.47889],[-59.85181,4.47985],[-59.85222,4.48156],[-59.84922,4.4824],[-59.84159,4.48452],[-59.83194,4.49017],[-59.81769,4.51269],[-59.8163,4.52507],[-59.79971,4.53781],[-59.81335,4.57691],[-59.81196,4.58901],[-59.79621,4.59771],[-59.7774,4.64205],[-59.78112,4.67219],[-59.76868,4.69145],[-59.75632,4.72915],[-59.73962,4.75667],[-59.71898,4.77636],[-59.71175,4.79759],[-59.72404,4.7908],[-59.74493,4.78697],[-59.78488,4.78718],[-59.79498,4.79388],[-59.78847,4.84372],[-59.80049,4.86127],[-59.81246,4.86796],[-59.84112,4.87109],[-59.86204,4.85315],[-59.87204,4.85991],[-59.88895,4.88586],[-59.91864,4.90755],[-59.9442,4.87937],[-59.95372,4.86041],[-60.00495,4.88161]]]},"properties":{"NCID":"804","REGION":"Potaro-Siparuni","VILLAGES":"Maripari River + Kurukabaru","STATUS":"Not Classified","Males_2012":177,"Fem_2012":138,"Tot_2012":315}},
{"type":"Feature","geometry":{"type":"Polygon","coordinates":[[[-59.89255,5.05248],[-59.87307,5.07103],[-59.85555,5.0771],[-59.84059,5.07268],[-59.81923,5.0548],[-59.79901,5.04252],[-59.78139,5.02687],[-59.76642,5.02019],[-59.76488,5.00859],[-59.77115,4.99021],[-59.79638,4.95004],[-59.83062,4.9248],[-59.83952,4.90941],[-59.84112,4.87109],[-59.81246,4.86796],[-59.80049,4.86127],[-59.78847,4.84372],[-59.79498,4.79388],[-59.78488,4.78718],[-59.74493,4.78697],[-59.72404,4.7908],[-59.71175,4.79759],[-59.69611,4.80963],[-59.67856,4.80708],[-59.67249,4.78314],[-59.65828,4.7757],[-59.61269,4.76651],[-59.58286,4.74066],[-59.60807,4.7058],[-59.61581,4.68498],[-59.64387,4.66056],[-59.67545,4.63808],[-59.70121,4.62779],[-59.72226,4.6128],[-59.73297,4.59596],[-59.74061,4.60803],[-59.76175,4.61735],[-59.7774,4.64205],[-59.79621,4.59771],[-59.81196,4.58901],[-59.81335,4.57691],[-59.79971,4.53781],[-59.8163,4.52507],[-59.81769,4.51269],[-59.83194,4.49017],[-59.84159,4.48452],[-59.84922,4.4824],[-59.85222,4.48156],[-59.85181,4.47985],[-59.8525,4.47889],[-59.85245,4.4787],[-59.85237,4.47836],[-59.85468,4.47515],[-59.85973,4.47449],[-59.86364,4.46958],[-59.87036,4.46674],[-59.86117,4.45241],[-59.83101,4.45758],[-59.83106,4.45133],[-59.81224,4.44709],[-59.80495,4.466],[-59.79378,4.46346],[-59.79648,4.45003],[-59.78757,4.44609],[-59.78327,4.45944],[-59.77254,4.46529],[-59.77294,4.4773],[-59.74501,4.53114],[-59.74542,4.5378],[-59.71252,4.53876],[-59.68146,4.51457],[-59.64766,4.50745],[-59.61708,4.48583],[-59.60725,4.47441],[-59.59196,4.46105],[-59.54001,4.50833],[-59.50548,4.52015],[-59.48744,4.51244],[-59.48435,4.49754],[-59.49569,4.47442],[-59.49466,4.45027],[-59.46683,4.43948],[-59.45446,4.42509],[-59.46064,4.40248],[-59.50187,4.36445],[-59.48641,4.32385],[-59.48074,4.29764],[-59.47868,4.27143],[-59.4828,4.25601],[-59.4993,4.23648],[-59.50806,4.21849],[-59.50239,4.19485],[-59.47868,4.17532],[-59.4493,4.15887],[-59.3921,4.15064],[-59.33437,4.14602],[-59.31994,4.15424],[-59.27716,4.14602],[-59.2684,4.15527],[-59.19161,4.15167],[-59.17666,4.14653],[-59.1612,4.15219],[-59.15656,4.16349],[-59.13904,4.1712],[-59.1277,4.18508],[-59.10554,4.18406],[-59.06998,4.16504],[-59.07049,4.14859],[-59.06017,4.10778],[-59.05375,4.0962],[-59.01391,4.05382],[-59.01042,4.04017],[-58.9888,4.01305],[-58.94839,3.99911],[-58.92838,3.99911],[-58.88382,4.03038],[-58.83341,4.07407],[-58.8083,4.10533],[-58.77148,4.13659],[-58.73938,4.15204],[-58.72862,4.17256],[-58.69897,4.21041],[-58.67707,4.25278],[-58.60589,4.2701],[-58.57266,4.28422],[-58.54793,4.27857],[-58.5247,4.28008],[-58.49997,4.26295],[-58.47656,4.25221],[-58.46482,4.25668],[-58.46809,4.27628],[-58.44616,4.32756],[-58.40936,4.39014],[-58.41062,4.45498],[-58.40331,4.46956],[-58.38037,4.50147],[-58.3282,4.58741],[-58.3224,4.60324],[-58.3161,4.64017],[-58.34281,4.63892],[-58.37634,4.62836],[-58.44894,4.61731],[-58.51473,4.61856],[-58.54775,4.61655],[-58.57724,4.62083],[-58.60396,4.62836],[-58.66446,4.65624],[-58.67527,4.6523],[-58.68814,4.68669],[-58.71132,4.69764],[-58.70737,4.70979],[-58.70943,4.74264],[-58.72059,4.75649],[-58.7381,4.76214],[-58.7587,4.75957],[-58.7678,4.76556],[-58.77604,4.75837],[-58.79972,4.76163],[-58.80007,4.78472],[-58.82341,4.80319],[-58.82045,4.83645],[-58.83339,4.84355],[-58.82977,4.86255],[-58.84932,4.90071],[-58.85252,4.92757],[-58.87011,4.94322],[-58.88143,4.97394],[-58.86629,5.03575],[-58.84856,5.09868],[-58.8292,5.10939],[-58.82071,5.12309],[-58.82197,5.15061],[-58.84506,5.16279],[-58.84876,5.16979],[-58.84732,5.23063],[-58.84108,5.25695],[-58.86216,5.26918],[-58.87805,5.29768],[-58.89389,5.30295],[-58.90232,5.3118],[-58.90585,5.34299],[-58.90177,5.35267],[-58.89757,5.36168],[-58.89573,5.36555],[-58.89569,5.36563],[-58.90427,5.36608],[-58.91177,5.36647],[-58.91658,5.34302],[-58.93375,5.31775],[-58.95972,5.2992],[-58.96846,5.28569],[-58.98716,5.28182],[-59.02987,5.2849],[-59.05614,5.27075],[-59.08002,5.24106],[-59.0914,5.23399],[-59.10362,5.21519],[-59.11878,5.20136],[-59.13745,5.19104],[-59.1769,5.18416],[-59.22366,5.18018],[-59.24934,5.16691],[-59.2793,5.1559],[-59.26723,5.19081],[-59.26543,5.20618],[-59.27858,5.24989],[-59.27684,5.28108],[-59.27974,5.31133],[-59.28584,5.32853],[-59.2928,5.3285],[-59.30065,5.31451],[-59.31735,5.31026],[-59.32714,5.32093],[-59.32625,5.3307],[-59.33656,5.35394],[-59.36164,5.35664],[-59.37932,5.36308],[-59.39841,5.37558],[-59.42538,5.38385],[-59.4472,5.38423],[-59.50719,5.40353],[-59.51973,5.40487],[-59.5272,5.41369],[-59.54579,5.41687],[-59.5822,5.4338],[-59.59715,5.44341],[-59.59711,5.44233],[-59.59647,5.42283],[-59.59118,5.40828],[-59.59698,5.39448],[-59.61109,5.39021],[-59.66302,5.39498],[-59.69554,5.39423],[-59.71873,5.40376],[-59.82359,5.41505],[-59.87148,5.41129],[-59.90576,5.39774],[-59.96525,5.36612],[-59.98113,5.34679],[-59.99298,5.31894],[-59.99726,5.29233],[-60.01465,5.25568],[-60.03306,5.22606],[-60.05246,5.20523],[-60.07994,5.18364],[-60.10137,5.1726],[-60.094,5.14],[-60.06341,5.13772],[-60.04093,5.10648],[-60.03485,5.10803],[-60.01839,5.08888],[-59.99821,5.0829],[-59.99304,5.08728],[-59.97205,5.07643],[-59.96984,5.06335],[-59.97756,5.05314],[-59.97571,5.04034],[-59.9607,5.04293],[-59.92976,5.05505],[-59.89255,5.05248]],[[-59.57523,5.08154],[-59.56474,5.07394],[-59.54197,5.06885],[-59.54087,5.05995],[-59.52804,5.06126],[-59.52187,5.03773],[-59.5056,5.02098],[-59.508,5.01338],[-59.53359,5.01346],[-59.55036,4.98381],[-59.5758,4.97362],[-59.5841,4.98881],[-59.59563,4.99035],[-59.61211,5.0007],[-59.63859,5.00926],[-59.64287,5.00573],[-59.65981,5.01932],[-59.67222,5.03895],[-59.66095,5.05039],[-59.66088,5.06349],[-59.64871,5.07769],[-59.63705,5.07354],[-59.61713,5.08594],[-59.61507,5.07985],[-59.59508,5.09063],[-59.57523,5.08154]]]},"properties":{"NCID":"808","REGION":"Potaro-Siparuni","VILLAGES":"Rest of Region 8","STATUS":"Not Classified","Males_2012":1081,"Fem_2012":852,"Tot_2012":1933}},
{"type":"Feature","geometry":{"type":"Polygon","coordinates":[[[-58.89573,5.36555],[-58.89555,5.36554],[-58.89097,5.38023],[-58.87551,5.39566],[-58.88363,5.42333],[-58.89119,5.43362],[-58.90152,5.46298],[-58.90833,5.47302],[-58.95925,5.47979],[-58.97261,5.48732],[-58.9905,5.50689],[-59.00613,5.53073],[-59.021,5.54026],[-59.03386,5.54202],[-59.08427,5.51718],[-59.09713,5.51542],[-59.11603,5.52044],[-59.12309,5.54001],[-59.1178,5.55908],[-59.11931,5.58843],[-59.12662,5.59922],[-59.15057,5.62129],[-59.15939,5.66394],[-59.19216,5.69604],[-59.22518,5.72464],[-59.24786,5.72238],[-59.28845,5.70256],[-59.3076,5.67949],[-59.35474,5.6095],[-59.37919,5.59746],[-59.4223,5.59596],[-59.47246,5.62581],[-59.5148,5.62807],[-59.55564,5.60273],[-59.58337,5.58166],[-59.60152,5.56309],[-59.60883,5.54152],[-59.59925,5.50739],[-59.59711,5.44233],[-59.59715,5.44341],[-59.5822,5.4338],[-59.54579,5.41687],[-59.5272,5.41369],[-59.51973,5.40487],[-59.50719,5.40353],[-59.4472,5.38423],[-59.42538,5.38385],[-59.39841,5.37558],[-59.37932,5.36308],[-59.36164,5.35664],[-59.33656,5.35394],[-59.32625,5.3307],[-59.32714,5.32093],[-59.31735,5.31026],[-59.30065,5.31451],[-59.2928,5.3285],[-59.28584,5.32853],[-59.27974,5.31133],[-59.27684,5.28108],[-59.27858,5.24989],[-59.26543,5.20618],[-59.26723,5.19081],[-59.2793,5.1559],[-59.24934,5.16691],[-59.22366,5.18018],[-59.1769,5.18416],[-59.13745,5.19104],[-59.11878,5.20136],[-59.10362,5.21519],[-59.0914,5.23399],[-59.08002,5.24106],[-59.05614,5.27075],[-59.02987,5.2849],[-58.98716,5.28182],[-58.96846,5.28569],[-58.95972,5.2992],[-58.93375,5.31775],[-58.91658,5.34302],[-58.91177,5.36647],[-58.90427,5.36608],[-58.89569,5.36563],[-58.89573,5.36555]]]},"properties":{"NCID":"801","REGION":"Potaro-Siparuni","VILLAGES":"Madhia + Kurubrong River + Mona Falls","STATUS":"Not Classified","Males_2012":348,"Fem_2012":292,"Tot_2012":640}}
]}