{"type":"FeatureCollection", "features": [
{"type":"Feature","geometry":{"type":"Polygon","coordinates":[[[-57.35182,6.26116],[-57.35079,6.26529],[-57.35036,6.26592],[-57.35068,6.26719],[-57.34996,6.2706],[-57.34904,6.27319],[-57.35066,6.27426],[-57.35406,6.26206],[-57.35356,6.26194],[-57.3532,6.26184],[-57.3526,6.26164],[-57.35182,6.26116]]]},"properties":{"id":5,"Consit":"Rose Hall North (B)"}},
{"type":"Feature","geometry":{"type":"Polygon","coordinates":[[[-57.35806,6.25622],[-57.35796,6.25652],[-57.35755,6.25793],[-57.35271,6.27572],[-57.35666,6.27869],[-57.36205,6.25925],[-57.3613,6.25867],[-57.35923,6.25715],[-57.35806,6.25622]]]},"properties":{"id":1,"Consit":"Williamsburg (North)"}},
{"type":"Feature","geometry":{"type":"Polygon","coordinates":[[[-57.35611,6.25476],[-57.35406,6.26206],[-57.35066,6.27426],[-57.35271,6.27572],[-57.35755,6.25793],[-57.35796,6.25652],[-57.35806,6.25622],[-57.35641,6.25499],[-57.35611,6.25476]]]},"properties":{"id":6,"Consit":"Rose Hall North (C)"}},
{"type":"Feature","geometry":{"type":"Polygon","coordinates":[[[-57.3613,6.25867],[-57.36208,6.25927],[-57.36361,6.25372],[-57.36153,6.25313],[-57.36162,6.25272],[-57.35928,6.25204],[-57.35876,6.25374],[-57.35869,6.25403],[-57.35859,6.2544],[-57.35834,6.2553],[-57.35806,6.25622],[-57.35923,6.25715],[-57.3613,6.25867]]]},"properties":{"id":2,"Consit":"Williamsburg (Central)"}},
{"type":"Feature","geometry":{"type":"Polygon","coordinates":[[[-57.35806,6.25622],[-57.35834,6.2553],[-57.35859,6.2544],[-57.35869,6.25403],[-57.35876,6.25374],[-57.35928,6.25204],[-57.3599,6.24992],[-57.36456,6.23392],[-57.37678,6.18741],[-57.38508,6.1582],[-57.38016,6.15701],[-57.36508,6.21176],[-57.36056,6.22864],[-57.35605,6.24513],[-57.35401,6.25317],[-57.35611,6.25476],[-57.35641,6.25499],[-57.35806,6.25622]]]},"properties":{"id":7,"Consit":"Rose Hall (Central)"}},
{"type":"Feature","geometry":{"type":"Polygon","coordinates":[[[-57.36361,6.25372],[-57.36761,6.23929],[-57.37636,6.20821],[-57.38976,6.15934],[-57.38508,6.1582],[-57.37678,6.18741],[-57.36456,6.23392],[-57.3599,6.24992],[-57.35928,6.25204],[-57.36162,6.25272],[-57.36153,6.25313],[-57.36361,6.25372]]]},"properties":{"id":3,"Consit":"Williamsburg (South)"}},
{"type":"Feature","geometry":{"type":"Polygon","coordinates":[[[-57.35406,6.26206],[-57.35611,6.25476],[-57.35401,6.25317],[-57.35182,6.26116],[-57.3526,6.26164],[-57.3532,6.26184],[-57.35356,6.26194],[-57.35406,6.26206]]]},"properties":{"id":4,"Consit":"Rose Hall North (A)"}}
]}