{"type":"FeatureCollection", "features": [
{"type":"Feature","geometry":{"type":"Polygon","coordinates":[[[-58.13841,6.50181],[-58.12506,6.50166],[-58.12515,6.50935],[-58.11311,6.50904],[-58.11305,6.52281],[-58.11138,6.52958],[-58.11279,6.53445],[-58.09722,6.53408],[-58.09685,6.53536],[-58.101,6.53691],[-58.101,6.54012],[-58.09871,6.54562],[-58.0945,6.54531],[-58.09161,6.54757],[-58.09203,6.55434],[-58.08973,6.55665],[-58.15796,6.55688],[-58.15803,6.53108],[-58.15564,6.53127],[-58.15261,6.53232],[-58.15115,6.53295],[-58.1413,6.53654],[-58.14039,6.53658],[-58.13834,6.53612],[-58.13841,6.50181]]]},"properties":{"Shape_Leng":29318.2283211,"Shape_Area":27378275.2773}},
{"type":"Feature","geometry":{"type":"Polygon","coordinates":[[[-58.16334,6.52931],[-58.16683,6.52833],[-58.17103,6.53449],[-58.18259,6.53956],[-58.1828,6.51596],[-58.17013,6.51576],[-58.16976,6.52116],[-58.16248,6.52135],[-58.1622,6.52593],[-58.16334,6.52931]]]},"properties":{"Shape_Leng":8891.80540669,"Shape_Area":4022339.15331}},
{"type":"Feature","geometry":{"type":"Polygon","coordinates":[[[-58.15564,6.53127],[-58.16334,6.52931],[-58.1622,6.52593],[-58.16248,6.52135],[-58.16976,6.52116],[-58.17013,6.51576],[-58.1828,6.51596],[-58.18273,6.50133],[-58.13841,6.50181],[-58.13834,6.53612],[-58.14039,6.53658],[-58.1413,6.53654],[-58.15115,6.53295],[-58.15261,6.53232],[-58.15564,6.53127]]]},"properties":{"Shape_Leng":16964.3218336,"Shape_Area":13329261.2636}}
]}